{"type": "FeatureCollection", "metadata": {"note": "The New York Central's coal railroad. The Toledo & Ohio Central and its subsidiary Kanawha & Michigan ran from the Kanawha Valley mines of West Virginia north through the heart of Ohio's coal counties, through Columbus, to the Toledo lakefront coal docks -- and on this single-track road moved almost a quarter of all the coal on the entire NYC System. Its ancestor, the Atlantic & Lake Erie of 1869, was chartered to link Toledo with Pomeroy on the Ohio River and deliberately bypassed Columbus to the east to reach the coal; that line was finished Toledo-Middleport in 1882 and rebranded the Toledo & Ohio Central in 1885. Buying the Toledo, Columbus & Cincinnati in 1892 gave the company a second, western route via Kenton into Columbus, completed 1893. The three lines drawn here are the T&OC's own names for them: the 197-mile Western Branch (Corning - New Lexington - Columbus - Marysville - Kenton - Findlay - Stanley Yard, Toledo), the 147-mile Eastern Branch (Thurston - Johnstown - Bucyrus - Fostoria - Stanley Yard), and the Southern Branch, the Kanawha & Michigan, running from Corning through Hobson, over the Ohio River on a 3,932-foot through-truss bridge at Point Pleasant and up the Kanawha Valley through Charleston. The New York Central leased the T&OC in 1928 and bought it outright in 1938. This fills in the last large blank area of the NYC system on the map: southeastern Ohio and the West Virginia coalfields.", "sources": ["https://columbusrailroads.com/new/pdf/c&ccrr-part%202%20nyc.pdf ('Columbus and the Coal Country Railroads, Part II - The New York Central System', Columbus Railroads): the T&OC ran from southern West Virginia through Ohio's coal counties and Columbus to the Toledo Lakefront Coal Docks and carried almost a quarter of all coal moving on the NYC System; its main components were the 197-mile Western Branch from Corning through New Lexington, Columbus, Marysville, Kenton and Findlay to Stanley Yard in Toledo, the 147-mile Eastern Branch from Thurston (Milepost 160.8 on the Western Branch) through Johnstown, Bucyrus and Fostoria to Stanley Yard, and the Southern Branch from Corning through Hobson, over the Ohio River via a 3,932-foot through-truss bridge at Point Pleasant, WV, and up the Kanawha Valley through Charleston to Swiss; roundhouses and shops at Stanley Yard, Kenton, West Columbus, Bucyrus, Fultonham, Corning and Hobson in Ohio and at Charleston and Dickinson Yard in West Virginia; the NYC System peaked at 11,934 route miles in 1930", "https://www.american-rails.com/toc.html (Atlantic & Lake Erie Railroad formed 1869 to connect Toledo with Pomeroy, Ohio, deliberately circumventing Columbus to the east to tap southeastern Ohio coal; reorganized as the Ohio Central in 1876 after building only 7 miles; receivership 1878; line completed Toledo to Middleport/Pomeroy 1882; rebranded Toledo & Ohio Central 1885; acquired the Toledo, Columbus & Cincinnati in 1892 giving a second route between Toledo and Columbus via Kenton, the Kenton-Columbus segment completed 1893; known as the 'Coal Line'; leased by the New York Central in 1928 and fully integrated in 1938)", "https://en.wikipedia.org/wiki/Toledo_and_Ohio_Central_Railway (T&OC operated 1885-1952; New York Central leasing from 1928 and purchase in 1938; predecessors listed as the Atlantic & Lake Erie, Atlantic & Northwestern, Ohio Central Railroad, Ohio Central Railway and Zanesville & Western)", "https://en.wikipedia.org/wiki/Wikipedia:WikiProject_Trains/ICC_valuations/Kanawha_and_Michigan_Railway (ICC valuation: main line Corning, Ohio to Gauley Bridge, W.Va.; Corning to Hobson 56.8 miles, Point Pleasant to Charleston 56.6 miles, Charleston to Malden 7.0 miles, Malden to Gauley Bridge 30.3 miles; 163.682 miles wholly owned; incorporated Apr 1890; as of Dec 31 1917 controlled through stock ownership by the Toledo and Ohio Central Railway, which was itself controlled by the New York Central Railroad)", "https://www.american-rails.com/knwa.html (the Kanawha & Michigan was incorporated Apr 25 1890 and purchased the Charleston & Gauley Railway from Charleston to Dickinson on July 1 1890, extending to Gauley Bridge where it met the C&O and beginning operations Aug 21 1893; the Point Pleasant-Charleston line was completed in 1882, 56.6 miles, running through Putnam and Kanawha counties serving Buffalo, Red House, Poca, Raymond City and Dunbar; the corridor passed to Penn Central in 1968, Conrail in 1976 and Norfolk Southern in the 1999 Conrail split)"], "not_yet_sourced": "Timetable frequencies for any era -- all headways here are estimates, and this was overwhelmingly a freight railroad, so the headways stand in for coal-train density rather than passenger service. Also not drawn or sourced here: the T&OC's many coal branches (the Buckingham Branch Glouster-Drakes-Shawnee, the 34-mile Hitop Branch out of Charleston, the Bailey Run and Sugar Creek & Athens, the Zanesville & Western and the Columbus, Shawnee & Hocking lines east of Columbus), and the exact abandonment dates of the segments that are gone today.", "geometry_sources": ["OpenStreetMap (via Overpass API), ways tagged railway=rail/abandoned/disused/razed/dismantled, routed between the town waypoints named in the Columbus Railroads source with a shortest-path search over the OSM rail graph. Much of this network is still active freight track (Norfolk Southern and CSX), so most of it traces onto real rails; abandoned stretches depend on OSM's abandoned-railway coverage.", "Per-segment tracing result (segments marked STRAIGHT LINE are honest approximations, not traced track):   ok Toledo OH -> Findlay OH: 22 pts, 81km (snap 958/95m) |   ok Findlay OH -> Kenton OH: 16 pts, 51km (snap 95/277m) |   ok Kenton OH -> Marysville OH: 12 pts, 53km (snap 277/278m) |   ok Marysville OH -> Columbus OH: 10 pts, 45km (snap 278/727m) |   ok Columbus OH -> Thurston OH: 19 pts, 51km (snap 727/2684m) |   ok Thurston OH -> New Lexington OH: 26 pts, 36km (snap 2684/356m) |   ok New Lexington OH -> Corning OH: 20 pts, 19km (snap 356/697m) |   XX Thurston OH -> Johnstown OH: no route -- STRAIGHT LINE used |   ok Johnstown OH -> Centerburg OH: 5 pts, 16km (snap 302/900m) |   ok Centerburg OH -> Mount Gilead OH: 13 pts, 31km (snap 883/1290m) |   ok Mount Gilead OH -> Bucyrus OH: 14 pts, 50km (snap 1290/181m) |   ok Bucyrus OH -> Fostoria OH: 11 pts, 72km (snap 181/346m) |   ok Fostoria OH -> Toledo OH: 16 pts, 73km (snap 346/958m) |   ok Corning OH -> Glouster OH: 15 pts, 13km (snap 697/74m) |   ok Glouster OH -> Chauncey OH: 12 pts, 15km (snap 74/230m) |   ~~ Chauncey OH -> Middleport OH: routed 105km vs 45km crow -- STRAIGHT LINE used |   ok Middleport OH -> Point Pleasant WV: 21 pts, 22km (snap 260/200m) |   ok Point Pleasant WV -> Buffalo WV: 18 pts, 35km (snap 200/328m) |   ok Buffalo WV -> Poca WV: 19 pts, 27km (snap 328/533m) |   ok Poca WV -> Charleston WV: 19 pts, 30km (snap 533/536m) |   ok Charleston WV -> Cedar Grove WV: 20 pts, 30km (snap 536/451m) |   ok Cedar Grove WV -> Gauley Bridge WV: 29 pts, 30km (snap 451/126m)"]}, "features": [{"type": "Feature", "properties": {"company": "Toledo and Ohio Central Railway / New York Central Railroad", "line": "T&OC Western Branch: Toledo - Findlay - Kenton - Columbus - Corning", "id": "toc-western-branch-toledo-corning", "color": "#7f4f24", "mode": "intercity_rail", "avg_speed_kmh": 40, "speed_source": "estimated: single-track coal main with helper districts at Kenton and over Moxahala Hill north of Corning; unsourced", "segments": [{"start": 1892, "end": 1928, "headway_min": 240, "note": "The T&OC bought the Toledo, Columbus & Cincinnati in 1892 and completed the Kenton-Columbus segment in 1893, giving it a second route between the Ohio River coal country and Toledo, this one running through Columbus; headway stands in for coal-train density and is estimated, unsourced"}, {"start": 1928, "end": 1938, "headway_min": 180, "note": "Leased by the New York Central in 1928; at 197 miles Corning to Stanley Yard this was the T&OC's principal artery, with shops at Stanley Yard, Kenton and West Columbus; estimated, unsourced"}, {"start": 1938, "end": 1968, "headway_min": 180, "note": "Bought outright by the New York Central in 1938; peak era, when the single-track T&OC carried almost a quarter of all the coal moving on the NYC System up to the Toledo lakefront docks; estimated, unsourced"}, {"start": 1968, "end": 1999, "headway_min": 480, "note": "Penn Central from 1968 and Conrail from 1976 as Ohio coal traffic collapsed; estimated, unsourced"}, {"start": 1999, "end": 2026, "headway_min": 720, "note": "Split between Norfolk Southern and CSX in 1999; parts remain active freight track and parts are abandoned; estimated, unsourced"}]}, "geometry": {"type": "LineString", "coordinates": [[-83.53476, 41.66109], [-83.51637, 41.67368], [-83.50841, 41.68911], [-83.50053, 41.67742], [-83.50057, 41.67464], [-83.51331, 41.66219], [-83.5241, 41.65731], [-83.52479, 41.64903], [-83.53182, 41.64111], [-83.52823, 41.63256], [-83.52656, 41.62039], [-83.52142, 41.61293], [-83.51764, 41.59655], [-83.51485, 41.59514], [-83.52058, 41.59475], [-83.52234, 41.59647], [-83.52457, 41.59282], [-83.54019, 41.58454], [-83.64433, 41.391], [-83.64582, 41.35824], [-83.64539, 41.04818], [-83.65062, 41.04486], [-83.64507, 41.04761], [-83.64104, 41.01144], [-83.64223, 40.93057], [-83.64665, 40.91474], [-83.64702, 40.87747], [-83.64727, 40.78804], [-83.64272, 40.77571], [-83.64299, 40.66887], [-83.62729, 40.64811], [-83.6186, 40.6453], [-83.60604, 40.64333], [-83.59836, 40.63742], [-83.59619, 40.63283], [-83.59619, 40.63283], [-83.56876, 40.55994], [-83.55027, 40.41799], [-83.54842, 40.41236], [-83.48816, 40.34282], [-83.46908, 40.33168], [-83.39557, 40.24695], [-83.39021, 40.24397], [-83.37048, 40.24063], [-83.36605, 40.23874], [-83.35643, 40.23778], [-83.35385, 40.23646], [-83.07551, 39.97934], [-83.0601, 39.96876], [-83.04847, 39.96564], [-83.03621, 39.96519], [-83.02061, 39.96182], [-83.01195, 39.96245], [-83.00659, 39.96592], [-83.011, 39.96251], [-83.01056, 39.95853], [-82.99858, 39.94126], [-82.99799, 39.92494], [-82.99494, 39.92164], [-82.95263, 39.91954], [-82.89407, 39.93427], [-82.8615, 39.93255], [-82.82618, 39.91641], [-82.81516, 39.91489], [-82.80551, 39.90888], [-82.78191, 39.89918], [-82.68895, 39.85366], [-82.57125, 39.84839], [-82.5653, 39.8464], [-82.54935, 39.84543], [-82.5252, 39.82006], [-82.51912, 39.81069], [-82.50623, 39.80472], [-82.49461, 39.80256], [-82.48213, 39.79551], [-82.47192, 39.79269], [-82.46132, 39.79174], [-82.45012, 39.78392], [-82.44126, 39.77009], [-82.44036, 39.75764], [-82.4344, 39.75128], [-82.43603, 39.74591], [-82.43392, 39.73289], [-82.42789, 39.7238], [-82.42804, 39.7061], [-82.42565, 39.70363], [-82.42183, 39.70383], [-82.39188, 39.71736], [-82.37592, 39.72041], [-82.34125, 39.72268], [-82.28944, 39.71977], [-82.28347, 39.72062], [-82.27644, 39.72388], [-82.26085, 39.72472], [-82.21729, 39.71915], [-82.21424, 39.71724], [-82.21274, 39.71373], [-82.19685, 39.70152], [-82.19681, 39.69361], [-82.18518, 39.67614], [-82.18141, 39.67539], [-82.17182, 39.67716], [-82.15756, 39.67441], [-82.14421, 39.66929], [-82.13343, 39.66934], [-82.1327, 39.66733], [-82.13479, 39.66304], [-82.12469, 39.65307], [-82.12323, 39.6473], [-82.11807, 39.64075], [-82.1066, 39.63298], [-82.10295, 39.62815], [-82.09645, 39.62718], [-82.09323, 39.62523], [-82.08764, 39.61316], [-82.08847, 39.60216]]}}, {"type": "Feature", "properties": {"company": "Toledo and Ohio Central Railway / New York Central Railroad", "line": "T&OC Eastern Branch: Thurston - Johnstown - Bucyrus - Fostoria - Toledo", "id": "toc-eastern-branch-thurston-toledo", "color": "#7f4f24", "mode": "intercity_rail", "avg_speed_kmh": 40, "speed_source": "estimated: single-track coal line with a helper grade at Johnstown Hill; unsourced", "segments": [{"start": 1882, "end": 1885, "headway_min": 480, "note": "The older of the two routes north: the Atlantic & Lake Erie of 1869, chartered to link Toledo with Pomeroy on the Ohio River and deliberately routed east of Columbus to reach the coal, reorganized as the Ohio Central in 1876 and completed Toledo-Middleport in 1882; estimated, unsourced"}, {"start": 1885, "end": 1928, "headway_min": 300, "note": "Rebranded the Toledo & Ohio Central in 1885; 147 miles from Thurston (Western Branch milepost 160.8) through Johnstown, Bucyrus and Fostoria to Stanley Yard, with a roundhouse at Bucyrus; estimated, unsourced"}, {"start": 1928, "end": 1968, "headway_min": 240, "note": "New York Central lease 1928 and purchase 1938; used as the direct northbound route for Corning coal to Stanley Yard, bypassing Columbus, and as a southbound route for Big Four freight off Toledo; estimated, unsourced"}, {"start": 1968, "end": 2026, "headway_min": 720, "note": "Penn Central, Conrail, then the 1999 Norfolk Southern/CSX split; much of this route is now abandoned; estimated, unsourced"}]}, "geometry": {"type": "LineString", "coordinates": [[-82.51912, 39.81069], [-82.6852, 40.1531], [-82.68228, 40.15464], [-82.68414, 40.16265], [-82.68746, 40.22564], [-82.68655, 40.23279], [-82.70445, 40.29852], [-82.70578, 40.30042], [-82.70938, 40.30526], [-82.71912, 40.31332], [-82.75065, 40.33273], [-82.79609, 40.38927], [-82.80759, 40.39791], [-82.80774, 40.41029], [-82.82681, 40.46083], [-82.83108, 40.48369], [-82.84021, 40.49938], [-82.84124, 40.51691], [-82.83957, 40.53476], [-82.84205, 40.54715], [-82.84396, 40.54979], [-82.86219, 40.56264], [-82.84988, 40.58661], [-82.82923, 40.66184], [-82.8262, 40.66504], [-82.81298, 40.67167], [-82.80737, 40.67627], [-82.79941, 40.68976], [-82.78449, 40.73337], [-82.75385, 40.76124], [-82.73796, 40.78232], [-82.79166, 40.78312], [-82.97562, 40.80973], [-83.26335, 40.82471], [-83.29175, 40.82477], [-83.29321, 40.8345], [-83.3914, 40.97619], [-83.40635, 41.0389], [-83.40677, 41.15066], [-83.41524, 41.15309], [-83.42767, 41.15294], [-83.4281, 41.15285], [-83.40689, 41.15417], [-83.41018, 41.16166], [-83.45421, 41.41483], [-83.49723, 41.59124], [-83.49552, 41.59493], [-83.49663, 41.65128], [-83.48503, 41.66615], [-83.48184, 41.6677], [-83.47662, 41.66798], [-83.50211, 41.67996], [-83.50841, 41.68911], [-83.51637, 41.67368], [-83.53476, 41.66109]]}}, {"type": "Feature", "properties": {"company": "Kanawha and Michigan Railway / Toledo and Ohio Central Railway / New York Central Railroad", "line": "K&M / T&OC Southern Branch: Corning - Middleport - Point Pleasant - Charleston - Gauley Bridge", "id": "kanawha-michigan-corning-gauley-bridge", "color": "#4a4e69", "mode": "intercity_rail", "avg_speed_kmh": 35, "speed_source": "estimated: heavy loaded coal drags out of the Kanawha Valley on a river-grade single track; unsourced", "segments": [{"start": 1882, "end": 1890, "headway_min": 480, "note": "The Point Pleasant-Charleston line, 56.6 miles up the Kanawha Valley through Buffalo, Red House, Poca, Raymond City and Dunbar, was completed in 1882; estimated, unsourced"}, {"start": 1890, "end": 1893, "headway_min": 480, "note": "The Kanawha & Michigan Railway was incorporated Apr 1890 and bought the Charleston & Gauley Railway (Charleston to Dickinson) on July 1 1890; estimated, unsourced"}, {"start": 1893, "end": 1928, "headway_min": 300, "note": "Extended to Gauley Bridge, where it met the Chesapeake & Ohio, with operations beginning Aug 21 1893; 163.7 miles wholly owned, Corning OH to Gauley Bridge WV, and by 1917 controlled through stock ownership by the T&OC, itself controlled by the New York Central; estimated, unsourced"}, {"start": 1928, "end": 1968, "headway_min": 240, "note": "New York Central era: this was the loading end of the whole system, feeding West Virginia coal north through Corning to Columbus and Toledo, with a division point and yard at Hobson and shops at Charleston and Dickinson Yard; estimated, unsourced"}, {"start": 1968, "end": 1999, "headway_min": 480, "note": "Penn Central 1968, Conrail 1976; estimated, unsourced"}, {"start": 1999, "end": 2026, "headway_min": 600, "note": "Norfolk Southern took the corridor in the 1999 Conrail split and it still moves coal as the Kanawha River Railroad; estimated, unsourced"}]}, "geometry": {"type": "LineString", "coordinates": [[-82.08847, 39.60216], [-82.08945, 39.5974], [-82.0863, 39.59419], [-82.08482, 39.58818], [-82.07794, 39.58446], [-82.06801, 39.56715], [-82.06856, 39.55857], [-82.06208, 39.54311], [-82.06368, 39.53962], [-82.07162, 39.53441], [-82.06971, 39.51703], [-82.07446, 39.50604], [-82.07691, 39.50394], [-82.08433, 39.50173], [-82.08746, 39.50268], [-82.08422, 39.49109], [-82.07365, 39.48198], [-82.07287, 39.47755], [-82.07554, 39.4747], [-82.08513, 39.4725], [-82.08935, 39.46466], [-82.09387, 39.46083], [-82.10338, 39.44573], [-82.09738, 39.43381], [-82.12646, 39.40877], [-82.13162, 39.39657], [-82.129, 39.397], [-82.0479, 38.997], [-82.04544, 38.99565], [-82.06314, 38.98332], [-82.0767, 38.97797], [-82.08726, 38.96765], [-82.09186, 38.96012], [-82.08691, 38.95073], [-82.08927, 38.94429], [-82.09424, 38.94031], [-82.10306, 38.93767], [-82.10878, 38.93184], [-82.11458, 38.92107], [-82.11513, 38.91466], [-82.11728, 38.9109], [-82.12538, 38.90657], [-82.13078, 38.89837], [-82.13289, 38.89274], [-82.13106, 38.87698], [-82.13689, 38.85107], [-82.13315, 38.84325], [-82.12489, 38.84044], [-82.13537, 38.84508], [-82.11372, 38.8343], [-82.0961, 38.81859], [-82.06065, 38.81001], [-82.05021, 38.80352], [-82.02145, 38.79007], [-81.99779, 38.77707], [-81.9876, 38.77512], [-81.98081, 38.76982], [-81.97089, 38.75815], [-81.96051, 38.74987], [-81.95345, 38.73412], [-81.94869, 38.71466], [-81.95095, 38.68809], [-81.94889, 38.67969], [-81.94996, 38.66682], [-81.96144, 38.63662], [-81.97615, 38.61409], [-81.99299, 38.59144], [-81.99304, 38.58081], [-81.98902, 38.57473], [-81.96345, 38.557], [-81.95037, 38.54409], [-81.9212, 38.53111], [-81.90904, 38.53104], [-81.8987, 38.5367], [-81.88654, 38.54599], [-81.87164, 38.54033], [-81.86388, 38.53548], [-81.85455, 38.52375], [-81.84233, 38.51275], [-81.82982, 38.4874], [-81.82374, 38.48226], [-81.8155, 38.4796], [-81.81408, 38.47698], [-81.81511, 38.47298], [-81.81833, 38.45819], [-81.83075, 38.44622], [-81.84376, 38.41881], [-81.84277, 38.40682], [-81.83854, 38.40056], [-81.83338, 38.3964], [-81.82396, 38.39169], [-81.79361, 38.38514], [-81.76628, 38.37368], [-81.75434, 38.36503], [-81.74371, 38.36117], [-81.73503, 38.36043], [-81.72561, 38.36181], [-81.70703, 38.37195], [-81.69688, 38.37552], [-81.68966, 38.37618], [-81.63195, 38.36104], [-81.62883, 38.3536], [-81.62939, 38.35461], [-81.60855, 38.3381], [-81.57998, 38.32986], [-81.56067, 38.3169], [-81.55669, 38.31027], [-81.55643, 38.30075], [-81.564, 38.27914], [-81.56575, 38.2589], [-81.56487, 38.25458], [-81.55982, 38.24836], [-81.54319, 38.23752], [-81.50154, 38.20179], [-81.49732, 38.19965], [-81.49222, 38.19949], [-81.47398, 38.20476], [-81.44934, 38.21986], [-81.44389, 38.22194], [-81.43678, 38.22207], [-81.42952, 38.21931], [-81.42575, 38.21627], [-81.42255, 38.20881], [-81.41754, 38.20591], [-81.40981, 38.20575], [-81.38591, 38.21388], [-81.38023, 38.21345], [-81.37628, 38.21128], [-81.3715, 38.20557], [-81.37061, 38.19702], [-81.36603, 38.19255], [-81.33673, 38.18364], [-81.32247, 38.18525], [-81.3081, 38.1819], [-81.30508, 38.17765], [-81.30425, 38.1676], [-81.30241, 38.1638], [-81.29158, 38.15444], [-81.28174, 38.14253], [-81.26735, 38.13346], [-81.24323, 38.12507], [-81.22921, 38.1231], [-81.2229, 38.12471], [-81.21945, 38.13452], [-81.21215, 38.14187], [-81.21579, 38.15025], [-81.2145, 38.15735], [-81.20844, 38.16203], [-81.19549, 38.16521]]}}]}