{"type": "FeatureCollection", "metadata": {"note": "Brightline, the privately built and operated intercity railroad in Florida -- the first new private intercity passenger railroad in the United States in over a century. Service opened January 13 2018 between Fort Lauderdale and West Palm Beach, reached MiamiCentral on May 19 2018, and was extended to Orlando International Airport on September 22 2023, giving a 235-mile Miami-Orlando route. South of Cocoa it runs over the Florida East Coast Railway main, the same corridor drawn historically in florida_east_coast_railway.geojson, which had carried no scheduled passenger train since July 31 1968; north-west of Cocoa it runs on its own new line beside SR 528. SPLIT PER RULE 4: three features, because the operating name changed twice and the route changed once. Brightline 2018-2019 and 2020-2023 and Virgin Trains USA 2019-2020 all draw the original Miami-West Palm Beach line; the full Miami-Orlando route is a separate feature from 2023. Boundary years appear in two features, which is the same convention used elsewhere in this repo for ownership splits.", "sources": ["https://en.wikipedia.org/wiki/Brightline", "https://press.gobrightline.com/brightline-forms-strategic-partnership-with-virgin", "https://www.tampabay.com/news/business/2020/08/10/brightline-ends-relationship-with-virgin-trains/"], "geometry_sources": ["OpenStreetMap via Overpass API (maps.mail.ru mirror), bbox 25.70,-81.45,28.65,-80.00, ways filtered to operator/name matching Florida East Coast Railway, Brightline, All Aboard Florida or Virgin, with usage=industrial spurs excluded. Corridor-weighted Dijkstra over a 25 m node-merged graph between MiamiCentral and the Orlando International Airport station, corridor defined by the six Brightline stations plus intermediate FEC waypoints.", "Station coordinates from OSM railway=station nodes tagged operator=Brightline: MiamiCentral 25.777652/-80.195724, Aventura 25.958443/-80.147264, Fort Lauderdale 26.123843/-80.145623, Boca Raton 26.353838/-80.087481, West Palm Beach 26.712015/-80.055359, Orlando International 28.411716/-81.307757."], "not_yet_sourced": "Every headway_min is an estimate -- no Brightline timetable was consulted and the daily round-trip counts for each era were not checked. The Virgin Trains USA era is drawn as 2019-2020, but the rebrand was announced November 2018, was contractually due to complete by December 2019, and was never actually finished before the March 2020 shutdown, so the exact year at which the operating name changed is genuinely unclear and 2019 is a judgement call. Whether any Brightline trains ran under Virgin livery is not established here. Station stop patterns per era (which trains called at which stations) are not modelled.", "pulled": "20260825"}, "features": [{"type": "Feature", "properties": {"company": "Brightline", "line": "Brightline: Miami \u2013 West Palm Beach", "id": "brightline-miami-west-palm-beach", "color": "#ffd400", "mode": "intercity_rail", "avg_speed_kmh": 85, "speed_source": "Derived from published end-to-end journey times over the traced mileage, including stops. Brightline's posted maximum speeds are 125 mph Orlando-Cocoa, 110 mph Cocoa-West Palm Beach and 79-80 mph West Palm Beach-Miami; the figure here is an average, not a maximum.", "geometry_quality": "Fully real-traced from OpenStreetMap -- the MiamiCentral to West Palm Beach half of the route traced for the Miami-Orlando feature in this file, cut at the West Palm Beach station (index 52 of 253, 0.34 km from the platform). 66.8 miles against Brightline's published 67 for the original South Florida service. All FEC main-line track; no straight-line approximation and no bridged gap over 60 m. See the Miami-Orlando feature's geometry_quality for the full method. Straight-line repair 2026-08-29: 1 ruled segment totalling 16 mi replaced with OpenStreetMap-traced rail geometry (see geometry_repairs for the OSM lines each one followed).", "segments": [{"start": 2018, "end": 2019, "headway_min": 90, "note": "Brightline opened January 13 2018 between Fort Lauderdale and West Palm Beach and extended south to MiamiCentral on May 19 2018 -- the first privately built and operated intercity passenger railroad in the United States in a century, running over Florida East Coast Railway track that had carried no scheduled passengers since 1968. headway_min and avg_speed_kmh are estimates from published journey times and rough service levels, not read off a timetable.", "sources": ["Segment-level: the January 13 2018 opening and the May 19 2018 Miami extension are from the Brightline article; headway and speed are estimates.", "https://en.wikipedia.org/wiki/Brightline"]}, {"start": 2020, "end": 2023, "headway_min": 90, "note": "Brightline dropped the Virgin Trains USA rebrand and reverted to its own name in August 2020. Service had been suspended on March 25 2020 for COVID-19 and did not resume until November 8 2021, West Palm Beach to Miami -- every calendar year drawn here still carried some service (2020 to March 25, 2021 from November 8), so no year is drawn that had none, but roughly twenty months inside this segment had no trains at all. Boca Raton station opened December 21 2022 and Aventura December 24 2022. headway_min and avg_speed_kmh are estimates from published journey times and rough service levels, not read off a timetable.", "sources": ["Segment-level: the August 2020 reversion to the Brightline name, the March 25 2020 suspension, the November 8 2021 resumption and the December 2022 Boca Raton and Aventura station openings are from the Brightline article and contemporary reporting; headway and speed are estimates.", "https://en.wikipedia.org/wiki/Brightline", "https://www.tampabay.com/news/business/2020/08/10/brightline-ends-relationship-with-virgin-trains/"]}], "geometry_repairs": [{"date": "2026-08-29", "from": [-80.09177, 26.33151], "to": [-80.05441, 26.56083], "chord_mi": 16.01, "traced_mi": 16.02, "snap_m": [0, 0], "bridged_mi": 0.0, "osm_lines": ["Florida East Coast Railway (16.02 mi)"], "method": "Overpass rail graph, 8.0 km corridor, Dijkstra, simplified to 3.0 m"}]}, "geometry": {"type": "LineString", "coordinates": [[-80.19557, 25.77751], [-80.19611, 25.78167], [-80.19624, 25.78845], [-80.18767, 25.8255], [-80.18827, 25.83804], [-80.18846, 25.83943], [-80.18959, 25.84106], [-80.1886, 25.84536], [-80.18894, 25.85034], [-80.18851, 25.8522], [-80.16935, 25.89363], [-80.16806, 25.89543], [-80.16071, 25.90284], [-80.1593, 25.90518], [-80.15765, 25.91547], [-80.14715, 25.94891], [-80.14727, 25.96132], [-80.14994, 26.03739], [-80.14368, 26.06224], [-80.1425, 26.06409], [-80.13768, 26.06831], [-80.13651, 26.06968], [-80.13554, 26.07187], [-80.13534, 26.07351], [-80.13561, 26.07541], [-80.13623, 26.07687], [-80.13866, 26.07984], [-80.14, 26.08301], [-80.14489, 26.10621], [-80.14563, 26.12702], [-80.14471, 26.13042], [-80.1327, 26.1431], [-80.13142, 26.14513], [-80.13102, 26.14633], [-80.13083, 26.14818], [-80.13244, 26.20633], [-80.13215, 26.20945], [-80.10106, 26.31908], [-80.09968, 26.32185], [-80.091772, 26.331507], [-80.091313, 26.332252], [-80.0909392, 26.333065], [-80.090719, 26.333702], [-80.090501, 26.334681], [-80.0738013, 26.4398309], [-80.0708539, 26.4580059], [-80.0691108, 26.4692164], [-80.0544127, 26.5608267], [-80.05362, 26.57768], [-80.05228, 26.58316], [-80.05251, 26.59154], [-80.05319, 26.59332], [-80.05906, 26.60421], [-80.05969, 26.6066], [-80.05809, 26.6756], [-80.05773, 26.67788], [-80.05655, 26.68084], [-80.05606, 26.68299], [-80.05515, 26.715]]}}, {"type": "Feature", "properties": {"company": "Virgin Trains USA", "line": "Virgin Trains USA: Miami \u2013 West Palm Beach", "id": "virgin-trains-usa-miami-west-palm-beach", "color": "#e10a17", "mode": "intercity_rail", "avg_speed_kmh": 85, "speed_source": "Derived from published end-to-end journey times over the traced mileage, including stops. Brightline's posted maximum speeds are 125 mph Orlando-Cocoa, 110 mph Cocoa-West Palm Beach and 79-80 mph West Palm Beach-Miami; the figure here is an average, not a maximum.", "geometry_quality": "Fully real-traced from OpenStreetMap -- the MiamiCentral to West Palm Beach half of the route traced for the Miami-Orlando feature in this file, cut at the West Palm Beach station (index 52 of 253, 0.34 km from the platform). 66.8 miles against Brightline's published 67 for the original South Florida service. All FEC main-line track; no straight-line approximation and no bridged gap over 60 m. See the Miami-Orlando feature's geometry_quality for the full method. Straight-line repair 2026-08-29: 1 ruled segment totalling 16 mi replaced with OpenStreetMap-traced rail geometry (see geometry_repairs for the OSM lines each one followed).", "segments": [{"start": 2019, "end": 2020, "headway_min": 90, "note": "Brightline announced a partnership with the Virgin Group in November 2018 and renamed itself Virgin Trains USA, with the rebrand to be completed by December 2019; Richard Branson rebranded the Miami station in April 2019. CAVEAT WORTH KNOWING: the changeover was never finished and branding was inconsistent right up to the March 2020 shutdown, so treating 2019-2020 as a clean 'Virgin Trains USA era' -- which is what drawing it in its own colour does -- is a simplification. The affiliation was ended in August 2020 and the name reverted to Brightline. headway_min and avg_speed_kmh are estimates from published journey times and rough service levels, not read off a timetable.", "sources": ["Segment-level: the November 2018 Virgin partnership and renaming, the December 2019 rebrand deadline, the April 2019 Miami station rebranding, the incomplete and inconsistent branding, and the August 2020 termination are from the Brightline press release and contemporary reporting; headway and speed are estimates.", "https://press.gobrightline.com/brightline-forms-strategic-partnership-with-virgin", "https://www.tampabay.com/news/business/2020/08/10/brightline-ends-relationship-with-virgin-trains/", "https://en.wikipedia.org/wiki/Brightline"]}], "geometry_repairs": [{"date": "2026-08-29", "from": [-80.09177, 26.33151], "to": [-80.05441, 26.56083], "chord_mi": 16.01, "traced_mi": 16.02, "snap_m": [0, 0], "bridged_mi": 0.0, "osm_lines": ["Florida East Coast Railway (16.02 mi)"], "method": "Overpass rail graph, 8.0 km corridor, Dijkstra, simplified to 3.0 m"}]}, "geometry": {"type": "LineString", "coordinates": [[-80.19557, 25.77751], [-80.19611, 25.78167], [-80.19624, 25.78845], [-80.18767, 25.8255], [-80.18827, 25.83804], [-80.18846, 25.83943], [-80.18959, 25.84106], [-80.1886, 25.84536], [-80.18894, 25.85034], [-80.18851, 25.8522], [-80.16935, 25.89363], [-80.16806, 25.89543], [-80.16071, 25.90284], [-80.1593, 25.90518], [-80.15765, 25.91547], [-80.14715, 25.94891], [-80.14727, 25.96132], [-80.14994, 26.03739], [-80.14368, 26.06224], [-80.1425, 26.06409], [-80.13768, 26.06831], [-80.13651, 26.06968], [-80.13554, 26.07187], [-80.13534, 26.07351], [-80.13561, 26.07541], [-80.13623, 26.07687], [-80.13866, 26.07984], [-80.14, 26.08301], [-80.14489, 26.10621], [-80.14563, 26.12702], [-80.14471, 26.13042], [-80.1327, 26.1431], [-80.13142, 26.14513], [-80.13102, 26.14633], [-80.13083, 26.14818], [-80.13244, 26.20633], [-80.13215, 26.20945], [-80.10106, 26.31908], [-80.09968, 26.32185], [-80.091772, 26.331507], [-80.091313, 26.332252], [-80.0909392, 26.333065], [-80.090719, 26.333702], [-80.090501, 26.334681], [-80.0738013, 26.4398309], [-80.0708539, 26.4580059], [-80.0691108, 26.4692164], [-80.0544127, 26.5608267], [-80.05362, 26.57768], [-80.05228, 26.58316], [-80.05251, 26.59154], [-80.05319, 26.59332], [-80.05906, 26.60421], [-80.05969, 26.6066], [-80.05809, 26.6756], [-80.05773, 26.67788], [-80.05655, 26.68084], [-80.05606, 26.68299], [-80.05515, 26.715]]}}, {"type": "Feature", "properties": {"company": "Brightline", "line": "Brightline: Miami \u2013 Orlando", "id": "brightline-miami-orlando", "color": "#ffd400", "mode": "intercity_rail", "avg_speed_kmh": 108, "speed_source": "Derived from published end-to-end journey times over the traced mileage, including stops. Brightline's posted maximum speeds are 125 mph Orlando-Cocoa, 110 mph Cocoa-West Palm Beach and 79-80 mph West Palm Beach-Miami; the figure here is an average, not a maximum.", "geometry_quality": "Fully real-traced from OpenStreetMap -- no straight-line approximation and no bridged gap over 60 m anywhere on the route. 281.3 km follows ways named and operated 'Florida East Coast Railway', 60.6 km follows ways named 'Brightline - Orlando' operated by Brightline Trains Florida LLC (the purpose-built Cocoa-Orlando extension along SR 528), and 15.8 km is unnamed FEC- and Brightline-operated track at the terminals. Traced 234.4 miles against Brightline's published 235. All six stations fall within 250 m of the trace (MiamiCentral 0.02 km, Aventura 0.02, Fort Lauderdale 0.14, Boca Raton 0.01, West Palm Beach 0.04, Orlando International 0.05; the Cocoa junction where the route leaves the FEC is 0.23). Corridor-weighted Dijkstra over a 25 m node-merged graph, 2,626-point raw path Douglas-Peucker simplified at 20 m to 253 points. No reversals over 120 degrees and no revisits. This is current track, which for a service that began in 2018 is the correct alignment for every drawn year. Straight-line repair 2026-08-29: 2 ruled segments totalling 29 mi replaced with OpenStreetMap-traced rail geometry (see geometry_repairs for the OSM lines each one followed).", "segments": [{"start": 2023, "end": 2026, "headway_min": 60, "note": "The Orlando extension opened September 22 2023, taking Brightline 235 miles from MiamiCentral to the Intermodal Terminal at Orlando International Airport via Aventura, Fort Lauderdale, Boca Raton and West Palm Beach. North of West Palm Beach the route runs on Florida East Coast Railway track as far as Cocoa, then turns west onto 35 miles of Brightline-owned line built alongside SR 528. Maximum speeds are 125 mph Orlando-Cocoa, 110 mph Cocoa-West Palm Beach and 79-80 mph in the densely developed South Florida stretch. headway_min and avg_speed_kmh are estimates from published journey times and rough service levels, not read off a timetable.", "sources": ["Segment-level: the September 22 2023 Orlando opening, the 235-mile route, the station list, the FEC/Brightline track ownership split at Cocoa and the three maximum-speed figures are from the Brightline article; headway is an estimate of an approximately hourly service and the average speed is derived from published journey time.", "https://en.wikipedia.org/wiki/Brightline"]}], "geometry_repairs": [{"date": "2026-08-29", "from": [-80.87644, 28.45128], "to": [-81.08413, 28.45085], "chord_mi": 12.74, "traced_mi": 12.63, "snap_m": [0, 1], "bridged_mi": 0.0, "osm_lines": ["Brightline - Orlando (12.63 mi)"], "method": "Overpass rail graph, 8.0 km corridor, Dijkstra, simplified to 3.0 m"}, {"date": "2026-08-29", "from": [-80.09177, 26.33151], "to": [-80.05441, 26.56083], "chord_mi": 16.01, "traced_mi": 16.02, "snap_m": [0, 0], "bridged_mi": 0.0, "osm_lines": ["Florida East Coast Railway (16.02 mi)"], "method": "Overpass rail graph, 8.0 km corridor, Dijkstra, simplified to 3.0 m"}]}, "geometry": {"type": "LineString", "coordinates": [[-80.19557, 25.77751], [-80.19611, 25.78167], [-80.19624, 25.78845], [-80.18767, 25.8255], [-80.18827, 25.83804], [-80.18846, 25.83943], [-80.18959, 25.84106], [-80.1886, 25.84536], [-80.18894, 25.85034], [-80.18851, 25.8522], [-80.16935, 25.89363], [-80.16806, 25.89543], [-80.16071, 25.90284], [-80.1593, 25.90518], [-80.15765, 25.91547], [-80.14715, 25.94891], [-80.14727, 25.96132], [-80.14994, 26.03739], [-80.14368, 26.06224], [-80.1425, 26.06409], [-80.13768, 26.06831], [-80.13651, 26.06968], [-80.13554, 26.07187], [-80.13534, 26.07351], [-80.13561, 26.07541], [-80.13623, 26.07687], [-80.13866, 26.07984], [-80.14, 26.08301], [-80.14489, 26.10621], [-80.14563, 26.12702], [-80.14471, 26.13042], [-80.1327, 26.1431], [-80.13142, 26.14513], [-80.13102, 26.14633], [-80.13083, 26.14818], [-80.13244, 26.20633], [-80.13215, 26.20945], [-80.10106, 26.31908], [-80.09968, 26.32185], [-80.091772, 26.331507], [-80.091313, 26.332252], [-80.0909392, 26.333065], [-80.090719, 26.333702], [-80.090501, 26.334681], [-80.0738013, 26.4398309], [-80.0708539, 26.4580059], [-80.0691108, 26.4692164], [-80.0544127, 26.5608267], [-80.05362, 26.57768], [-80.05228, 26.58316], [-80.05251, 26.59154], [-80.05319, 26.59332], [-80.05906, 26.60421], [-80.05969, 26.6066], [-80.05809, 26.6756], [-80.05773, 26.67788], [-80.05655, 26.68084], [-80.05606, 26.68299], [-80.05515, 26.715], [-80.05691, 26.72689], [-80.05849, 26.73053], [-80.05829, 26.73639], [-80.05893, 26.73728], [-80.0588, 26.74006], [-80.06026, 26.74968], [-80.06037, 26.75137], [-80.05932, 26.76419], [-80.06103, 26.76932], [-80.08026, 26.815], [-80.08125, 26.81645], [-80.08971, 26.82576], [-80.0913, 26.82844], [-80.09655, 26.84785], [-80.09664, 26.85355], [-80.09358, 26.94243], [-80.09303, 26.94432], [-80.08752, 26.95101], [-80.08701, 26.95219], [-80.08685, 26.95408], [-80.09916, 26.98136], [-80.10454, 26.99064], [-80.11736, 27.02127], [-80.11803, 27.02487], [-80.11732, 27.0434], [-80.11767, 27.04598], [-80.11876, 27.04807], [-80.12132, 27.05169], [-80.13571, 27.0679], [-80.13661, 27.06941], [-80.14921, 27.0984], [-80.17081, 27.13151], [-80.17352, 27.13333], [-80.18458, 27.13701], [-80.18795, 27.1386], [-80.20981, 27.15449], [-80.22711, 27.17179], [-80.23177, 27.17598], [-80.23337, 27.17804], [-80.25231, 27.19708], [-80.26109, 27.20451], [-80.26184, 27.20562], [-80.26166, 27.20692], [-80.25948, 27.21308], [-80.25727, 27.2158], [-80.25536, 27.21698], [-80.25368, 27.2176], [-80.22788, 27.22622], [-80.2262, 27.22711], [-80.22465, 27.22883], [-80.2238, 27.2309], [-80.22383, 27.23352], [-80.22784, 27.24514], [-80.2304, 27.25419], [-80.23185, 27.25672], [-80.23963, 27.26647], [-80.24257, 27.27207], [-80.24531, 27.27596], [-80.25017, 27.285], [-80.26712, 27.31966], [-80.27218, 27.33106], [-80.28069, 27.34576], [-80.29106, 27.36794], [-80.29958, 27.38869], [-80.30962, 27.40484], [-80.31321, 27.41294], [-80.31454, 27.41932], [-80.31512, 27.42061], [-80.31756, 27.42473], [-80.31894, 27.42543], [-80.31836, 27.42722], [-80.31827, 27.42892], [-80.3187, 27.4294], [-80.3186, 27.43017], [-80.31938, 27.43034], [-80.31924, 27.43202], [-80.32023, 27.43293], [-80.32177, 27.43714], [-80.32218, 27.4398], [-80.32623, 27.45082], [-80.32656, 27.45435], [-80.32797, 27.45761], [-80.32938, 27.46477], [-80.35576, 27.52809], [-80.36188, 27.54159], [-80.37867, 27.58439], [-80.3793, 27.58662], [-80.3803, 27.59353], [-80.38342, 27.60669], [-80.38943, 27.61739], [-80.39927, 27.64435], [-80.40217, 27.65496], [-80.40678, 27.66571], [-80.41358, 27.68731], [-80.41385, 27.68905], [-80.41976, 27.70845], [-80.42101, 27.71061], [-80.4206, 27.71119], [-80.4207, 27.71165], [-80.42497, 27.72517], [-80.45374, 27.77869], [-80.47157, 27.81862], [-80.47435, 27.82236], [-80.47829, 27.82588], [-80.49503, 27.83696], [-80.49983, 27.84055], [-80.50139, 27.84375], [-80.50265, 27.87493], [-80.50344, 27.87867], [-80.53724, 27.94994], [-80.53896, 27.95286], [-80.53907, 27.95387], [-80.54578, 27.96796], [-80.55769, 27.98555], [-80.5713, 28.01452], [-80.57727, 28.02277], [-80.59854, 28.06373], [-80.60128, 28.06922], [-80.6029, 28.07495], [-80.60848, 28.08607], [-80.61027, 28.0887], [-80.63103, 28.10984], [-80.63274, 28.11221], [-80.63351, 28.11569], [-80.63451, 28.13959], [-80.63509, 28.14275], [-80.63601, 28.1445], [-80.64061, 28.15045], [-80.64208, 28.15294], [-80.65118, 28.17258], [-80.65919, 28.1849], [-80.6977, 28.28573], [-80.70185, 28.29767], [-80.70752, 28.30789], [-80.71211, 28.31442], [-80.71439, 28.32038], [-80.72468, 28.33256], [-80.7263, 28.33513], [-80.73712, 28.36561], [-80.7373, 28.37359], [-80.73815, 28.37646], [-80.74769, 28.39064], [-80.75288, 28.39929], [-80.75511, 28.40083], [-80.76171, 28.40342], [-80.7638, 28.40367], [-80.76817, 28.40312], [-80.77066, 28.40323], [-80.80674, 28.41176], [-80.80862, 28.41188], [-80.81024, 28.41165], [-80.81602, 28.40923], [-80.81846, 28.4089], [-80.82093, 28.40928], [-80.82544, 28.41102], [-80.83195, 28.41146], [-80.83637, 28.41263], [-80.83921, 28.41404], [-80.84176, 28.41594], [-80.87105, 28.44798], [-80.87354, 28.44983], [-80.8764406, 28.4512805], [-80.8782028, 28.4518595], [-80.8790705, 28.4520764], [-80.8810198, 28.4524242], [-80.8822127, 28.4525422], [-80.8831769, 28.4525787], [-80.8893359, 28.452544], [-80.8949263, 28.4525835], [-80.964995, 28.4522981], [-80.9667062, 28.4522156], [-80.974309, 28.4515494], [-80.9771307, 28.4514244], [-80.978573, 28.4514088], [-80.9799054, 28.4514279], [-80.9863615, 28.4517558], [-80.9885328, 28.4518123], [-81.0284769, 28.4516508], [-81.035808, 28.4516095], [-81.0489615, 28.4514499], [-81.0517564, 28.4513973], [-81.056451, 28.4511927], [-81.0713714, 28.4510459], [-81.0841253, 28.4508478], [-81.09542, 28.44997], [-81.10485, 28.45052], [-81.14441, 28.45087], [-81.20292, 28.45079], [-81.2158, 28.44964], [-81.21947, 28.44855], [-81.22368, 28.44684], [-81.22784, 28.4461], [-81.23189, 28.44668], [-81.23949, 28.44983], [-81.24175, 28.45046], [-81.24409, 28.45073], [-81.24836, 28.45053], [-81.25415, 28.4488], [-81.25778, 28.4482], [-81.28514, 28.44805], [-81.28745, 28.44822], [-81.29244, 28.4497], [-81.29931, 28.45086], [-81.30395, 28.45114], [-81.30577, 28.45045], [-81.30659, 28.44889], [-81.30602, 28.44548], [-81.30754, 28.4402], [-81.30755, 28.43894], [-81.30449, 28.43232], [-81.30429, 28.43037], [-81.30619, 28.42676], [-81.30609, 28.41813], [-81.30844, 28.41476], [-81.30835, 28.41172]]}}]}