{"type": "FeatureCollection", "metadata": {"note": "Chicago, Burlington and Quincy branch lines in Illinois, traced 2026-08-30 from research/branches/chicago_burlington_and_quincy_railroad.txt. The map already carried the Burlington's three Illinois trunk routes (Chicago - Quincy, Chicago - Omaha, Chicago - Twin Cities) and none of its branches; these are the branches whose passenger years the research pass could actually confirm.", "source": "research/branches/chicago_burlington_and_quincy_railroad.txt; Feb 1952 Official Guide of the Railways (Burlington Lines section), full OCR cached at research/sources/official_guide_1952.txt; branchline.uk (John Fowler), Passenger Stations & Stops, illinoisrrs2 / iowarrs / nebraskarrs / missourirrs", "pulled": "20260830", "geometry_method": "Overpass corridor fetch per branch (all railway ways: rail, abandoned, disused, razed, dismantled), Dijkstra over a graph in which ways tagged old_railway_operator=CB&Q cost 1x and everything else 3x, waypoints taken from the research report's own via lists and snapped by a dynamic program over up to eight candidate nodes each, with each leg confined to a corridor around its own straight line so the router cannot wander onto a parallel railroad. Every feature's geometry_quality gives its traced length against the report's documented mileage and names any straight-line legs.", "not_yet_sourced": "EVERY BRANCH IN THIS FILE THAT ENDS IN 1952 HAS AN UNKNOWN, WITHHELD END YEAR. The Feb 1952 Official Guide is a single snapshot: it proves the trains were running in September 1951 and says nothing about when they stopped. The Burlington's branch passenger service was swept away somewhere between about 1952 and 1968 and NOT ONE of those discontinuances has been dated by any source consulted. A 1952 end here is where the evidence stops, not where the trains stopped -- do not 'fix' one by rounding it up. Nor is a start year the year a line opened: it is the earliest year a timetable proves, usually a branchline.uk Official-Guide snapshot letter (1875, 1884 or 1893), and the lines are older than the map shows. branchline.uk cannot close a Burlington branch, only open one: outside Nebraska's single d = 1950t there is NO lettered timetable snapshot for the CB&Q between 1893 and 1976 in any of Fowler's state files, and the Missouri CB&Q legend is blank in every position. Still unexploited, and the highest-value source left for this railroad: the 1952 Guide's index of stations carries a per-station freight-only dagger across the whole 11,000-mile system, but the OCR has mangled that dagger into at least four different characters and it was not used.", "branches_deliberately_omitted": [{"branch": "Chicago, Burlington and Quincy: Earlville – Barstow", "reason": "41 of 102 traced miles (40%) came out as straight line, over a route the report gives no via list and no documented mileage for. Report block [41] is a one-year 1875 anchor recommending omission, and its 1951 Guide table survives as a title only."}]}, "features": [{"type": "Feature", "properties": {"company": "Chicago, Burlington and Quincy Railroad", "line": "Chicago, Burlington and Quincy: Chicago – Aurora (suburban)", "id": "cbq-chicago-aurora-suburban", "color": "#8E1B3C", "mode": "commuter_rail", "avg_speed_kmh": 48, "speed_source": "estimated, NOT sourced: a 37.5 mi suburban run with frequent stops on a triple-track raceway; no timetable running times were consulted", "geometry_source": "sliced from data/burlington_route_illinois.geojson (the CB&Q's own Chicago - Quincy main line) at the point nearest Aurora, 2026-08-30", "geometry_quality": "NOT AN INDEPENDENT TRACE. The suburban service ran on the Chicago - Quincy main line's own rails, so the geometry here is the first 37.7 mi of that feature's coordinates, cut at the nearest point to Aurora. It therefore inherits that layer's geometry quality, which is a GTFS-derived alignment of the modern Amtrak route over the same physical line, not a fresh OpenStreetMap trace -- it is a coarse 135-point centreline, and this slice keeps 25 of those points over 37.7 mi. Traced 37.7 mi against a documented 37.5 mi. Good enough to show where the service ran; not good enough to read curvature off.", "segments": [{"start": 1951, "end": 1970, "headway_min": 30, "note": "The Burlington's Chicago - Aurora suburban service, the heaviest commuter operation on the system and the home of the first gallery bi-level commuter cars (1950). DRAWN FROM 1951 ONLY BECAUSE THAT IS WHERE THE EVIDENCE STARTS -- the CB&Q ran suburban trains out of Chicago from the 1860s, but no first-service year was established and the Guide's own suburban tables are among those the cached OCR lost, so the 19th-century decades are omitted rather than guessed. The 1970 end is the Burlington Northern merger (2 March 1970), an operator change, not the end of service: BN ran it 1970-1974 and the RTA/Metra from 1974, and it is today's Metra BNSF Line, already drawn in data/metra.geojson. Headway is an estimate and is NOT sourced.", "sources": ["Segment-level for 1951 ONLY: the Feb 1952 Official Guide's Burlington Lines suburban tables. The 1970 end is the Burlington Northern merger date. The 1864 start given in the research report is an approximation and was deliberately NOT used. Headway and avg_speed_kmh are estimates and are NOT sourced.", "Feb 1952 Official Guide of the Railways, Burlington Lines section; full OCR cached at research/sources/official_guide_1952.txt", "https://en.wikipedia.org/wiki/BNSF_Railway_Line_(Metra)", "research/branches/chicago_burlington_and_quincy_railroad.txt (research pass 2026-08-30)"]}]}, "geometry": {"type": "LineString", "coordinates": [[-87.63863, 41.87862], [-87.6382, 41.86037], [-87.68116, 41.85885], [-87.6811662, 41.8589198], [-87.6825556, 41.8585712], [-87.6866835, 41.8573167], [-87.6879267, 41.857001], [-87.7440196, 41.8444444], [-87.7451702, 41.8442376], [-87.7467487, 41.8440298], [-87.7507345, 41.8436561], [-87.751547, 41.8436211], [-87.7543984, 41.8433294], [-87.7565187, 41.8429358], [-87.7623699, 41.8416309], [-87.7660153, 41.8407784], [-87.7684736, 41.8399738], [-87.7720242, 41.838646], [-87.7740264, 41.8379609], [-87.7804745, 41.8362768], [-87.8722238, 41.8156576], [-87.9545411, 41.7970793], [-87.958081, 41.796297], [-87.959513, 41.796029], [-87.95944, 41.79602], [-88.06938, 41.79832], [-88.1028, 41.79256], [-88.13086, 41.78038], [-88.22512, 41.7776], [-88.2953, 41.76719], [-88.33155, 41.74673]]}}, {"type": "Feature", "properties": {"company": "Chicago, Burlington and Quincy Railroad", "line": "Chicago, Burlington and Quincy: Oregon – Mount Morris", "id": "cbq-oregon-mount-morris", "color": "#8E1B3C", "mode": "intercity_rail", "avg_speed_kmh": 32, "speed_source": "estimated, NOT sourced: a secondary branch of this era, taken from the kind of service the Feb 1952 Guide shows (Table 4) rather than from any timetable's running times", "geometry_source": "OpenStreetMap via Overpass, 2026-08-30", "geometry_quality": "Real trace from OpenStreetMap: a Dijkstra shortest path over every railway way (rail, abandoned, disused, razed, dismantled) in a corridor around the route, with ways tagged old_railway_operator=CB&Q costed at 1x and all other track at 3x, so the path stays on the Burlington's own alignment wherever OSM records it. Snapped to the report's own station list; every one of the 2 waypoints lies within 1.5 km of the drawn line. OSM lines followed: [rail] 7 mi. TRACED LENGTH 6.6 mi against a DOCUMENTED 8 mi (-18%). No straight-line approximation: the whole route is on mapped track. ERA NOTE: much of the surviving alignment is today's BNSF, which is the CB&Q's own successor on this route, so the modern centreline is the historical one; where the line is abandoned the trace follows the recorded grade. Simplified to a 20 m Douglas-Peucker tolerance.", "segments": [{"start": 1875, "end": 1875, "headway_min": 720, "note": "branchline.uk illinoisrrs2 route 130 (Oregon - Forreston): three stations lettered y = the 1875 Official Guide. THIS IS A ONE-YEAR ANCHOR. 1875 is the ONLY year in which passenger service on this line is proven. Trains certainly ran both before and after it, but no other year is confirmed by any source consulted. Do not widen this span to make it look plausible, and do not delete it to tidy the map -- it records exactly where the evidence stops. A stub off the Chicago - Twin Cities line at Oregon. The Feb 1952 Guide still gives it Table 4, but nothing in that table survives the OCR well enough to confirm a rail column, so 1875 stands alone. Headway is an estimate and is NOT sourced.", "sources": ["Segment-level for 1875 ONLY: branchline.uk illinoisrrs2 route 130 (Oregon - Forreston): three stations lettered y = the 1875 Official Guide. NOT SOURCED for any other year -- this is a one-year anchor. Headway and avg_speed_kmh are estimates and are NOT sourced.", "Feb 1952 Official Guide of the Railways (schedules effective 30 September 1951 / 27 January 1952), Burlington Lines section; full OCR cached at research/sources/official_guide_1952.txt", "https://www.branchline.uk/jfpdf/illinoisrrs2.pdf", "research/branches/chicago_burlington_and_quincy_railroad.txt (research pass 2026-08-30)"]}]}, "geometry": {"type": "LineString", "coordinates": [[-89.334201, 42.001531], [-89.338811, 42.001601], [-89.354437, 42.003303], [-89.36442, 42.003356], [-89.366716, 42.003725], [-89.369285, 42.00505], [-89.381342, 42.015752], [-89.383651, 42.01727], [-89.38577, 42.018061], [-89.389187, 42.018785], [-89.397917, 42.019285], [-89.400761, 42.020144], [-89.403388, 42.022007], [-89.406842, 42.026363], [-89.413078, 42.030026], [-89.415206, 42.031772], [-89.416421, 42.033384], [-89.423124, 42.045867], [-89.426143, 42.048585], [-89.430713, 42.050966]]}}, {"type": "Feature", "properties": {"company": "Chicago, Burlington and Quincy Railroad", "line": "Chicago, Burlington and Quincy: Mendota – Clinton", "id": "cbq-mendota-denrock-clinton", "color": "#8E1B3C", "mode": "intercity_rail", "avg_speed_kmh": 35, "speed_source": "estimated, NOT sourced: a secondary branch of this era, taken from the kind of service the Feb 1952 Guide shows (Table 25) rather than from any timetable's running times", "geometry_source": "OpenStreetMap via Overpass, 2026-08-30", "geometry_quality": "Real trace from OpenStreetMap: a Dijkstra shortest path over every railway way (rail, abandoned, disused, razed, dismantled) in a corridor around the route, with ways tagged old_railway_operator=CB&Q costed at 1x and all other track at 3x, so the path stays on the Burlington's own alignment wherever OSM records it. Snapped to the report's own station list; every one of the 8 waypoints lies within 0.9 km of the drawn line. OSM lines followed: [abandoned] 48 mi; BNSF Barstow Subdivision 6 mi; UP Geneva Subdivision 1 mi; Davenport Subdivision 0 mi; [rail] 0 mi. TRACED LENGTH 63.8 mi against a DOCUMENTED 79 mi (-19%). APPROXIMATED: 8.4 mi of the total is straight-line, drawn across 1 place(s) where the grade is lifted and OSM has no way at all -- Mendota-La Moille 8.4 mi. Those legs are ruled lines, not survey. ERA NOTE: much of the surviving alignment is today's BNSF, which is the CB&Q's own successor on this route, so the modern centreline is the historical one; where the line is abandoned the trace follows the recorded grade. Simplified to a 20 m Douglas-Peucker tolerance.", "segments": [{"start": 1875, "end": 1952, "headway_min": 720, "note": "branchline.uk illinoisrrs2 route 127 (Mendota - Clinton): ten stations lettered y = the 1875 Official Guide. Feb 1952 Table 25 shows through times Mendota - Denrock - Clinton with the Guide's own footnote o, \"Mixed train between Mendota and Denrock\". THE 1952 END IS THE LAST CONFIRMED YEAR, NOT A KNOWN END. No source consulted dates when passenger service actually stopped here; the Burlington's branch trains were swept away somewhere between about 1952 and 1968 and not one of those discontinuances has been dated. The end year is a withheld unknown, not an abandonment -- DO NOT extend this line to a rounder year without evidence. Equally, 1875 is the earliest year positively CONFIRMED, not the year the line opened: the branch is older than the map shows, and the confirmed start is deliberately late rather than guessed early. By 1951 the Mendota - Denrock leg was a MIXED TRAIN. Rule 1 admits mixed trains, so this is passenger service, not a freight-only survival. Headway is an estimate and is NOT sourced.", "sources": ["Segment-level: start year 1875 from branchline.uk (John Fowler, Passenger Stations & Stops) -- branchline.uk illinoisrrs2 route 127 (Mendota - Clinton): ten stations lettered y = the 1875 Official Guide. End year 1952 from Table 25 of the Feb 1952 Official Guide -- Feb 1952 Table 25 shows through times Mendota - Denrock - Clinton with the Guide's own footnote o, \"Mixed train between Mendota and Denrock\". The end is a FLOOR on service, not the year it stopped. Headway and avg_speed_kmh are estimates and are NOT sourced.", "Feb 1952 Official Guide of the Railways (schedules effective 30 September 1951 / 27 January 1952), Burlington Lines section; full OCR cached at research/sources/official_guide_1952.txt", "https://www.branchline.uk/jfpdf/illinoisrrs2.pdf", "research/branches/chicago_burlington_and_quincy_railroad.txt (research pass 2026-08-30)"]}]}, "geometry": {"type": "LineString", "coordinates": [[-89.117942, 41.547372], [-89.279087, 41.532558], [-89.290233, 41.532715], [-89.305801, 41.531954], [-89.309223, 41.532413], [-89.317694, 41.535175], [-89.324612, 41.536976], [-89.351581, 41.549445], [-89.378474, 41.559385], [-89.381074, 41.559988], [-89.452985, 41.560547], [-89.525266, 41.549352], [-89.53245, 41.548545], [-89.56368, 41.546632], [-89.567843, 41.547153], [-89.577034, 41.549573], [-89.582084, 41.551154], [-89.585021, 41.552498], [-89.64016, 41.58973], [-89.664665, 41.600729], [-89.761629, 41.623446], [-89.920912, 41.664181], [-89.942121, 41.670356], [-89.951441, 41.67441], [-89.955326, 41.676597], [-89.957481, 41.678606], [-89.958846, 41.681108], [-89.961099, 41.688783], [-89.962296, 41.690981], [-89.964281, 41.693041], [-90.020963, 41.724445], [-90.025764, 41.727871], [-90.035692, 41.738635], [-90.043112, 41.748846], [-90.05193, 41.758304], [-90.05908, 41.764764], [-90.072323, 41.775744], [-90.075596, 41.777439], [-90.079045, 41.778492], [-90.090432, 41.779383], [-90.09343, 41.780625], [-90.097154, 41.783256], [-90.102544, 41.790022], [-90.104719, 41.791994], [-90.107286, 41.79347], [-90.11832, 41.796977], [-90.120711, 41.798409], [-90.122416, 41.800133], [-90.125023, 41.803727], [-90.129589, 41.807656], [-90.163709, 41.834922], [-90.165977, 41.835819], [-90.168894, 41.836373], [-90.186844, 41.836456], [-90.189333, 41.835734], [-90.186736, 41.836998], [-90.185251, 41.838797], [-90.185078, 41.842647]]}}, {"type": "Feature", "properties": {"company": "Chicago, Burlington and Quincy Railroad", "line": "Chicago, Burlington and Quincy: Galesburg – Peoria", "id": "cbq-galesburg-peoria", "color": "#8E1B3C", "mode": "intercity_rail", "avg_speed_kmh": 45, "speed_source": "estimated, NOT sourced: a secondary branch of this era, taken from the kind of service the Feb 1952 Guide shows (Table 27) rather than from any timetable's running times", "geometry_source": "OpenStreetMap via Overpass, 2026-08-30", "geometry_quality": "Real trace from OpenStreetMap: a Dijkstra shortest path over every railway way (rail, abandoned, disused, razed, dismantled) in a corridor around the route, with ways tagged old_railway_operator=CB&Q costed at 1x and all other track at 3x, so the path stays on the Burlington's own alignment wherever OSM records it. Snapped to the report's own station list; every one of the 5 waypoints lies within 0.9 km of the drawn line. OSM lines followed: BNSF Peoria Subdivision 52 mi; [abandoned] 1 mi; [preserved] 0 mi. TRACED LENGTH 53.0 mi against a DOCUMENTED 51 mi (+4%). No straight-line approximation: the whole route is on mapped track. ERA NOTE: much of the surviving alignment is today's BNSF, which is the CB&Q's own successor on this route, so the modern centreline is the historical one; where the line is abandoned the trace follows the recorded grade. Simplified to a 20 m Douglas-Peucker tolerance.", "segments": [{"start": 1875, "end": 1952, "headway_min": 480, "note": "branchline.uk illinoisrrs2 route 134 (Galesburg - Peoria): nine stations lettered y = the 1875 Official Guide and one x = the 1858 Dinsmore Guide. Feb 1952 Table 27 carries rail trains 47/48 and 756 among six motor-coach columns. THE 1952 END IS THE LAST CONFIRMED YEAR, NOT A KNOWN END. No source consulted dates when passenger service actually stopped here; the Burlington's branch trains were swept away somewhere between about 1952 and 1968 and not one of those discontinuances has been dated. The end year is a withheld unknown, not an abandonment -- DO NOT extend this line to a rounder year without evidence. Equally, 1875 is the earliest year positively CONFIRMED, not the year the line opened: the branch is older than the map shows, and the confirmed start is deliberately late rather than guessed early. BUS TRAP HANDLED. Table 27 is MOSTLY BUSES -- its column heads read \"cBus cBus oBus | 48 | 756 | ... | aBus 47 | nBus oBus\". Only two of those columns are trains, and a Guide footnote adds \"No local service between Galesburg and Knoxville\". Rail service in 1951: yes, but thin. Headway is an estimate and is NOT sourced.", "sources": ["Segment-level: start year 1875 from branchline.uk (John Fowler, Passenger Stations & Stops) -- branchline.uk illinoisrrs2 route 134 (Galesburg - Peoria): nine stations lettered y = the 1875 Official Guide and one x = the 1858 Dinsmore Guide. End year 1952 from Table 27 of the Feb 1952 Official Guide -- Feb 1952 Table 27 carries rail trains 47/48 and 756 among six motor-coach columns. The end is a FLOOR on service, not the year it stopped. Headway and avg_speed_kmh are estimates and are NOT sourced.", "Feb 1952 Official Guide of the Railways (schedules effective 30 September 1951 / 27 January 1952), Burlington Lines section; full OCR cached at research/sources/official_guide_1952.txt", "https://www.branchline.uk/jfpdf/illinoisrrs2.pdf", "research/branches/chicago_burlington_and_quincy_railroad.txt (research pass 2026-08-30)"]}]}, "geometry": {"type": "LineString", "coordinates": [[-90.363994, 40.945875], [-90.363233, 40.945194], [-90.363663, 40.940587], [-90.363338, 40.939836], [-90.362799, 40.939528], [-90.287168, 40.911729], [-90.245869, 40.90645], [-90.242961, 40.905637], [-90.240882, 40.904497], [-90.239147, 40.902923], [-90.194007, 40.851055], [-90.163466, 40.803957], [-90.161384, 40.801849], [-90.158631, 40.800408], [-90.156102, 40.799783], [-90.148868, 40.799194], [-90.146512, 40.798717], [-90.116985, 40.787559], [-90.114279, 40.786909], [-90.092589, 40.785615], [-90.082576, 40.78552], [-90.018529, 40.777963], [-90.016916, 40.77768], [-90.016169, 40.777216], [-90.015712, 40.776431], [-90.015834, 40.775547], [-90.014579, 40.776809], [-90.012392, 40.777189], [-89.98558, 40.774094], [-89.960852, 40.776736], [-89.958486, 40.776738], [-89.946917, 40.774453], [-89.925612, 40.773726], [-89.92302, 40.772946], [-89.917616, 40.770042], [-89.914368, 40.769458], [-89.911255, 40.769841], [-89.892533, 40.775239], [-89.889888, 40.775511], [-89.88404, 40.775216], [-89.879929, 40.776019], [-89.876874, 40.777653], [-89.874168, 40.780035], [-89.872132, 40.782431], [-89.870545, 40.783641], [-89.865687, 40.785715], [-89.855274, 40.791121], [-89.847841, 40.792467], [-89.842404, 40.794596], [-89.839956, 40.794844], [-89.83434, 40.793757], [-89.815905, 40.792976], [-89.812772, 40.791876], [-89.810704, 40.790104], [-89.809896, 40.788104], [-89.809764, 40.784071], [-89.806332, 40.779763], [-89.804311, 40.778159], [-89.796323, 40.773695], [-89.794111, 40.771423], [-89.791506, 40.767114], [-89.789592, 40.764718], [-89.779374, 40.755122], [-89.777099, 40.753708], [-89.771938, 40.75255], [-89.762987, 40.752291], [-89.760967, 40.75196], [-89.758516, 40.750948], [-89.753954, 40.747799], [-89.752296, 40.746983], [-89.746065, 40.745982], [-89.741899, 40.744794], [-89.725831, 40.743019], [-89.717034, 40.742674], [-89.706755, 40.741515], [-89.679934, 40.733596], [-89.667974, 40.727635], [-89.666218, 40.726504], [-89.664515, 40.724853], [-89.66358, 40.723316], [-89.661451, 40.718325], [-89.654113, 40.71254], [-89.647974, 40.703804], [-89.647677, 40.702036], [-89.648086, 40.698692], [-89.649986, 40.691114], [-89.650661, 40.689585], [-89.655554, 40.682201], [-89.65606, 40.675268], [-89.654625, 40.671948], [-89.654118, 40.668215], [-89.652979, 40.666429], [-89.651193, 40.665143], [-89.641584, 40.660101], [-89.639535, 40.65947], [-89.637631, 40.65935], [-89.635756, 40.659623], [-89.633761, 40.660416], [-89.607152, 40.67728], [-89.601506, 40.680497], [-89.598768, 40.682821], [-89.593592, 40.686064]]}}, {"type": "Feature", "properties": {"company": "Chicago, Burlington and Quincy Railroad", "line": "Chicago, Burlington and Quincy: Aurora – Streator", "id": "cbq-aurora-streator", "color": "#8E1B3C", "mode": "intercity_rail", "avg_speed_kmh": 40, "speed_source": "estimated, NOT sourced: a secondary branch of this era, taken from the kind of service the Feb 1952 Guide shows (Tables 29 and 30) rather than from any timetable's running times", "geometry_source": "OpenStreetMap via Overpass, 2026-08-30", "geometry_quality": "Real trace from OpenStreetMap: a Dijkstra shortest path over every railway way (rail, abandoned, disused, razed, dismantled) in a corridor around the route, with ways tagged old_railway_operator=CB&Q costed at 1x and all other track at 3x, so the path stays on the Burlington's own alignment wherever OSM records it. Snapped to the report's own station list; every one of the 11 waypoints lies within 0.7 km of the drawn line. OSM lines followed: Ottawa Branch 56 mi; BNSF Chicago Subdivision 2 mi; CB&Q 1 mi; [abandoned] 0 mi; [rail] 0 mi; Chicago Subdivision 0 mi. TRACED LENGTH 59.5 mi against a DOCUMENTED 66 mi (-10%). No straight-line approximation: the whole route is on mapped track. ERA NOTE: much of the surviving alignment is today's BNSF, which is the CB&Q's own successor on this route, so the modern centreline is the historical one; where the line is abandoned the trace follows the recorded grade. Simplified to a 20 m Douglas-Peucker tolerance.", "segments": [{"start": 1875, "end": 1875, "headway_min": 480, "note": "branchline.uk illinoisrrs2 route 123 (Montgomery - Streator): twelve stations lettered y = the 1875 Official Guide. THIS IS A ONE-YEAR ANCHOR. 1875 is the ONLY year in which passenger service on this line is proven. Trains certainly ran both before and after it, but no other year is confirmed by any source consulted. Do not widen this span to make it look plausible, and do not delete it to tidy the map -- it records exactly where the evidence stops. The Fox River Valley line. Its 1951 status is GENUINELY AMBIGUOUS and that is why only 1875 is drawn: the Feb 1952 Guide prints BOTH \"Freight Service only\" and \"Mixed train provides service. Consult agent.\" in the same two-column block covering Tables 29 and 30, and the OCR does not say which note belongs to which leg. Under Rule 1 an unresolved freight-only note cannot be drawn as service. Someone with the printed page (Official Guide Feb 1952, pages 1050-1055) could settle it in a minute. Headway is an estimate and is NOT sourced.", "sources": ["Segment-level for 1875 ONLY: branchline.uk illinoisrrs2 route 123 (Montgomery - Streator): twelve stations lettered y = the 1875 Official Guide. NOT SOURCED for any other year -- this is a one-year anchor. Headway and avg_speed_kmh are estimates and are NOT sourced.", "Feb 1952 Official Guide of the Railways (schedules effective 30 September 1951 / 27 January 1952), Burlington Lines section; full OCR cached at research/sources/official_guide_1952.txt", "https://www.branchline.uk/jfpdf/illinoisrrs2.pdf", "research/branches/chicago_burlington_and_quincy_railroad.txt (research pass 2026-08-30)"]}]}, "geometry": {"type": "LineString", "coordinates": [[-88.315589, 41.754431], [-88.330127, 41.747581], [-88.332128, 41.746178], [-88.345934, 41.728481], [-88.349571, 41.723313], [-88.350907, 41.720234], [-88.351031, 41.718494], [-88.350483, 41.716975], [-88.348316, 41.714124], [-88.348921, 41.71004], [-88.346878, 41.706562], [-88.346474, 41.703795], [-88.347145, 41.69627], [-88.348502, 41.691044], [-88.350155, 41.687864], [-88.351487, 41.686113], [-88.358316, 41.680217], [-88.365309, 41.676697], [-88.370099, 41.675602], [-88.379204, 41.674501], [-88.389111, 41.67154], [-88.391687, 41.670297], [-88.39391, 41.668255], [-88.406808, 41.649339], [-88.408642, 41.647359], [-88.411422, 41.645236], [-88.413206, 41.644344], [-88.418718, 41.642615], [-88.423613, 41.641783], [-88.431533, 41.641057], [-88.433745, 41.64107], [-88.44129, 41.641968], [-88.458881, 41.642835], [-88.461598, 41.642615], [-88.464432, 41.641813], [-88.466078, 41.640739], [-88.469396, 41.635953], [-88.471066, 41.634796], [-88.55263, 41.600914], [-88.569188, 41.588467], [-88.576879, 41.584523], [-88.583604, 41.580009], [-88.592615, 41.567921], [-88.599794, 41.560404], [-88.603425, 41.557827], [-88.61106, 41.554932], [-88.620167, 41.552633], [-88.625944, 41.549734], [-88.673591, 41.531519], [-88.676884, 41.530912], [-88.690179, 41.530563], [-88.698455, 41.528259], [-88.704862, 41.524841], [-88.709735, 41.522911], [-88.713741, 41.520251], [-88.714951, 41.519038], [-88.716829, 41.516272], [-88.744994, 41.465796], [-88.749097, 41.461726], [-88.758606, 41.453876], [-88.761194, 41.451357], [-88.762566, 41.448271], [-88.765434, 41.444758], [-88.773429, 41.432695], [-88.775961, 41.426449], [-88.777725, 41.418458], [-88.785787, 41.40048], [-88.788649, 41.39243], [-88.795273, 41.37987], [-88.802846, 41.370844], [-88.804167, 41.369691], [-88.806135, 41.368586], [-88.833337, 41.359951], [-88.835986, 41.359552], [-88.843658, 41.359299], [-88.84588, 41.358385], [-88.846801, 41.357271], [-88.847362, 41.355212], [-88.846961, 41.343175], [-88.847252, 41.338954], [-88.848488, 41.337507], [-88.857023, 41.331645], [-88.858546, 41.329855], [-88.862276, 41.326975], [-88.863389, 41.3251], [-88.863356, 41.322659], [-88.861747, 41.320438], [-88.84473, 41.309211], [-88.833977, 41.300049], [-88.833104, 41.298624], [-88.831999, 41.293944], [-88.831166, 41.205015], [-88.830772, 41.203487], [-88.8289, 41.20099], [-88.828195, 41.198886], [-88.827873, 41.168672], [-88.828858, 41.164924], [-88.831092, 41.16231], [-88.832015, 41.15862], [-88.831579, 41.155974], [-88.830756, 41.128177], [-88.831029, 41.1267]]}}, {"type": "Feature", "properties": {"company": "Chicago, Burlington and Quincy Railroad", "line": "Chicago, Burlington and Quincy: Galva – Aledo", "id": "cbq-galva-aledo", "color": "#8E1B3C", "mode": "intercity_rail", "avg_speed_kmh": 35, "speed_source": "estimated, NOT sourced: a secondary branch of this era, taken from the kind of service the Feb 1952 Guide shows (Table 28) rather than from any timetable's running times", "geometry_source": "OpenStreetMap via Overpass, 2026-08-30", "geometry_quality": "Real trace from OpenStreetMap: a Dijkstra shortest path over every railway way (rail, abandoned, disused, razed, dismantled) in a corridor around the route, with ways tagged old_railway_operator=CB&Q costed at 1x and all other track at 3x, so the path stays on the Burlington's own alignment wherever OSM records it. Snapped to the report's own station list; every one of the 6 waypoints lies within 1.3 km of the drawn line. OSM lines followed: [abandoned] 37 mi. TRACED LENGTH 36.9 mi against a DOCUMENTED 42 mi (-12%). No straight-line approximation: the whole route is on mapped track. ERA NOTE: much of the surviving alignment is today's BNSF, which is the CB&Q's own successor on this route, so the modern centreline is the historical one; where the line is abandoned the trace follows the recorded grade. Simplified to a 20 m Douglas-Peucker tolerance.", "segments": [{"start": 1875, "end": 1952, "headway_min": 720, "note": "branchline.uk illinoisrrs2 route 132 (Gladstone - Galva): nine stations lettered y = the 1875 Official Guide. Feb 1952 Table 28 shows \"Mixed. Consult Agent\" against the Galva - Aledo portion. THE 1952 END IS THE LAST CONFIRMED YEAR, NOT A KNOWN END. No source consulted dates when passenger service actually stopped here; the Burlington's branch trains were swept away somewhere between about 1952 and 1968 and not one of those discontinuances has been dated. The end year is a withheld unknown, not an abandonment -- DO NOT extend this line to a rounder year without evidence. Equally, 1875 is the earliest year positively CONFIRMED, not the year the line opened: the branch is older than the map shows, and the confirmed start is deliberately late rather than guessed early. DELIBERATELY STOPS AT ALEDO. The same Table 28 prints \"Freight Service only\" against the Arpee - Keithsburg - New Boston continuation, so that western half had NO passengers in 1951 and its real passenger end is an unknown earlier year. Drawing Galva all the way to New Boston in 1951 would be a Rule 1 violation, so the New Boston end is left off the map entirely. Headway is an estimate and is NOT sourced.", "sources": ["Segment-level: start year 1875 from branchline.uk (John Fowler, Passenger Stations & Stops) -- branchline.uk illinoisrrs2 route 132 (Gladstone - Galva): nine stations lettered y = the 1875 Official Guide. End year 1952 from Table 28 of the Feb 1952 Official Guide -- Feb 1952 Table 28 shows \"Mixed. Consult Agent\" against the Galva - Aledo portion. The end is a FLOOR on service, not the year it stopped. Headway and avg_speed_kmh are estimates and are NOT sourced.", "Feb 1952 Official Guide of the Railways (schedules effective 30 September 1951 / 27 January 1952), Burlington Lines section; full OCR cached at research/sources/official_guide_1952.txt", "https://www.branchline.uk/jfpdf/illinoisrrs2.pdf", "research/branches/chicago_burlington_and_quincy_railroad.txt (research pass 2026-08-30)"]}]}, "geometry": {"type": "LineString", "coordinates": [[-90.048423, 41.165231], [-90.050559, 41.165674], [-90.05639, 41.168217], [-90.062469, 41.170141], [-90.066763, 41.170977], [-90.074522, 41.171503], [-90.125044, 41.172027], [-90.27895, 41.172864], [-90.294724, 41.173932], [-90.301706, 41.174925], [-90.409274, 41.194789], [-90.438468, 41.201386], [-90.442337, 41.201921], [-90.492673, 41.20511], [-90.537161, 41.203661], [-90.545155, 41.201838], [-90.549143, 41.201216], [-90.570377, 41.201739], [-90.58899, 41.204254], [-90.602479, 41.205275], [-90.612014, 41.205492], [-90.618292, 41.204011], [-90.621855, 41.203615], [-90.749388, 41.200654]]}}, {"type": "Feature", "properties": {"company": "Chicago, Burlington and Quincy Railroad", "line": "Chicago, Burlington and Quincy: Buda – Vermont", "id": "cbq-buda-vermont", "color": "#8E1B3C", "mode": "intercity_rail", "avg_speed_kmh": 40, "speed_source": "estimated, NOT sourced: a secondary branch of this era, taken from the kind of service the Feb 1952 Guide shows (Table 37) rather than from any timetable's running times", "geometry_source": "OpenStreetMap via Overpass, 2026-08-30", "geometry_quality": "Real trace from OpenStreetMap: a Dijkstra shortest path over every railway way (rail, abandoned, disused, razed, dismantled) in a corridor around the route, with ways tagged old_railway_operator=CB&Q costed at 1x and all other track at 3x, so the path stays on the Burlington's own alignment wherever OSM records it. Snapped to the report's own station list; every one of the 11 waypoints lies within 0.8 km of the drawn line. OSM lines followed: BNSF Yates City Subdivision 30 mi; CB&Q 20 mi; [abandoned] 12 mi; BNSF Peoria Subdivision 3 mi. TRACED LENGTH 91.9 mi against a DOCUMENTED 96 mi (-4%). APPROXIMATED: 26.3 mi of the total is straight-line, drawn across 2 place(s) where the grade is lifted and OSM has no way at all -- Castleton-Brimfield 21.6 mi; Norris-Canton 4.7 mi. Those legs are ruled lines, not survey. ERA NOTE: much of the surviving alignment is today's BNSF, which is the CB&Q's own successor on this route, so the modern centreline is the historical one; where the line is abandoned the trace follows the recorded grade. Simplified to a 20 m Douglas-Peucker tolerance.", "segments": [{"start": 1875, "end": 1952, "headway_min": 720, "note": "branchline.uk illinoisrrs2 route 131 (Buda - Rushville): SEVENTEEN stations lettered y = the 1875 Official Guide. Feb 1952 Table 37 shows real times (12 30 lv Buda ... 2 00 arr Vermont). THE 1952 END IS THE LAST CONFIRMED YEAR, NOT A KNOWN END. No source consulted dates when passenger service actually stopped here; the Burlington's branch trains were swept away somewhere between about 1952 and 1968 and not one of those discontinuances has been dated. The end year is a withheld unknown, not an abandonment -- DO NOT extend this line to a rounder year without evidence. Equally, 1875 is the earliest year positively CONFIRMED, not the year the line opened: the branch is older than the map shows, and the confirmed start is deliberately late rather than guessed early. One of the longer Illinois branches, joining the main line at Buda to the Illinois River country. Headway is an estimate and is NOT sourced.", "sources": ["Segment-level: start year 1875 from branchline.uk (John Fowler, Passenger Stations & Stops) -- branchline.uk illinoisrrs2 route 131 (Buda - Rushville): SEVENTEEN stations lettered y = the 1875 Official Guide. End year 1952 from Table 37 of the Feb 1952 Official Guide -- Feb 1952 Table 37 shows real times (12 30 lv Buda ... 2 00 arr Vermont). The end is a FLOOR on service, not the year it stopped. Headway and avg_speed_kmh are estimates and are NOT sourced.", "Feb 1952 Official Guide of the Railways (schedules effective 30 September 1951 / 27 January 1952), Burlington Lines section; full OCR cached at research/sources/official_guide_1952.txt", "https://www.branchline.uk/jfpdf/illinoisrrs2.pdf", "research/branches/chicago_burlington_and_quincy_railroad.txt (research pass 2026-08-30)"]}]}, "geometry": {"type": "LineString", "coordinates": [[-89.678387, 41.320234], [-89.671486, 41.292817], [-89.670619, 41.290758], [-89.666508, 41.283928], [-89.665714, 41.281655], [-89.657844, 41.233921], [-89.657328, 41.187831], [-89.658883, 41.182642], [-89.660657, 41.178293], [-89.663098, 41.175587], [-89.685111, 41.157014], [-89.687046, 41.155234], [-89.689667, 41.151865], [-89.690776, 41.149439], [-89.700566, 41.121149], [-89.703113, 41.1186], [-89.887959, 40.839071], [-89.898336, 40.818439], [-89.899914, 40.81631], [-89.922155, 40.804051], [-89.946791, 40.786148], [-89.953388, 40.779729], [-89.956924, 40.777613], [-89.960852, 40.776736], [-89.98558, 40.774094], [-90.012392, 40.777189], [-90.014579, 40.776809], [-90.015834, 40.775547], [-90.017776, 40.769267], [-90.019234, 40.756462], [-90.022229, 40.74112], [-90.022716, 40.734836], [-90.022085, 40.731151], [-90.016392, 40.716523], [-90.012862, 40.705888], [-90.011927, 40.698863], [-90.012686, 40.696628], [-90.013632, 40.695271], [-90.028089, 40.683646], [-90.031682, 40.679115], [-90.036075, 40.671515], [-90.039515, 40.664004], [-90.045714, 40.643752], [-90.046009, 40.641808], [-90.045894, 40.63947], [-90.044754, 40.636572], [-90.043729, 40.635096], [-90.041554, 40.632814], [-90.036006, 40.629107], [-90.031885, 40.625821], [-90.0288, 40.558278], [-90.029875, 40.505065], [-90.030174, 40.503661], [-90.031273, 40.501594], [-90.033842, 40.49939], [-90.131894, 40.447898], [-90.134734, 40.446304], [-90.137364, 40.444319], [-90.140721, 40.439824], [-90.148222, 40.415043], [-90.149839, 40.408756], [-90.14992, 40.397414], [-90.150588, 40.395232], [-90.152333, 40.393238], [-90.160711, 40.388969], [-90.173459, 40.380149], [-90.177131, 40.376916], [-90.179864, 40.373621], [-90.184013, 40.371048], [-90.187779, 40.36984], [-90.19509, 40.370245], [-90.201703, 40.369148], [-90.204162, 40.368416], [-90.208637, 40.366281], [-90.220219, 40.357608], [-90.222031, 40.356975], [-90.233908, 40.356666], [-90.238839, 40.357242], [-90.24233, 40.35725], [-90.273285, 40.352872], [-90.313827, 40.352677], [-90.317717, 40.352256], [-90.32094, 40.351423], [-90.325985, 40.349069], [-90.393476, 40.304284], [-90.418042, 40.294068]]}}, {"type": "Feature", "properties": {"company": "Chicago, Burlington and Quincy Railroad", "line": "Chicago, Burlington and Quincy: Rushville – Fairview", "id": "cbq-rushville-fairview", "color": "#8E1B3C", "mode": "intercity_rail", "avg_speed_kmh": 40, "speed_source": "estimated, NOT sourced: a secondary branch of this era, taken from the kind of service the Feb 1952 Guide shows (Table 34) rather than from any timetable's running times", "geometry_source": "OpenStreetMap via Overpass, 2026-08-30", "geometry_quality": "Real trace from OpenStreetMap: a Dijkstra shortest path over every railway way (rail, abandoned, disused, razed, dismantled) in a corridor around the route, with ways tagged old_railway_operator=CB&Q costed at 1x and all other track at 3x, so the path stays on the Burlington's own alignment wherever OSM records it. Snapped to the report's own station list; every one of the 6 waypoints lies within 1.3 km of the drawn line. OSM lines followed: BNSF Yates City Subdivision 18 mi; [abandoned] 15 mi; CB&Q (West Havana branch) 12 mi; [rail] 0 mi. TRACED LENGTH 51.8 mi against a DOCUMENTED 46 mi (+13%). APPROXIMATED: 5.8 mi of the total is straight-line, drawn across 1 place(s) where the grade is lifted and OSM has no way at all -- Fiatt-Fairview 5.8 mi. Those legs are ruled lines, not survey. ERA NOTE: much of the surviving alignment is today's BNSF, which is the CB&Q's own successor on this route, so the modern centreline is the historical one; where the line is abandoned the trace follows the recorded grade. Simplified to a 20 m Douglas-Peucker tolerance.", "segments": [{"start": 1875, "end": 1952, "headway_min": 720, "note": "branchline.uk illinoisrrs2 route 131 (Buda - Rushville), the same route as the Buda - Vermont branch: stations lettered y = the 1875 Official Guide. Feb 1952 Table 34 (schedules of 27 January 1952), times legible. THE 1952 END IS THE LAST CONFIRMED YEAR, NOT A KNOWN END. No source consulted dates when passenger service actually stopped here; the Burlington's branch trains were swept away somewhere between about 1952 and 1968 and not one of those discontinuances has been dated. The end year is a withheld unknown, not an abandonment -- DO NOT extend this line to a rounder year without evidence. Equally, 1875 is the earliest year positively CONFIRMED, not the year the line opened: the branch is older than the map shows, and the confirmed start is deliberately late rather than guessed early. Headway is an estimate and is NOT sourced.", "sources": ["Segment-level: start year 1875 from branchline.uk (John Fowler, Passenger Stations & Stops) -- branchline.uk illinoisrrs2 route 131 (Buda - Rushville), the same route as the Buda - Vermont branch: stations lettered y = the 1875 Official Guide. End year 1952 from Table 34 of the Feb 1952 Official Guide -- Feb 1952 Table 34 (schedules of 27 January 1952), times legible. The end is a FLOOR on service, not the year it stopped. Headway and avg_speed_kmh are estimates and are NOT sourced.", "Feb 1952 Official Guide of the Railways (schedules effective 30 September 1951 / 27 January 1952), Burlington Lines section; full OCR cached at research/sources/official_guide_1952.txt", "https://www.branchline.uk/jfpdf/illinoisrrs2.pdf", "research/branches/chicago_burlington_and_quincy_railroad.txt (research pass 2026-08-30)"]}]}, "geometry": {"type": "LineString", "coordinates": [[-90.56777, 40.127466], [-90.565115, 40.130346], [-90.5631, 40.133336], [-90.55457, 40.153902], [-90.553544, 40.15492], [-90.549584, 40.157341], [-90.545444, 40.160904], [-90.538299, 40.165251], [-90.533673, 40.166117], [-90.531855, 40.167135], [-90.530506, 40.168593], [-90.528886, 40.171949], [-90.522856, 40.176074], [-90.520696, 40.178866], [-90.518788, 40.180502], [-90.517439, 40.181176], [-90.512615, 40.182551], [-90.509951, 40.183926], [-90.5025, 40.190045], [-90.492475, 40.197208], [-90.483061, 40.201016], [-90.473756, 40.206831], [-90.472262, 40.207284], [-90.4694, 40.207408], [-90.465387, 40.206171], [-90.462807, 40.206007], [-90.460404, 40.206533], [-90.459331, 40.207051], [-90.457598, 40.208532], [-90.456678, 40.210392], [-90.456406, 40.219187], [-90.455182, 40.221496], [-90.453472, 40.223214], [-90.452788, 40.224918], [-90.45295, 40.226897], [-90.454984, 40.229934], [-90.45538, 40.231775], [-90.454408, 40.234069], [-90.452104, 40.236185], [-90.45115, 40.237669], [-90.45025, 40.242231], [-90.44782, 40.24583], [-90.447522, 40.247654], [-90.447645, 40.253111], [-90.444573, 40.258595], [-90.444309, 40.260993], [-90.444573, 40.265223], [-90.443955, 40.267527], [-90.436805, 40.279286], [-90.42646, 40.288854], [-90.422568, 40.291915], [-90.419692, 40.293383], [-90.393476, 40.304284], [-90.325985, 40.349069], [-90.322215, 40.350966], [-90.318262, 40.352152], [-90.313827, 40.352677], [-90.273285, 40.352872], [-90.24233, 40.35725], [-90.238839, 40.357242], [-90.233908, 40.356666], [-90.222031, 40.356975], [-90.220219, 40.357608], [-90.208637, 40.366281], [-90.204162, 40.368416], [-90.201703, 40.369148], [-90.19509, 40.370245], [-90.187779, 40.36984], [-90.184013, 40.371048], [-90.179864, 40.373621], [-90.177131, 40.376916], [-90.173459, 40.380149], [-90.160711, 40.388969], [-90.15291, 40.392879], [-90.150979, 40.394644], [-90.14992, 40.397414], [-90.149892, 40.405947], [-90.158536, 40.406716], [-90.160037, 40.407369], [-90.160757, 40.408152], [-90.163699, 40.414846], [-90.166039, 40.418215], [-90.17113, 40.422025], [-90.177792, 40.428801], [-90.179313, 40.430751], [-90.179535, 40.431375], [-90.179193, 40.43291], [-90.175606, 40.437109], [-90.174649, 40.441088], [-90.173026, 40.443688], [-90.173026, 40.445209], [-90.173402, 40.445976], [-90.174854, 40.447172], [-90.177588, 40.447822], [-90.179569, 40.447549], [-90.184164, 40.445989], [-90.187208, 40.445789], [-90.193611, 40.447087], [-90.195944, 40.448475], [-90.196761, 40.449396], [-90.197257, 40.451072], [-90.19469, 40.45519], [-90.194748, 40.458208], [-90.195988, 40.459817], [-90.199343, 40.46227], [-90.200028, 40.463113], [-90.202105, 40.466838], [-90.202366, 40.467674], [-90.2021, 40.469904], [-90.203079, 40.472146], [-90.202793, 40.473084], [-90.201311, 40.47406], [-90.195712, 40.47524], [-90.194326, 40.476251], [-90.19399, 40.476928], [-90.193917, 40.478192], [-90.195011, 40.483351], [-90.195084, 40.487223], [-90.195842, 40.488221], [-90.199153, 40.490029], [-90.201858, 40.493811], [-90.197625, 40.495265], [-90.199129, 40.496816], [-90.196557, 40.500888], [-90.195959, 40.504936], [-90.196353, 40.506366], [-90.197709, 40.508063], [-90.198001, 40.509538], [-90.195653, 40.515082], [-90.194326, 40.524961], [-90.193757, 40.525859], [-90.19011, 40.529041], [-90.186245, 40.530371], [-90.184699, 40.531724], [-90.183255, 40.535338], [-90.183634, 40.538685], [-90.181826, 40.54129], [-90.177727, 40.544527], [-90.176823, 40.547962], [-90.177013, 40.548827], [-90.178311, 40.550556], [-90.17834, 40.551198], [-90.178047, 40.636538]]}}, {"type": "Feature", "properties": {"company": "Chicago, Burlington and Quincy Railroad", "line": "Chicago, Burlington and Quincy: Beardstown – Herrin", "id": "cbq-beardstown-herrin", "color": "#8E1B3C", "mode": "intercity_rail", "avg_speed_kmh": 45, "speed_source": "estimated, NOT sourced: a secondary branch of this era, taken from the kind of service the Feb 1952 Guide shows (Table 31) rather than from any timetable's running times", "geometry_source": "OpenStreetMap via Overpass, 2026-08-30", "geometry_quality": "Real trace from OpenStreetMap: a Dijkstra shortest path over every railway way (rail, abandoned, disused, razed, dismantled) in a corridor around the route, with ways tagged old_railway_operator=CB&Q costed at 1x and all other track at 3x, so the path stays on the Burlington's own alignment wherever OSM records it. Snapped to the report's own station list; every one of the 10 waypoints lies within 4.7 km of the drawn line. OSM lines followed: BNSF Beardstown Subdivision 167 mi; Beardstown Subdivision 14 mi; [abandoned] 11 mi; BNSF Lowder Siding 2 mi; CN Centralia Subdivision 0 mi; EX MP track ripped out in the 80's 0 mi. TRACED LENGTH 189.9 mi against a DOCUMENTED 190 mi (-0%). No straight-line approximation: the whole route is on mapped track. ERA NOTE: much of the surviving alignment is today's BNSF, which is the CB&Q's own successor on this route, so the modern centreline is the historical one; where the line is abandoned the trace follows the recorded grade. Simplified to a 20 m Douglas-Peucker tolerance.", "segments": [{"start": 1875, "end": 1952, "headway_min": 720, "note": "branchline.uk illinoisrrs2 route 137 (Concord - Paducah): eight stations lettered y = 1875, five q = 1884 and two z = 1893. Feb 1952 Table 31 shows a full timetable with times for trains 11 and 12. THE 1952 END IS THE LAST CONFIRMED YEAR, NOT A KNOWN END. No source consulted dates when passenger service actually stopped here; the Burlington's branch trains were swept away somewhere between about 1952 and 1968 and not one of those discontinuances has been dated. The end year is a withheld unknown, not an abandonment -- DO NOT extend this line to a rounder year without evidence. Equally, 1875 is the earliest year positively CONFIRMED, not the year the line opened: the branch is older than the map shows, and the confirmed start is deliberately late rather than guessed early. The longest CB&Q line in Illinois away from the main stem -- the company's southern Illinois coal road. STOPS AT HERRIN ON PURPOSE: the Guide's Table 35 says \"Herrin Junction to Metropolis (55 miles), Freight service only\", so the last 55 miles south had no passengers in 1951 and are excluded under Rule 1. Headway is an estimate and is NOT sourced.", "sources": ["Segment-level: start year 1875 from branchline.uk (John Fowler, Passenger Stations & Stops) -- branchline.uk illinoisrrs2 route 137 (Concord - Paducah): eight stations lettered y = 1875, five q = 1884 and two z = 1893. End year 1952 from Table 31 of the Feb 1952 Official Guide -- Feb 1952 Table 31 shows a full timetable with times for trains 11 and 12. The end is a FLOOR on service, not the year it stopped. Headway and avg_speed_kmh are estimates and are NOT sourced.", "Feb 1952 Official Guide of the Railways (schedules effective 30 September 1951 / 27 January 1952), Burlington Lines section; full OCR cached at research/sources/official_guide_1952.txt", "https://www.branchline.uk/jfpdf/illinoisrrs2.pdf", "research/branches/chicago_burlington_and_quincy_railroad.txt (research pass 2026-08-30)"]}]}, "geometry": {"type": "LineString", "coordinates": [[-90.430295, 40.021573], [-90.428237, 40.02047], [-90.427438, 40.019543], [-90.425981, 40.016994], [-90.421249, 40.010533], [-90.418339, 40.005446], [-90.417459, 40.00047], [-90.417443, 39.983328], [-90.418089, 39.980704], [-90.417942, 39.978433], [-90.376433, 39.879183], [-90.375831, 39.878018], [-90.373566, 39.875564], [-90.373212, 39.872434], [-90.372324, 39.87115], [-90.369661, 39.869563], [-90.36401, 39.868957], [-90.362546, 39.868012], [-90.36189, 39.866965], [-90.361782, 39.865797], [-90.362394, 39.862496], [-90.363245, 39.811999], [-90.362897, 39.809524], [-90.362187, 39.807716], [-90.36104, 39.806007], [-90.359363, 39.804345], [-90.339785, 39.790928], [-90.337241, 39.789748], [-90.334404, 39.789188], [-90.29729, 39.786141], [-90.293512, 39.785624], [-90.246279, 39.769868], [-90.241936, 39.767774], [-90.238209, 39.7647], [-90.220816, 39.744459], [-90.219734, 39.741334], [-90.219642, 39.73307], [-90.219166, 39.731883], [-90.218234, 39.730861], [-90.216885, 39.730125], [-90.20216, 39.724694], [-90.198146, 39.722471], [-90.166562, 39.701137], [-90.118173, 39.663461], [-90.050181, 39.621666], [-90.027997, 39.601506], [-90.026065, 39.60023], [-90.015438, 39.595529], [-90.009038, 39.590722], [-90.006678, 39.590307], [-90.005284, 39.590424], [-89.9955, 39.593678], [-89.992047, 39.594334], [-89.972261, 39.594585], [-89.965694, 39.595426], [-89.961832, 39.595549], [-89.941678, 39.595572], [-89.937096, 39.594777], [-89.902227, 39.57829], [-89.847478, 39.551355], [-89.803112, 39.520615], [-89.794354, 39.516216], [-89.791773, 39.514217], [-89.790252, 39.511801], [-89.771187, 39.474896], [-89.771223, 39.471958], [-89.775841, 39.451321], [-89.775833, 39.443999], [-89.775547, 39.442746], [-89.746862, 39.391216], [-89.736869, 39.352973], [-89.726814, 39.337458], [-89.661405, 39.189659], [-89.660972, 39.187602], [-89.661017, 39.161255], [-89.660629, 39.159068], [-89.623142, 39.089017], [-89.620138, 39.071476], [-89.619783, 39.062234], [-89.612078, 39.040997], [-89.609988, 39.027056], [-89.609028, 39.024296], [-89.607635, 39.021979], [-89.604478, 39.018732], [-89.596764, 39.01317], [-89.576047, 39.003196], [-89.568259, 38.99721], [-89.565996, 38.995822], [-89.551688, 38.988514], [-89.539863, 38.98485], [-89.527985, 38.979987], [-89.46987, 38.966948], [-89.433373, 38.960172], [-89.421846, 38.958319], [-89.392835, 38.947526], [-89.388125, 38.945426], [-89.370665, 38.93694], [-89.367778, 38.934746], [-89.340903, 38.892984], [-89.311051, 38.821926], [-89.291351, 38.771215], [-89.284213, 38.758268], [-89.28268, 38.755837], [-89.28062, 38.753564], [-89.271349, 38.746409], [-89.269492, 38.744525], [-89.259283, 38.730003], [-89.228756, 38.704715], [-89.227014, 38.702775], [-89.226043, 38.700755], [-89.221622, 38.686533], [-89.193049, 38.606487], [-89.156662, 38.560611], [-89.154988, 38.55911], [-89.14778, 38.554035], [-89.14391, 38.550457], [-89.135997, 38.540166], [-89.134602, 38.537209], [-89.13436, 38.535379], [-89.136087, 38.528747], [-89.135848, 38.52878], [-89.137682, 38.522704], [-89.137267, 38.523175], [-89.137526, 38.523398], [-89.139524, 38.516775], [-89.139502, 38.514159], [-89.139086, 38.512717], [-89.128819, 38.492129], [-89.126443, 38.48919], [-89.121579, 38.484866], [-89.118872, 38.481417], [-89.117742, 38.478075], [-89.114825, 38.463222], [-89.113695, 38.459972], [-89.074269, 38.388909], [-89.073449, 38.386312], [-89.073165, 38.383946], [-89.071042, 38.3534], [-89.069823, 38.349317], [-89.068077, 38.346559], [-89.065816, 38.344233], [-89.050516, 38.333211], [-89.047808, 38.330544], [-89.045718, 38.326874], [-89.036161, 38.301519], [-89.035156, 38.297172], [-89.038651, 38.187563], [-89.033038, 38.167793], [-89.032653, 38.163912], [-89.032926, 38.161865], [-89.033715, 38.159686], [-89.048481, 38.133654], [-89.049385, 38.131192], [-89.049766, 38.128713], [-89.045276, 38.063318], [-89.040798, 38.031388], [-89.041535, 38.027447], [-89.050003, 38.006864], [-89.050189, 38.001412], [-89.049505, 37.972323], [-89.048717, 37.968746], [-89.046388, 37.964642], [-89.010775, 37.912158], [-88.989325, 37.891064], [-88.985808, 37.88647], [-88.985027, 37.886167], [-88.98317, 37.886169], [-88.985075, 37.885124], [-88.985331, 37.884709], [-88.985598, 37.879786], [-88.986041, 37.877737], [-88.987298, 37.875079], [-89.006292, 37.844326], [-89.007096, 37.842099], [-89.011144, 37.823349], [-89.012335, 37.821888], [-89.027077, 37.812061], [-89.028574, 37.811622], [-89.031024, 37.811523], [-89.034535, 37.810833], [-89.035258, 37.810053], [-89.037752, 37.804943], [-89.037665, 37.8043]]}}, {"type": "Feature", "properties": {"company": "Chicago, Burlington and Quincy Railroad", "line": "Chicago, Burlington and Quincy: Quincy – New Canton", "id": "cbq-quincy-new-canton", "color": "#8E1B3C", "mode": "intercity_rail", "avg_speed_kmh": 35, "speed_source": "estimated, NOT sourced: a secondary branch of this era, taken from the kind of service the Feb 1952 Guide shows (Table 12) rather than from any timetable's running times", "geometry_source": "OpenStreetMap via Overpass, 2026-08-30", "geometry_quality": "Real trace from OpenStreetMap: a Dijkstra shortest path over every railway way (rail, abandoned, disused, razed, dismantled) in a corridor around the route, with ways tagged old_railway_operator=CB&Q costed at 1x and all other track at 3x, so the path stays on the Burlington's own alignment wherever OSM records it. Snapped to the report's own station list; every one of the 5 waypoints lies within 1.1 km of the drawn line. OSM lines followed: CB&Q 16 mi; Chicago, Burlington, and Quincy (abd) 6 mi; [rail] 6 mi. TRACED LENGTH 27.4 mi against a DOCUMENTED 28 mi (-2%). No straight-line approximation: the whole route is on mapped track. ERA NOTE: much of the surviving alignment is today's BNSF, which is the CB&Q's own successor on this route, so the modern centreline is the historical one; where the line is abandoned the trace follows the recorded grade. Simplified to a 20 m Douglas-Peucker tolerance.", "segments": [{"start": 1875, "end": 1952, "headway_min": 720, "note": "branchline.uk illinoisrrs2 route 140 (Quincy - Louisiana): thirteen stations lettered y = 1875 and two q = 1884. Feb 1952 Table 12 shows a MIXED train, 9 45 AM Quincy to New Canton, returning 12 40 PM. THE 1952 END IS THE LAST CONFIRMED YEAR, NOT A KNOWN END. No source consulted dates when passenger service actually stopped here; the Burlington's branch trains were swept away somewhere between about 1952 and 1968 and not one of those discontinuances has been dated. The end year is a withheld unknown, not an abandonment -- DO NOT extend this line to a rounder year without evidence. Equally, 1875 is the earliest year positively CONFIRMED, not the year the line opened: the branch is older than the map shows, and the confirmed start is deliberately late rather than guessed early. Headway is an estimate and is NOT sourced.", "sources": ["Segment-level: start year 1875 from branchline.uk (John Fowler, Passenger Stations & Stops) -- branchline.uk illinoisrrs2 route 140 (Quincy - Louisiana): thirteen stations lettered y = 1875 and two q = 1884. End year 1952 from Table 12 of the Feb 1952 Official Guide -- Feb 1952 Table 12 shows a MIXED train, 9 45 AM Quincy to New Canton, returning 12 40 PM. The end is a FLOOR on service, not the year it stopped. Headway and avg_speed_kmh are estimates and are NOT sourced.", "Feb 1952 Official Guide of the Railways (schedules effective 30 September 1951 / 27 January 1952), Burlington Lines section; full OCR cached at research/sources/official_guide_1952.txt", "https://www.branchline.uk/jfpdf/illinoisrrs2.pdf", "research/branches/chicago_burlington_and_quincy_railroad.txt (research pass 2026-08-30)"]}]}, "geometry": {"type": "LineString", "coordinates": [[-91.415168, 39.933081], [-91.414425, 39.92676], [-91.412553, 39.917234], [-91.412864, 39.913885], [-91.411473, 39.907039], [-91.399803, 39.877653], [-91.393914, 39.866384], [-91.385971, 39.854868], [-91.383566, 39.85209], [-91.325873, 39.795256], [-91.317603, 39.787197], [-91.314296, 39.78498], [-91.265415, 39.757169], [-91.214259, 39.711273], [-91.10427, 39.628741]]}}, {"type": "Feature", "properties": {"company": "Chicago, Burlington and Quincy Railroad", "line": "Chicago, Burlington and Quincy: Burlington – Quincy", "id": "cbq-burlington-quincy-west", "color": "#8E1B3C", "mode": "intercity_rail", "avg_speed_kmh": 45, "speed_source": "estimated, NOT sourced: a secondary branch of this era, taken from the kind of service the Feb 1952 Guide shows (Table 11) rather than from any timetable's running times", "geometry_source": "OpenStreetMap via Overpass, 2026-08-30", "geometry_quality": "Real trace from OpenStreetMap: a Dijkstra shortest path over every railway way (rail, abandoned, disused, razed, dismantled) in a corridor around the route, with ways tagged old_railway_operator=CB&Q costed at 1x and all other track at 3x, so the path stays on the Burlington's own alignment wherever OSM records it. Snapped to the report's own station list; every one of the 10 waypoints lies within 1.0 km of the drawn line. OSM lines followed: CB&Q (abnd) 56 mi; BNSF Ottumwa Subdivision 1 mi; [rail] 0 mi. TRACED LENGTH 69.8 mi against a DOCUMENTED 75 mi (-7%). APPROXIMATED: 12.7 mi of the total is straight-line, drawn across 1 place(s) where the grade is lifted and OSM has no way at all -- Mendon-Quincy 12.7 mi. Those legs are ruled lines, not survey. ERA NOTE: much of the surviving alignment is today's BNSF, which is the CB&Q's own successor on this route, so the modern centreline is the historical one; where the line is abandoned the trace follows the recorded grade. Simplified to a 20 m Douglas-Peucker tolerance.", "segments": [{"start": 1875, "end": 1952, "headway_min": 480, "note": "branchline.uk illinoisrrs2 route 139 (Burlington - Quincy): thirteen stations lettered y = the 1875 Official Guide. Feb 1952 Table 11, times legible. THE 1952 END IS THE LAST CONFIRMED YEAR, NOT A KNOWN END. No source consulted dates when passenger service actually stopped here; the Burlington's branch trains were swept away somewhere between about 1952 and 1968 and not one of those discontinuances has been dated. The end year is a withheld unknown, not an abandonment -- DO NOT extend this line to a rounder year without evidence. Equally, 1875 is the earliest year positively CONFIRMED, not the year the line opened: the branch is older than the map shows, and the confirmed start is deliberately late rather than guessed early. The Illinois west-side line between the two river cities, parallel to and east of the Mississippi. Headway is an estimate and is NOT sourced.", "sources": ["Segment-level: start year 1875 from branchline.uk (John Fowler, Passenger Stations & Stops) -- branchline.uk illinoisrrs2 route 139 (Burlington - Quincy): thirteen stations lettered y = the 1875 Official Guide. End year 1952 from Table 11 of the Feb 1952 Official Guide -- Feb 1952 Table 11, times legible. The end is a FLOOR on service, not the year it stopped. Headway and avg_speed_kmh are estimates and are NOT sourced.", "Feb 1952 Official Guide of the Railways (schedules effective 30 September 1951 / 27 January 1952), Burlington Lines section; full OCR cached at research/sources/official_guide_1952.txt", "https://www.branchline.uk/jfpdf/illinoisrrs2.pdf", "research/branches/chicago_burlington_and_quincy_railroad.txt (research pass 2026-08-30)"]}]}, "geometry": {"type": "LineString", "coordinates": [[-91.103302, 40.808259], [-91.102307, 40.807922], [-91.101578, 40.80718], [-91.100921, 40.803655], [-91.098807, 40.79848], [-91.097809, 40.797582], [-91.096728, 40.797263], [-91.095618, 40.797308], [-91.086684, 40.800198], [-91.084756, 40.799981], [-91.082744, 40.798975], [-91.077313, 40.79168], [-91.071963, 40.785242], [-91.06559, 40.76872], [-91.061817, 40.754886], [-91.061435, 40.751208], [-91.060541, 40.717762], [-91.060613, 40.68914], [-91.061406, 40.687133], [-91.062972, 40.685667], [-91.108174, 40.660058], [-91.110237, 40.659169], [-91.119805, 40.656648], [-91.12276, 40.655549], [-91.137613, 40.647452], [-91.15448, 40.642333], [-91.164207, 40.634852], [-91.164953, 40.634026], [-91.165258, 40.633067], [-91.165368, 40.629179], [-91.164137, 40.625325], [-91.164437, 40.624607], [-91.166945, 40.622381], [-91.16767, 40.620813], [-91.166314, 40.616024], [-91.167134, 40.530159], [-91.168531, 40.469993], [-91.167717, 40.467488], [-91.16099, 40.456294], [-91.155794, 40.441868], [-91.149683, 40.433092], [-91.149299, 40.431654], [-91.149237, 40.42816], [-91.147898, 40.426386], [-91.14743, 40.425155], [-91.14784, 40.414942], [-91.146821, 40.411048], [-91.147584, 40.409204], [-91.148987, 40.408183], [-91.177343, 40.390568], [-91.190167, 40.378472], [-91.192308, 40.375448], [-91.193423, 40.372559], [-91.195745, 40.34471], [-91.194339, 40.336018], [-91.195679, 40.318125], [-91.192783, 40.310195], [-91.190545, 40.301879], [-91.184413, 40.287328], [-91.184172, 40.28352], [-91.182866, 40.275394], [-91.18325, 40.250003], [-91.183798, 40.243631], [-91.183404, 40.238557], [-91.183546, 40.216495], [-91.182921, 40.20919], [-91.183513, 40.204389], [-91.183592, 40.188603], [-91.184014, 40.18619], [-91.185741, 40.183632], [-91.21208, 40.162285], [-91.228101, 40.146282], [-91.230558, 40.143259], [-91.232094, 40.14006], [-91.236082, 40.134769], [-91.24314, 40.123714], [-91.244244, 40.122883], [-91.256252, 40.116713], [-91.258901, 40.114951], [-91.279068, 40.093164], [-91.281461, 40.09193], [-91.413741, 39.937948]]}}, {"type": "Feature", "properties": {"company": "Chicago, Burlington and Quincy Railroad", "line": "Chicago, Burlington and Quincy: Rio – Monmouth – Vermont", "id": "cbq-rio-monmouth-vermont", "color": "#8E1B3C", "mode": "intercity_rail", "avg_speed_kmh": 32, "speed_source": "estimated, NOT sourced: a mixed-train branch of this era, taken from the kind of service the Feb 1952 Guide shows (Table 10) rather than from any timetable's running times", "geometry_source": "OpenStreetMap via Overpass, 2026-08-30", "geometry_quality": "Real trace from OpenStreetMap: a Dijkstra shortest path over every railway way (rail, abandoned, disused, razed, dismantled) in a corridor around the route, with ways tagged old_railway_operator=CB&Q costed at 1x and all other track at 3x, so the path stays on the Burlington's own alignment wherever OSM records it. Snapped to the report's own station list; every one of the 8 waypoints lies within 0.7 km of the drawn line. OSM lines followed: [abandoned] 37 mi; BNSF Beardstown Subdivision 19 mi; BNSF Brookfield Subdivision 1 mi; [rail] 0 mi. TRACED LENGTH 69.4 mi against a DOCUMENTED 60 mi (+16%). APPROXIMATED: 12.7 mi of the total is straight-line, drawn across 1 place(s) where the grade is lifted and OSM has no way at all -- Monmouth-Roseville 12.7 mi. Those legs are ruled lines, not survey. ERA NOTE: much of the surviving alignment is today's BNSF, which is the CB&Q's own successor on this route, so the modern centreline is the historical one; where the line is abandoned the trace follows the recorded grade. Simplified to a 20 m Douglas-Peucker tolerance.", "segments": [{"start": 1951, "end": 1952, "headway_min": 1440, "note": "Feb 1952 Table 10 reads \"Mixed Train Provides Service. Consult Agent\" -- an unscheduled mixed, which Rule 1 counts as passenger service. THIS TWO-YEAR SPAN IS A CONFIRMED-ONLY STUB, NOT THE LIFE OF THE BRANCH. The Feb 1952 Official Guide is a single snapshot, and it is the only evidence anyone has found for passenger service on this line. The branch is certainly far older and probably ran on past 1952; drawing 1951-1952 is a refusal to invent the other seventy years, not a claim they did not happen. BOTH ends are withheld unknowns. Headway is an estimate and is NOT sourced.", "sources": ["Segment-level for 1951 ONLY: Table 10 of the Feb 1952 Official Guide -- Feb 1952 Table 10 reads \"Mixed Train Provides Service. Consult Agent\" -- an unscheduled mixed, which Rule 1 counts as passenger service. NOT SOURCED for any other year: no start year and no end year have been established for this branch. Headway and avg_speed_kmh are estimates and are NOT sourced.", "Feb 1952 Official Guide of the Railways (schedules effective 30 September 1951 / 27 January 1952), Burlington Lines section; full OCR cached at research/sources/official_guide_1952.txt", "research/branches/chicago_burlington_and_quincy_railroad.txt (research pass 2026-08-30)"]}]}, "geometry": {"type": "LineString", "coordinates": [[-90.400683, 41.110257], [-90.406948, 41.106515], [-90.409138, 41.105613], [-90.440188, 41.097614], [-90.49376, 41.086996], [-90.507474, 41.083978], [-90.548395, 41.066548], [-90.551015, 41.064291], [-90.56305, 41.048953], [-90.564035, 41.048112], [-90.576663, 41.04095], [-90.580799, 41.037379], [-90.583033, 41.034877], [-90.584913, 41.032441], [-90.587855, 41.02655], [-90.590863, 41.024114], [-90.592257, 41.022312], [-90.593031, 41.018357], [-90.593031, 41.015469], [-90.590996, 41.009094], [-90.591682, 41.005305], [-90.593353, 41.000977], [-90.612031, 40.976655], [-90.618623, 40.972062], [-90.623335, 40.970264], [-90.625148, 40.968889], [-90.625789, 40.968004], [-90.627426, 40.963594], [-90.628068, 40.959151], [-90.635566, 40.943481], [-90.642995, 40.931701], [-90.653632, 40.915884], [-90.66086, 40.698473], [-90.662748, 40.68263], [-90.663532, 40.680573], [-90.665504, 40.6783], [-90.6666, 40.675863], [-90.666377, 40.674174], [-90.665858, 40.673254], [-90.663433, 40.671021], [-90.660761, 40.669576], [-90.650621, 40.665181], [-90.646565, 40.664482], [-90.627604, 40.664302], [-90.624116, 40.663664], [-90.622532, 40.663007], [-90.559576, 40.614261], [-90.551089, 40.602276], [-90.523179, 40.561046], [-90.520998, 40.554445], [-90.519646, 40.55308], [-90.51518, 40.550838], [-90.512975, 40.549087], [-90.512708, 40.548059], [-90.513144, 40.547128], [-90.512709, 40.547644], [-90.521829, 40.535339], [-90.522477, 40.532614], [-90.521698, 40.530686], [-90.50366, 40.506706], [-90.495742, 40.493491], [-90.495122, 40.491636], [-90.495998, 40.418998], [-90.495593, 40.416708], [-90.494796, 40.415209], [-90.492944, 40.413299], [-90.425187, 40.368858], [-90.422915, 40.366735], [-90.422185, 40.364215], [-90.424012, 40.298031]]}}]}