{"type": "FeatureCollection", "metadata": {"note": "Chicago, Burlington and Quincy branch lines in Iowa and Missouri, traced 2026-08-30 from research/branches/chicago_burlington_and_quincy_railroad.txt.", "source": "research/branches/chicago_burlington_and_quincy_railroad.txt; Feb 1952 Official Guide of the Railways (Burlington Lines section), full OCR cached at research/sources/official_guide_1952.txt; branchline.uk (John Fowler), Passenger Stations & Stops, illinoisrrs2 / iowarrs / nebraskarrs / missourirrs", "pulled": "20260830", "geometry_method": "Overpass corridor fetch per branch (all railway ways: rail, abandoned, disused, razed, dismantled), Dijkstra over a graph in which ways tagged old_railway_operator=CB&Q cost 1x and everything else 3x, waypoints taken from the research report's own via lists and snapped by a dynamic program over up to eight candidate nodes each, with each leg confined to a corridor around its own straight line so the router cannot wander onto a parallel railroad. Every feature's geometry_quality gives its traced length against the report's documented mileage and names any straight-line legs.", "not_yet_sourced": "EVERY BRANCH IN THIS FILE THAT ENDS IN 1952 HAS AN UNKNOWN, WITHHELD END YEAR. The Feb 1952 Official Guide is a single snapshot: it proves the trains were running in September 1951 and says nothing about when they stopped. The Burlington's branch passenger service was swept away somewhere between about 1952 and 1968 and NOT ONE of those discontinuances has been dated by any source consulted. A 1952 end here is where the evidence stops, not where the trains stopped -- do not 'fix' one by rounding it up. Nor is a start year the year a line opened: it is the earliest year a timetable proves, usually a branchline.uk Official-Guide snapshot letter (1875, 1884 or 1893), and the lines are older than the map shows. branchline.uk cannot close a Burlington branch, only open one: outside Nebraska's single d = 1950t there is NO lettered timetable snapshot for the CB&Q between 1893 and 1976 in any of Fowler's state files, and the Missouri CB&Q legend is blank in every position. Still unexploited, and the highest-value source left for this railroad: the 1952 Guide's index of stations carries a per-station freight-only dagger across the whole 11,000-mile system, but the OCR has mangled that dagger into at least four different characters and it was not used.", "branches_deliberately_omitted": [{"branch": "Chicago, Burlington and Quincy: Creston – St. Joseph", "reason": "109 of 161 traced miles (68%) came out as straight line and the length overshoots the documented 104 mi by 55%: OSM does not carry the Bedford - Blockton - Grant City - Maryville grade. Left off rather than drawn as a ruled approximation."}, {"branch": "Chicago, Burlington and Quincy: Des Moines – Mount Ayr", "reason": "100% of the traced length was straight line -- OSM has no rail at all on the Des Moines - Indianola - Osceola - Leon - Mount Ayr grade. A ruled line between five towns is not a trace. Report block [27] is a one-year 1884 anchor recommending omission."}, {"branch": "Chicago, Burlington and Quincy: Corning – Villisca (via Clarinda)", "reason": "26 of 47 traced miles (54%) came out as straight line -- OSM carries the Clarinda end but not the Corning - Nodaway - Shambaugh grade."}, {"branch": "Chicago, Burlington and Quincy: Red Oak – Griswold", "reason": "the nearest railway of any kind in OSM is 9.6 km from Griswold, so the branch has no geometry to trace. Report block [38] is already flagged LOW confidence (Table 47's times are only partly recoverable)."}, {"branch": "Chicago, Burlington and Quincy: Fort Madison – Birmingham", "reason": "27 of 43 traced miles (64%) came out as straight line and the result overshoots the documented 27 mi by 58%: OSM has almost none of the Fort Madison - Salem - Hillsboro grade."}]}, "features": [{"type": "Feature", "properties": {"company": "Chicago, Burlington and Quincy Railroad", "line": "Chicago, Burlington and Quincy: Chariton – Blythedale", "id": "cbq-chariton-blythedale", "color": "#8E1B3C", "mode": "intercity_rail", "avg_speed_kmh": 40, "speed_source": "estimated, NOT sourced: a secondary branch of this era, taken from the kind of service the Feb 1952 Guide shows (Table 17) rather than from any timetable's running times", "geometry_source": "OpenStreetMap via Overpass, 2026-08-30", "geometry_quality": "Real trace from OpenStreetMap: a Dijkstra shortest path over every railway way (rail, abandoned, disused, razed, dismantled) in a corridor around the route, with ways tagged old_railway_operator=CB&Q costed at 1x and all other track at 3x, so the path stays on the Burlington's own alignment wherever OSM records it. Snapped to the report's own station list; every one of the 5 waypoints lies within 3.4 km of the drawn line. OSM lines followed: Chicago Burlington & Quincy (abnd) 32 mi; [abandoned] 21 mi; Cinder Path 10 mi; [rail] 0 mi; BNSF Ottumwa Subdivision 0 mi. TRACED LENGTH 60.5 mi against a DOCUMENTED 120 mi (-50%). No straight-line approximation: the whole route is on mapped track. MILEAGE NOTE: the 120 mi checked against is Chariton all the way to St. Joseph; this feature stops at Blythedale, MO because OSM carries no track on the Missouri continuation. The report's own figure for the drawn portion is \"approx 60 mi to Giles, continuing west\", which the traced 60 mi matches. ERA NOTE: much of the surviving alignment is today's BNSF, which is the CB&Q's own successor on this route, so the modern centreline is the historical one; where the line is abandoned the trace follows the recorded grade. Simplified to a 20 m Douglas-Peucker tolerance.", "segments": [{"start": 1875, "end": 1952, "headway_min": 720, "note": "branchline.uk iowarrs route 10 (Chariton - Giles): three stations lettered y = the 1875 Official Guide. Feb 1952 Table 17 heads its columns \"140 138 136 132 / Mix. Mix. Mix. Mix.\" -- FOUR mixed trains still carrying passengers in 1951. THE 1952 END IS THE LAST CONFIRMED YEAR, NOT A KNOWN END. No source consulted dates when passenger service actually stopped here; the Burlington's branch trains were swept away somewhere between about 1952 and 1968 and not one of those discontinuances has been dated. The end year is a withheld unknown, not an abandonment -- DO NOT extend this line to a rounder year without evidence. Equally, 1875 is the earliest year positively CONFIRMED, not the year the line opened: the branch is older than the map shows, and the confirmed start is deliberately late rather than guessed early. DRAWN ONLY AS FAR AS BLYTHEDALE, MO. Report block [25] runs the line on to St. Joseph, but OSM carries no track within 6 km of St. Joseph on this alignment, so the Missouri continuation past Blythedale is left untraced rather than ruled in. The Giles - Mount Ayr stub, which shares Table 17, is likewise not drawn. Headway is an estimate and is NOT sourced.", "sources": ["Segment-level: start year 1875 from branchline.uk (John Fowler, Passenger Stations & Stops) -- branchline.uk iowarrs route 10 (Chariton - Giles): three stations lettered y = the 1875 Official Guide. End year 1952 from Table 17 of the Feb 1952 Official Guide -- Feb 1952 Table 17 heads its columns \"140 138 136 132 / Mix. Mix. Mix. Mix.\" -- FOUR mixed trains still carrying passengers in 1951. The end is a FLOOR on service, not the year it stopped. Headway and avg_speed_kmh are estimates and are NOT sourced.", "Feb 1952 Official Guide of the Railways (schedules effective 30 September 1951 / 27 January 1952), Burlington Lines section; full OCR cached at research/sources/official_guide_1952.txt", "https://www.branchline.uk/jfpdf/iowarrs.pdf", "research/branches/chicago_burlington_and_quincy_railroad.txt (research pass 2026-08-30)"]}]}, "geometry": {"type": "LineString", "coordinates": [[-93.312278, 41.018896], [-93.317654, 41.02197], [-93.319477, 41.022084], [-93.320813, 41.021673], [-93.323254, 41.019327], [-93.325231, 41.014154], [-93.327571, 41.011553], [-93.340569, 41.004428], [-93.351283, 40.999006], [-93.352437, 40.998163], [-93.353922, 40.996233], [-93.360345, 40.981091], [-93.361787, 40.978714], [-93.376561, 40.962778], [-93.381495, 40.958576], [-93.394411, 40.95154], [-93.397079, 40.950434], [-93.411193, 40.948056], [-93.421138, 40.947046], [-93.424409, 40.945967], [-93.425635, 40.945082], [-93.4268, 40.943557], [-93.42849, 40.935376], [-93.42912, 40.933966], [-93.430739, 40.932131], [-93.43288, 40.930961], [-93.436284, 40.930346], [-93.459696, 40.930776], [-93.464224, 40.929577], [-93.467464, 40.927761], [-93.491969, 40.899108], [-93.492441, 40.897648], [-93.492333, 40.896416], [-93.486661, 40.884761], [-93.486587, 40.882601], [-93.486995, 40.881141], [-93.496946, 40.864448], [-93.497051, 40.863362], [-93.496202, 40.862883], [-93.497221, 40.862806], [-93.498339, 40.862088], [-93.512343, 40.838064], [-93.513652, 40.836538], [-93.516077, 40.834987], [-93.518738, 40.834159], [-93.52084, 40.833908], [-93.551686, 40.834322], [-93.558531, 40.834167], [-93.56191, 40.833461], [-93.57765, 40.826691], [-93.581233, 40.825514], [-93.583486, 40.825303], [-93.610491, 40.825538], [-93.614675, 40.825043], [-93.616273, 40.824247], [-93.617282, 40.823102], [-93.618966, 40.816786], [-93.619589, 40.815616], [-93.621273, 40.813919], [-93.623569, 40.812661], [-93.634566, 40.810363], [-93.638783, 40.80817], [-93.640392, 40.807902], [-93.643804, 40.807902], [-93.646582, 40.807139], [-93.649468, 40.804548], [-93.651646, 40.800569], [-93.653739, 40.799464], [-93.656002, 40.799529], [-93.658416, 40.800382], [-93.661195, 40.802063], [-93.662633, 40.803834], [-93.66407, 40.804963], [-93.66569, 40.80571], [-93.667858, 40.806108], [-93.681912, 40.807009], [-93.693124, 40.806619], [-93.697512, 40.805913], [-93.705977, 40.806895], [-93.710312, 40.806432], [-93.71986, 40.80385], [-93.723701, 40.802217], [-93.725235, 40.801015], [-93.726823, 40.798335], [-93.729409, 40.795152], [-93.731812, 40.793251], [-93.734409, 40.791902], [-93.742037, 40.788873], [-93.746307, 40.78642], [-93.748142, 40.784194], [-93.74871, 40.782618], [-93.749021, 40.757291], [-93.749536, 40.755349], [-93.752366, 40.749703], [-93.752532, 40.745849], [-93.753197, 40.742151], [-93.75176, 40.736851], [-93.750311, 40.733688], [-93.748166, 40.730347], [-93.745172, 40.728404], [-93.744496, 40.727452], [-93.74426, 40.725932], [-93.744968, 40.72385], [-93.747897, 40.717557], [-93.752683, 40.710758], [-93.759388, 40.704219], [-93.760461, 40.698924], [-93.764591, 40.692636], [-93.769183, 40.683989], [-93.771533, 40.682093], [-93.777048, 40.678741], [-93.783421, 40.673704], [-93.788367, 40.671149], [-93.789719, 40.669945], [-93.79048, 40.667821], [-93.792508, 40.657534], [-93.794471, 40.654864], [-93.798892, 40.651852], [-93.799771, 40.650884], [-93.802035, 40.645861], [-93.806177, 40.639373], [-93.808751, 40.637248], [-93.826036, 40.628076], [-93.827902, 40.627473], [-93.833986, 40.626329], [-93.839296, 40.625955], [-93.841185, 40.625328], [-93.843352, 40.623781], [-93.845605, 40.620491], [-93.848416, 40.619017], [-93.852096, 40.618821], [-93.858533, 40.621378], [-93.860582, 40.621883], [-93.874627, 40.622331], [-93.882941, 40.62124], [-93.887962, 40.619815], [-93.89418, 40.617318], [-93.892551, 40.617376], [-93.891448, 40.616408], [-93.891977, 40.611343], [-93.892549, 40.60985], [-93.894509, 40.607413], [-93.899189, 40.599888], [-93.900046, 40.591133], [-93.898924, 40.587829], [-93.895715, 40.583589], [-93.894066, 40.57592], [-93.894054, 40.568481], [-93.894678, 40.56486], [-93.8955, 40.563142], [-93.897417, 40.561019], [-93.904027, 40.55502], [-93.906469, 40.553225], [-93.909685, 40.552233], [-93.911634, 40.550828], [-93.913134, 40.547436], [-93.913642, 40.544404], [-93.91286, 40.539889], [-93.912719, 40.534232], [-93.912087, 40.531878], [-93.910311, 40.529855], [-93.905523, 40.527725], [-93.904633, 40.526682], [-93.904004, 40.525209], [-93.904982, 40.517422], [-93.903244, 40.513083], [-93.903188, 40.511482], [-93.904234, 40.506323], [-93.904447, 40.502045], [-93.905632, 40.4996], [-93.907558, 40.497661], [-93.91384, 40.494663], [-93.918605, 40.492957], [-93.921145, 40.491002], [-93.922097, 40.489112], [-93.922349, 40.483929], [-93.92492, 40.478198], [-93.925087, 40.47647]]}}, {"type": "Feature", "properties": {"company": "Chicago, Burlington and Quincy Railroad", "line": "Chicago, Burlington and Quincy: Albia – Des Moines", "id": "cbq-albia-des-moines", "color": "#8E1B3C", "mode": "intercity_rail", "avg_speed_kmh": 50, "speed_source": "estimated, NOT sourced: a secondary branch of this era, taken from the kind of service the Feb 1952 Guide shows (Table 40) rather than from any timetable's running times", "geometry_source": "OpenStreetMap via Overpass, 2026-08-30", "geometry_quality": "Real trace from OpenStreetMap: a Dijkstra shortest path over every railway way (rail, abandoned, disused, razed, dismantled) in a corridor around the route, with ways tagged old_railway_operator=CB&Q costed at 1x and all other track at 3x, so the path stays on the Burlington's own alignment wherever OSM records it. Snapped to the report's own station list; every one of the 8 waypoints lies within 1.1 km of the drawn line. OSM lines followed: Des Moines Subdivision 46 mi; Des Moines Branch (CB&Q) 11 mi; Des Moines District 10 mi; [abandoned] 1 mi; Wabash Sixteenth District 1 mi; Oskaloosa Line (CB&Q) 0 mi. TRACED LENGTH 68.4 mi against a DOCUMENTED 66 mi (+4%). No straight-line approximation: the whole route is on mapped track. ERA NOTE: much of the surviving alignment is today's BNSF, which is the CB&Q's own successor on this route, so the modern centreline is the historical one; where the line is abandoned the trace follows the recorded grade. Simplified to a 20 m Douglas-Peucker tolerance.", "segments": [{"start": 1893, "end": 1952, "headway_min": 480, "note": "branchline.uk iowarrs route 8 (Albia - Des Moines): three stations lettered z = the 1893 Official Guide. Feb 1952 Table 40 shows trains 27 and 28 with full times, running through from Chicago and St. Louis via Ottumwa. THE 1952 END IS THE LAST CONFIRMED YEAR, NOT A KNOWN END. No source consulted dates when passenger service actually stopped here; the Burlington's branch trains were swept away somewhere between about 1952 and 1968 and not one of those discontinuances has been dated. The end year is a withheld unknown, not an abandonment -- DO NOT extend this line to a rounder year without evidence. Equally, 1893 is the earliest year positively CONFIRMED, not the year the line opened: the branch is older than the map shows, and the confirmed start is deliberately late rather than guessed early. The Burlington's own way into Des Moines. Headway is an estimate and is NOT sourced.", "sources": ["Segment-level: start year 1893 from branchline.uk (John Fowler, Passenger Stations & Stops) -- branchline.uk iowarrs route 8 (Albia - Des Moines): three stations lettered z = the 1893 Official Guide. End year 1952 from Table 40 of the Feb 1952 Official Guide -- Feb 1952 Table 40 shows trains 27 and 28 with full times, running through from Chicago and St. Louis via Ottumwa. The end is a FLOOR on service, not the year it stopped. Headway and avg_speed_kmh are estimates and are NOT sourced.", "Feb 1952 Official Guide of the Railways (schedules effective 30 September 1951 / 27 January 1952), Burlington Lines section; full OCR cached at research/sources/official_guide_1952.txt", "https://www.branchline.uk/jfpdf/iowarrs.pdf", "research/branches/chicago_burlington_and_quincy_railroad.txt (research pass 2026-08-30)"]}]}, "geometry": {"type": "LineString", "coordinates": [[-92.807621, 41.031294], [-92.813277, 41.029674], [-92.814384, 41.029752], [-92.815617, 41.030445], [-92.81698, 41.033894], [-92.818477, 41.036094], [-92.82517, 41.040781], [-92.82828, 41.043407], [-92.836024, 41.052853], [-92.837724, 41.055977], [-92.83943, 41.061203], [-92.841178, 41.06364], [-92.867454, 41.082762], [-92.892896, 41.107906], [-92.895108, 41.110816], [-92.897343, 41.115184], [-92.900881, 41.125183], [-92.905398, 41.132662], [-92.90604, 41.134269], [-92.908206, 41.143259], [-92.908323, 41.146957], [-92.903887, 41.168633], [-92.889964, 41.195268], [-92.887155, 41.199459], [-92.879009, 41.224482], [-92.879178, 41.225813], [-92.880161, 41.227418], [-92.883319, 41.229762], [-92.88433, 41.231219], [-92.885088, 41.235115], [-92.889553, 41.243603], [-92.890213, 41.245978], [-92.889946, 41.248585], [-92.886226, 41.255456], [-92.878588, 41.271645], [-92.878114, 41.273873], [-92.878353, 41.282028], [-92.878889, 41.283818], [-92.879504, 41.284668], [-92.884905, 41.289293], [-92.888101, 41.291262], [-92.899172, 41.295958], [-92.902233, 41.297624], [-92.907856, 41.303414], [-92.919858, 41.312674], [-92.933503, 41.317794], [-92.937821, 41.318768], [-92.941094, 41.320518], [-92.943084, 41.321086], [-92.945198, 41.321179], [-92.950542, 41.320383], [-92.957647, 41.320574], [-92.969062, 41.321922], [-92.978194, 41.322614], [-92.980561, 41.322399], [-92.991076, 41.320301], [-92.998971, 41.320214], [-93.003266, 41.32051], [-93.008256, 41.320283], [-93.010544, 41.320914], [-93.014778, 41.323642], [-93.02056, 41.324863], [-93.024739, 41.327034], [-93.027389, 41.327407], [-93.030017, 41.326666], [-93.037053, 41.32151], [-93.039299, 41.320329], [-93.041222, 41.320105], [-93.044436, 41.320506], [-93.046089, 41.320405], [-93.052518, 41.31795], [-93.064162, 41.31476], [-93.066639, 41.314347], [-93.068656, 41.314358], [-93.07556, 41.315747], [-93.082892, 41.319238], [-93.085851, 41.320219], [-93.099858, 41.321978], [-93.112371, 41.324564], [-93.114781, 41.325552], [-93.123566, 41.330672], [-93.127924, 41.331944], [-93.139758, 41.33463], [-93.147361, 41.334941], [-93.153587, 41.336068], [-93.167031, 41.339452], [-93.181246, 41.339532], [-93.185119, 41.340032], [-93.187104, 41.340604], [-93.201395, 41.347208], [-93.205504, 41.348537], [-93.21001, 41.350696], [-93.219881, 41.357098], [-93.221758, 41.358644], [-93.228432, 41.3659], [-93.236481, 41.372978], [-93.239322, 41.37462], [-93.245909, 41.377341], [-93.255672, 41.383966], [-93.263901, 41.388004], [-93.266293, 41.389853], [-93.292823, 41.427933], [-93.297152, 41.433307], [-93.304257, 41.446425], [-93.305283, 41.45081], [-93.306451, 41.452975], [-93.308022, 41.454504], [-93.315682, 41.459898], [-93.321563, 41.467868], [-93.323313, 41.469633], [-93.326147, 41.471392], [-93.333917, 41.474527], [-93.335647, 41.475769], [-93.337026, 41.477382], [-93.337975, 41.479652], [-93.340333, 41.504405], [-93.341487, 41.506767], [-93.343708, 41.508649], [-93.346224, 41.509678], [-93.34873, 41.510052], [-93.372912, 41.509364], [-93.375979, 41.509733], [-93.383731, 41.51281], [-93.394736, 41.516485], [-93.434205, 41.534929], [-93.436479, 41.535412], [-93.439259, 41.535528], [-93.450285, 41.533346], [-93.452165, 41.533347], [-93.454079, 41.533762], [-93.462193, 41.537732], [-93.46746, 41.542847], [-93.470179, 41.544695], [-93.472887, 41.545783], [-93.479611, 41.547596], [-93.482542, 41.549078], [-93.485531, 41.551949], [-93.488303, 41.556345], [-93.493304, 41.561248], [-93.495256, 41.562614], [-93.497189, 41.563437], [-93.522241, 41.571209], [-93.526273, 41.572122], [-93.534543, 41.573193], [-93.541671, 41.575108], [-93.543482, 41.575305], [-93.546225, 41.574799], [-93.548902, 41.573166], [-93.55047, 41.572577], [-93.552117, 41.572382], [-93.554691, 41.572622], [-93.560536, 41.574792], [-93.596365, 41.584713], [-93.60166, 41.585303], [-93.606243, 41.584719], [-93.608867, 41.586801], [-93.611503, 41.586259]]}}, {"type": "Feature", "properties": {"company": "Chicago, Burlington and Quincy Railroad", "line": "Chicago, Burlington and Quincy: Burlington – Washington", "id": "cbq-burlington-washington", "color": "#8E1B3C", "mode": "intercity_rail", "avg_speed_kmh": 40, "speed_source": "estimated, NOT sourced: a secondary branch of this era, taken from the kind of service the Feb 1952 Guide shows (Table 43) rather than from any timetable's running times", "geometry_source": "OpenStreetMap via Overpass, 2026-08-30", "geometry_quality": "Real trace from OpenStreetMap: a Dijkstra shortest path over every railway way (rail, abandoned, disused, razed, dismantled) in a corridor around the route, with ways tagged old_railway_operator=CB&Q costed at 1x and all other track at 3x, so the path stays on the Burlington's own alignment wherever OSM records it. Snapped to the report's own station list; every one of the 7 waypoints lies within 0.7 km of the drawn line. OSM lines followed: [abandoned] 49 mi; Hoover Nature Trail 2 mi; [rail] 1 mi; [disused] 0 mi. TRACED LENGTH 51.3 mi against a DOCUMENTED 56 mi (-8%). No straight-line approximation: the whole route is on mapped track. ERA NOTE: much of the surviving alignment is today's BNSF, which is the CB&Q's own successor on this route, so the modern centreline is the historical one; where the line is abandoned the trace follows the recorded grade. Simplified to a 20 m Douglas-Peucker tolerance.", "segments": [{"start": 1884, "end": 1952, "headway_min": 720, "note": "branchline.uk iowarrs route 3 (Burlington - Oskaloosa): three stations lettered q = 1884 and one z = 1893, covering the Burlington - Winfield end. Feb 1952 Table 43, times legible. THE 1952 END IS THE LAST CONFIRMED YEAR, NOT A KNOWN END. No source consulted dates when passenger service actually stopped here; the Burlington's branch trains were swept away somewhere between about 1952 and 1968 and not one of those discontinuances has been dated. The end year is a withheld unknown, not an abandonment -- DO NOT extend this line to a rounder year without evidence. Equally, 1884 is the earliest year positively CONFIRMED, not the year the line opened: the branch is older than the map shows, and the confirmed start is deliberately late rather than guessed early. The Winfield - Washington stub at the far end (Fowler's route 4) carries NO timetable letters at all, so its own early years are unconfirmed even though the branch as a whole is dated from 1884. Headway is an estimate and is NOT sourced.", "sources": ["Segment-level: start year 1884 from branchline.uk (John Fowler, Passenger Stations & Stops) -- branchline.uk iowarrs route 3 (Burlington - Oskaloosa): three stations lettered q = 1884 and one z = 1893, covering the Burlington - Winfield end. End year 1952 from Table 43 of the Feb 1952 Official Guide -- Feb 1952 Table 43, times legible. The end is a FLOOR on service, not the year it stopped. Headway and avg_speed_kmh are estimates and are NOT sourced.", "Feb 1952 Official Guide of the Railways (schedules effective 30 September 1951 / 27 January 1952), Burlington Lines section; full OCR cached at research/sources/official_guide_1952.txt", "https://www.branchline.uk/jfpdf/iowarrs.pdf", "research/branches/chicago_burlington_and_quincy_railroad.txt (research pass 2026-08-30)"]}]}, "geometry": {"type": "LineString", "coordinates": [[-91.099383, 40.817424], [-91.100114, 40.819326], [-91.103676, 40.82488], [-91.10451, 40.827486], [-91.104748, 40.853514], [-91.105286, 40.855963], [-91.107208, 40.858573], [-91.11446, 40.86254], [-91.116264, 40.864509], [-91.117313, 40.86698], [-91.118004, 40.871616], [-91.11986, 40.87396], [-91.123486, 40.877453], [-91.124887, 40.879434], [-91.125725, 40.881924], [-91.125273, 40.889845], [-91.124766, 40.891191], [-91.12232, 40.893316], [-91.11964, 40.894526], [-91.117337, 40.896007], [-91.115068, 40.89893], [-91.114443, 40.90047], [-91.114847, 40.910125], [-91.115258, 40.911766], [-91.119133, 40.919694], [-91.122225, 40.924101], [-91.158158, 40.961163], [-91.160972, 40.964747], [-91.161996, 40.966601], [-91.16428, 40.972459], [-91.165269, 40.976806], [-91.165174, 41.009045], [-91.166318, 41.011506], [-91.169496, 41.014344], [-91.1705, 41.014881], [-91.171562, 41.015041], [-91.1781, 41.015362], [-91.195255, 41.015575], [-91.19779, 41.016293], [-91.209798, 41.021726], [-91.212615, 41.022324], [-91.222334, 41.022058], [-91.228373, 41.022842], [-91.312516, 41.023891], [-91.31514, 41.024728], [-91.391817, 41.055537], [-91.394758, 41.057688], [-91.395797, 41.059042], [-91.419513, 41.095847], [-91.420534, 41.099071], [-91.420552, 41.10061], [-91.419777, 41.104007], [-91.419971, 41.106434], [-91.42108, 41.108292], [-91.422154, 41.111409], [-91.427154, 41.118307], [-91.427788, 41.122949], [-91.428751, 41.124806], [-91.458513, 41.161207], [-91.459094, 41.162997], [-91.459393, 41.16749], [-91.460344, 41.169584], [-91.483074, 41.200167], [-91.490909, 41.204817], [-91.519362, 41.213678], [-91.542339, 41.218923], [-91.54498, 41.219823], [-91.548607, 41.221797], [-91.55602, 41.227451], [-91.561073, 41.230351], [-91.680042, 41.286312], [-91.682493, 41.287934], [-91.685622, 41.291534], [-91.686046, 41.292465], [-91.686091, 41.295479]]}}, {"type": "Feature", "properties": {"company": "Chicago, Burlington and Quincy Railroad", "line": "Chicago, Burlington and Quincy: Keokuk – Centerville", "id": "cbq-keokuk-centerville", "color": "#8E1B3C", "mode": "intercity_rail", "avg_speed_kmh": 40, "speed_source": "estimated, NOT sourced: a secondary branch of this era, taken from the kind of service the Feb 1952 Guide shows (Table 38) rather than from any timetable's running times", "geometry_source": "OpenStreetMap via Overpass, 2026-08-30", "geometry_quality": "Real trace from OpenStreetMap: a Dijkstra shortest path over every railway way (rail, abandoned, disused, razed, dismantled) in a corridor around the route, with ways tagged old_railway_operator=CB&Q costed at 1x and all other track at 3x, so the path stays on the Burlington's own alignment wherever OSM records it. Snapped to the report's own station list; every one of the 6 waypoints lies within 1.4 km of the drawn line. OSM lines followed: [abandoned] 81 mi; BNSF Hannibal Subdivision 5 mi; Iowa Southern Railway 3 mi; [rail] 0 mi; Keokuk Junction Railway 0 mi; [dismantled] 0 mi. TRACED LENGTH 89.3 mi against a DOCUMENTED 95 mi (-6%). No straight-line approximation: the whole route is on mapped track. ERA NOTE: much of the surviving alignment is today's BNSF, which is the CB&Q's own successor on this route, so the modern centreline is the historical one; where the line is abandoned the trace follows the recorded grade. Simplified to a 20 m Douglas-Peucker tolerance.", "segments": [{"start": 1875, "end": 1952, "headway_min": 720, "note": "branchline.uk iowarrs route 19 (Viele - Sedan): ELEVEN stations lettered y = the 1875 Official Guide. Feb 1952 Table 38 shows scheduled times Keokuk - Centerville. THE 1952 END IS THE LAST CONFIRMED YEAR, NOT A KNOWN END. No source consulted dates when passenger service actually stopped here; the Burlington's branch trains were swept away somewhere between about 1952 and 1968 and not one of those discontinuances has been dated. The end year is a withheld unknown, not an abandonment -- DO NOT extend this line to a rounder year without evidence. Equally, 1875 is the earliest year positively CONFIRMED, not the year the line opened: the branch is older than the map shows, and the confirmed start is deliberately late rather than guessed early. Headway is an estimate and is NOT sourced.", "sources": ["Segment-level: start year 1875 from branchline.uk (John Fowler, Passenger Stations & Stops) -- branchline.uk iowarrs route 19 (Viele - Sedan): ELEVEN stations lettered y = the 1875 Official Guide. End year 1952 from Table 38 of the Feb 1952 Official Guide -- Feb 1952 Table 38 shows scheduled times Keokuk - Centerville. The end is a FLOOR on service, not the year it stopped. Headway and avg_speed_kmh are estimates and are NOT sourced.", "Feb 1952 Official Guide of the Railways (schedules effective 30 September 1951 / 27 January 1952), Burlington Lines section; full OCR cached at research/sources/official_guide_1952.txt", "https://www.branchline.uk/jfpdf/iowarrs.pdf", "research/branches/chicago_burlington_and_quincy_railroad.txt (research pass 2026-08-30)"]}]}, "geometry": {"type": "LineString", "coordinates": [[-91.385588, 40.389301], [-91.38628, 40.389095], [-91.385099, 40.389349], [-91.392804, 40.387678], [-91.417252, 40.385264], [-91.421272, 40.385201], [-91.430935, 40.386316], [-91.432507, 40.386088], [-91.436712, 40.384104], [-91.438525, 40.382799], [-91.447706, 40.372783], [-91.451077, 40.370044], [-91.458946, 40.362456], [-91.459788, 40.361013], [-91.459965, 40.35798], [-91.460535, 40.357281], [-91.46142, 40.356955], [-91.46711, 40.357153], [-91.49078, 40.364861], [-91.521805, 40.372439], [-91.591429, 40.397025], [-91.599174, 40.398142], [-91.601008, 40.398109], [-91.60405, 40.397682], [-91.612724, 40.394429], [-91.618592, 40.394347], [-91.622195, 40.395037], [-91.629272, 40.397288], [-91.635874, 40.400015], [-91.642886, 40.404961], [-91.652487, 40.407721], [-91.654537, 40.409035], [-91.657946, 40.41214], [-91.663534, 40.414029], [-91.67061, 40.418875], [-91.674019, 40.419516], [-91.699457, 40.420435], [-91.73333, 40.424936], [-91.771469, 40.437222], [-91.806174, 40.446066], [-91.868104, 40.447504], [-91.871189, 40.448342], [-91.873476, 40.449507], [-91.877014, 40.453973], [-91.878999, 40.455139], [-91.880466, 40.455434], [-91.886335, 40.455385], [-91.891599, 40.4533], [-91.894231, 40.453316], [-91.904674, 40.456731], [-91.91065, 40.458307], [-91.915008, 40.459111], [-91.925408, 40.460014], [-91.939324, 40.459866], [-91.953456, 40.463544], [-91.957016, 40.463938], [-91.965387, 40.464118], [-91.969875, 40.464529], [-91.972831, 40.46553], [-91.979411, 40.468484], [-91.984093, 40.469617], [-91.9872, 40.469453], [-92.00597, 40.466679], [-92.022778, 40.461639], [-92.032228, 40.459817], [-92.03596, 40.459555], [-92.044931, 40.459589], [-92.069951, 40.4614], [-92.074771, 40.460924], [-92.079287, 40.459566], [-92.09498, 40.452281], [-92.098522, 40.451387], [-92.102961, 40.45158], [-92.105848, 40.452671], [-92.107923, 40.454133], [-92.110822, 40.457581], [-92.114232, 40.45955], [-92.117856, 40.460587], [-92.124979, 40.461655], [-92.132679, 40.461259], [-92.135201, 40.460599], [-92.141314, 40.458057], [-92.148162, 40.456833], [-92.151257, 40.455743], [-92.152898, 40.455542], [-92.160533, 40.455707], [-92.16793, 40.452868], [-92.171119, 40.452735], [-92.173946, 40.453668], [-92.180603, 40.457999], [-92.185818, 40.459795], [-92.201849, 40.463802], [-92.244065, 40.471317], [-92.296416, 40.476619], [-92.321812, 40.483335], [-92.325456, 40.48404], [-92.329162, 40.484239], [-92.337988, 40.483563], [-92.344723, 40.484936], [-92.353913, 40.483408], [-92.362818, 40.483931], [-92.365248, 40.484714], [-92.367339, 40.485898], [-92.378274, 40.49523], [-92.37976, 40.495992], [-92.382583, 40.496719], [-92.39087, 40.49715], [-92.393012, 40.497592], [-92.399836, 40.501344], [-92.403781, 40.502636], [-92.420763, 40.50413], [-92.428297, 40.506075], [-92.44606, 40.513702], [-92.450387, 40.514599], [-92.455521, 40.516528], [-92.457783, 40.516603], [-92.471238, 40.515512], [-92.475192, 40.516379], [-92.478418, 40.516633], [-92.489728, 40.515497], [-92.492738, 40.51599], [-92.495787, 40.517291], [-92.499347, 40.518188], [-92.505977, 40.518502], [-92.516957, 40.519874], [-92.52457, 40.520368], [-92.529999, 40.521504], [-92.533284, 40.52282], [-92.537277, 40.525093], [-92.545618, 40.533331], [-92.548194, 40.535319], [-92.553506, 40.537352], [-92.559603, 40.538159], [-92.572735, 40.537156], [-92.576255, 40.536015], [-92.582542, 40.532325], [-92.584892, 40.532198], [-92.586297, 40.532875], [-92.588036, 40.535085], [-92.589594, 40.536184], [-92.591916, 40.536924], [-92.601467, 40.538085], [-92.603665, 40.538661], [-92.615977, 40.546137], [-92.629481, 40.550001], [-92.633455, 40.551854], [-92.636759, 40.554276], [-92.638609, 40.556256], [-92.647028, 40.568472], [-92.661409, 40.598618], [-92.663162, 40.600878], [-92.665193, 40.602494], [-92.671452, 40.606211], [-92.67906, 40.606675], [-92.689631, 40.608471], [-92.69265, 40.609674], [-92.694027, 40.610931], [-92.699199, 40.617796], [-92.70077, 40.619369], [-92.748591, 40.650549], [-92.774309, 40.660616], [-92.776492, 40.661843], [-92.793477, 40.678512], [-92.800364, 40.685985], [-92.803257, 40.688432], [-92.820681, 40.695529], [-92.863548, 40.721892], [-92.866827, 40.722999]]}}, {"type": "Feature", "properties": {"company": "Chicago, Burlington and Quincy Railroad", "line": "Chicago, Burlington and Quincy: Centerville – Humeston", "id": "cbq-centerville-humeston", "color": "#8E1B3C", "mode": "intercity_rail", "avg_speed_kmh": 32, "speed_source": "estimated, NOT sourced: a mixed-train branch of this era, taken from the kind of service the Feb 1952 Guide shows (Table 38) rather than from any timetable's running times", "geometry_source": "OpenStreetMap via Overpass, 2026-08-30", "geometry_quality": "Real trace from OpenStreetMap: a Dijkstra shortest path over every railway way (rail, abandoned, disused, razed, dismantled) in a corridor around the route, with ways tagged old_railway_operator=CB&Q costed at 1x and all other track at 3x, so the path stays on the Burlington's own alignment wherever OSM records it. Snapped to the report's own station list; every one of the 4 waypoints lies within 1.1 km of the drawn line. OSM lines followed: [abandoned] 40 mi. TRACED LENGTH 39.6 mi against a DOCUMENTED 40 mi (-1%). No straight-line approximation: the whole route is on mapped track. ERA NOTE: much of the surviving alignment is today's BNSF, which is the CB&Q's own successor on this route, so the modern centreline is the historical one; where the line is abandoned the trace follows the recorded grade. Simplified to a 20 m Douglas-Peucker tolerance.", "segments": [{"start": 1893, "end": 1952, "headway_min": 1440, "note": "branchline.uk iowarrs route 20 (Sedan - Shenandoah): four stations lettered z = the 1893 Official Guide. Feb 1952 Table 38 adds \"Additional service -- Mixed train provides service between Centerville and Humeston. Consult agent.\". THE 1952 END IS THE LAST CONFIRMED YEAR, NOT A KNOWN END. No source consulted dates when passenger service actually stopped here; the Burlington's branch trains were swept away somewhere between about 1952 and 1968 and not one of those discontinuances has been dated. The end year is a withheld unknown, not an abandonment -- DO NOT extend this line to a rounder year without evidence. Equally, 1893 is the earliest year positively CONFIRMED, not the year the line opened: the branch is older than the map shows, and the confirmed start is deliberately late rather than guessed early. Drawn as its own feature rather than as part of the Keokuk line because its confirmed start year is eighteen years later. Headway is an estimate and is NOT sourced.", "sources": ["Segment-level: start year 1893 from branchline.uk (John Fowler, Passenger Stations & Stops) -- branchline.uk iowarrs route 20 (Sedan - Shenandoah): four stations lettered z = the 1893 Official Guide. End year 1952 from Table 38 of the Feb 1952 Official Guide -- Feb 1952 Table 38 adds \"Additional service -- Mixed train provides service between Centerville and Humeston. Consult agent.\". The end is a FLOOR on service, not the year it stopped. Headway and avg_speed_kmh are estimates and are NOT sourced.", "Feb 1952 Official Guide of the Railways (schedules effective 30 September 1951 / 27 January 1952), Burlington Lines section; full OCR cached at research/sources/official_guide_1952.txt", "https://www.branchline.uk/jfpdf/iowarrs.pdf", "research/branches/chicago_burlington_and_quincy_railroad.txt (research pass 2026-08-30)"]}]}, "geometry": {"type": "LineString", "coordinates": [[-92.887337, 40.732044], [-92.895381, 40.737037], [-92.898693, 40.737343], [-92.903629, 40.738899], [-92.906347, 40.739334], [-92.9118, 40.738785], [-92.930659, 40.738569], [-92.933962, 40.737886], [-92.939053, 40.736066], [-92.940824, 40.735884], [-92.942854, 40.736388], [-92.94623, 40.738632], [-92.94871, 40.741935], [-92.949772, 40.742804], [-92.955237, 40.745821], [-92.955747, 40.746515], [-92.956108, 40.748278], [-92.955685, 40.751195], [-92.955951, 40.752807], [-92.960901, 40.76012], [-92.962885, 40.761405], [-92.966894, 40.762598], [-92.969409, 40.76376], [-92.97123, 40.765294], [-92.973643, 40.768593], [-92.974829, 40.769569], [-92.976793, 40.77039], [-92.977918, 40.770514], [-92.979309, 40.770421], [-92.987081, 40.768299], [-93.002012, 40.761886], [-93.003668, 40.761545], [-93.013179, 40.761003], [-93.016267, 40.760058], [-93.022772, 40.757176], [-93.025962, 40.756153], [-93.02948, 40.755983], [-93.052837, 40.757005], [-93.056662, 40.756835], [-93.061384, 40.755462], [-93.074743, 40.749984], [-93.077136, 40.749349], [-93.097773, 40.748202], [-93.104747, 40.746544], [-93.112847, 40.746451], [-93.115751, 40.746947], [-93.127082, 40.752231], [-93.130498, 40.75251], [-93.1387, 40.75065], [-93.154694, 40.746234], [-93.184985, 40.74501], [-93.188135, 40.745537], [-93.18971, 40.746296], [-93.197952, 40.752897], [-93.199466, 40.753703], [-93.206542, 40.755144], [-93.208138, 40.755082], [-93.211226, 40.753966], [-93.216483, 40.749426], [-93.217833, 40.748559], [-93.219121, 40.748171], [-93.222762, 40.74828], [-93.224357, 40.748787], [-93.228407, 40.751176], [-93.235022, 40.756127], [-93.236331, 40.756716], [-93.238949, 40.757103], [-93.240565, 40.756933], [-93.246128, 40.755461], [-93.252858, 40.754656], [-93.256478, 40.752564], [-93.258196, 40.751898], [-93.259648, 40.751712], [-93.266991, 40.752239], [-93.268381, 40.752579], [-93.271327, 40.754175], [-93.274599, 40.756453], [-93.289653, 40.769868], [-93.291596, 40.771015], [-93.294684, 40.771898], [-93.309536, 40.771662], [-93.315842, 40.771125], [-93.317071, 40.770566], [-93.318995, 40.769077], [-93.322422, 40.764257], [-93.324563, 40.763326], [-93.325763, 40.763194], [-93.331251, 40.763857], [-93.349143, 40.76433], [-93.353116, 40.764876], [-93.360004, 40.766732], [-93.362775, 40.768309], [-93.370976, 40.780306], [-93.373731, 40.790045], [-93.376503, 40.796193], [-93.376551, 40.797879], [-93.375365, 40.800947], [-93.375285, 40.80325], [-93.376903, 40.808513], [-93.376406, 40.810161], [-93.374965, 40.812077], [-93.375125, 40.814465], [-93.376006, 40.815968], [-93.377656, 40.817593], [-93.38512, 40.822163], [-93.386818, 40.824199], [-93.389814, 40.829157], [-93.393145, 40.832272], [-93.396221, 40.836938], [-93.398287, 40.838792], [-93.399617, 40.839422], [-93.402965, 40.840258], [-93.438813, 40.84496], [-93.442257, 40.845663], [-93.481355, 40.86257], [-93.496202, 40.862883]]}}, {"type": "Feature", "properties": {"company": "Chicago, Burlington and Quincy Railroad", "line": "Chicago, Burlington and Quincy: Fort Madison – Bloomfield", "id": "cbq-fort-madison-bloomfield", "color": "#8E1B3C", "mode": "intercity_rail", "avg_speed_kmh": 40, "speed_source": "estimated, NOT sourced: a secondary branch of this era, taken from the kind of service the Feb 1952 Guide shows (Table 36) rather than from any timetable's running times", "geometry_source": "OpenStreetMap via Overpass, 2026-08-30", "geometry_quality": "Real trace from OpenStreetMap: a Dijkstra shortest path over every railway way (rail, abandoned, disused, razed, dismantled) in a corridor around the route, with ways tagged old_railway_operator=CB&Q costed at 1x and all other track at 3x, so the path stays on the Burlington's own alignment wherever OSM records it. Snapped to the report's own station list; every one of the 7 waypoints lies within 0.8 km of the drawn line. OSM lines followed: [abandoned] 59 mi; CB&Q (abnd) 5 mi. TRACED LENGTH 64.5 mi against a DOCUMENTED 65 mi (-1%). APPROXIMATED: 14.0 mi of the total is straight-line, drawn across 1 place(s) where the grade is lifted and OSM has no way at all -- Fort Madison-Donnellson 14.0 mi. Those legs are ruled lines, not survey. ERA NOTE: much of the surviving alignment is today's BNSF, which is the CB&Q's own successor on this route, so the modern centreline is the historical one; where the line is abandoned the trace follows the recorded grade. Simplified to a 20 m Douglas-Peucker tolerance.", "segments": [{"start": 1875, "end": 1952, "headway_min": 720, "note": "branchline.uk iowarrs route 19 (Viele - Sedan): eleven stations lettered y = the 1875 Official Guide. Feb 1952 Table 36, times legible. THE 1952 END IS THE LAST CONFIRMED YEAR, NOT A KNOWN END. No source consulted dates when passenger service actually stopped here; the Burlington's branch trains were swept away somewhere between about 1952 and 1968 and not one of those discontinuances has been dated. The end year is a withheld unknown, not an abandonment -- DO NOT extend this line to a rounder year without evidence. Equally, 1875 is the earliest year positively CONFIRMED, not the year the line opened: the branch is older than the map shows, and the confirmed start is deliberately late rather than guessed early. Headway is an estimate and is NOT sourced.", "sources": ["Segment-level: start year 1875 from branchline.uk (John Fowler, Passenger Stations & Stops) -- branchline.uk iowarrs route 19 (Viele - Sedan): eleven stations lettered y = the 1875 Official Guide. End year 1952 from Table 36 of the Feb 1952 Official Guide -- Feb 1952 Table 36, times legible. The end is a FLOOR on service, not the year it stopped. Headway and avg_speed_kmh are estimates and are NOT sourced.", "Feb 1952 Official Guide of the Railways (schedules effective 30 September 1951 / 27 January 1952), Burlington Lines section; full OCR cached at research/sources/official_guide_1952.txt", "https://www.branchline.uk/jfpdf/iowarrs.pdf", "research/branches/chicago_burlington_and_quincy_railroad.txt (research pass 2026-08-30)"]}]}, "geometry": {"type": "LineString", "coordinates": [[-91.308289, 40.629792], [-91.574326, 40.643294], [-91.576857, 40.642978], [-91.581487, 40.641405], [-91.586508, 40.640884], [-91.599537, 40.642201], [-91.603387, 40.643601], [-91.604922, 40.643774], [-91.606954, 40.643672], [-91.610117, 40.642814], [-91.612486, 40.642559], [-91.633309, 40.642641], [-91.639071, 40.641403], [-91.64078, 40.640404], [-91.644293, 40.637472], [-91.64681, 40.636788], [-91.64817, 40.636747], [-91.659773, 40.639434], [-91.664955, 40.641824], [-91.670137, 40.644908], [-91.672331, 40.645592], [-91.675965, 40.645531], [-91.678294, 40.644581], [-91.680448, 40.643059], [-91.681726, 40.64262], [-91.68388, 40.642498], [-91.686182, 40.643233], [-91.688685, 40.644765], [-91.694803, 40.645807], [-91.697564, 40.646674], [-91.70139, 40.646818], [-91.704093, 40.646558], [-91.705977, 40.645764], [-91.706891, 40.644969], [-91.708719, 40.642037], [-91.712107, 40.639495], [-91.713611, 40.63597], [-91.71441, 40.634988], [-91.719436, 40.630871], [-91.720483, 40.630336], [-91.722919, 40.629816], [-91.725565, 40.630336], [-91.732326, 40.632851], [-91.733454, 40.6336], [-91.73521, 40.635692], [-91.73899, 40.642182], [-91.740119, 40.643032], [-91.74136, 40.643369], [-91.742834, 40.643289], [-91.748461, 40.641537], [-91.751171, 40.640174], [-91.756339, 40.635607], [-91.758147, 40.634954], [-91.75955, 40.635123], [-91.762687, 40.636156], [-91.767695, 40.636366], [-91.772438, 40.637383], [-91.774171, 40.638044], [-91.776096, 40.639303], [-91.77751, 40.639658], [-91.79094, 40.638141], [-91.794811, 40.636721], [-91.796863, 40.636495], [-91.802211, 40.637883], [-91.804795, 40.639021], [-91.809336, 40.639222], [-91.81309, 40.641707], [-91.815227, 40.642054], [-91.819959, 40.640077], [-91.823213, 40.640271], [-91.830146, 40.639956], [-91.832836, 40.639335], [-91.837547, 40.635841], [-91.843512, 40.633154], [-91.852221, 40.628675], [-91.856644, 40.625084], [-91.859887, 40.620637], [-91.862142, 40.619362], [-91.864088, 40.618966], [-91.869542, 40.61966], [-91.872095, 40.619692], [-91.877815, 40.618966], [-91.885291, 40.617029], [-91.888917, 40.616827], [-91.894999, 40.61807], [-91.902613, 40.618587], [-91.908206, 40.617715], [-91.910141, 40.61778], [-91.917893, 40.619475], [-91.924603, 40.61916], [-91.929164, 40.617578], [-91.931174, 40.617239], [-91.941903, 40.617554], [-91.951039, 40.616628], [-91.97684, 40.620727], [-91.979998, 40.619991], [-91.986629, 40.617172], [-91.991036, 40.616783], [-91.996825, 40.615745], [-92.003141, 40.615893], [-92.005592, 40.616544], [-92.013081, 40.62006], [-92.014901, 40.621189], [-92.017217, 40.623449], [-92.018841, 40.624226], [-92.020781, 40.624488], [-92.025081, 40.624226], [-92.042676, 40.626451], [-92.057338, 40.631073], [-92.059518, 40.632511], [-92.060631, 40.633881], [-92.061097, 40.635604], [-92.061308, 40.639701], [-92.063218, 40.642074], [-92.064571, 40.64277], [-92.076827, 40.644904], [-92.088361, 40.645235], [-92.092166, 40.645691], [-92.108616, 40.65082], [-92.110743, 40.651747], [-92.135306, 40.666364], [-92.159019, 40.674171], [-92.1629, 40.674679], [-92.181275, 40.673663], [-92.190454, 40.675387], [-92.195161, 40.677361], [-92.231643, 40.694785], [-92.235462, 40.696141], [-92.238636, 40.696347], [-92.24038, 40.696107], [-92.255989, 40.693006], [-92.294517, 40.69613], [-92.306861, 40.693909], [-92.327708, 40.69417], [-92.330861, 40.694592], [-92.3325, 40.695412], [-92.347072, 40.705632], [-92.385374, 40.721441], [-92.387472, 40.722746], [-92.38884, 40.724133], [-92.389817, 40.725841], [-92.392812, 40.73868], [-92.393724, 40.740714], [-92.395256, 40.742095], [-92.398118, 40.743371], [-92.400127, 40.743839], [-92.401336, 40.743901], [-92.406577, 40.743179], [-92.415782, 40.746006]]}}, {"type": "Feature", "properties": {"company": "Chicago, Burlington and Quincy Railroad", "line": "Chicago, Burlington and Quincy: Centerville – Carrollton", "id": "cbq-centerville-carrollton", "color": "#8E1B3C", "mode": "intercity_rail", "avg_speed_kmh": 35, "speed_source": "estimated, NOT sourced: a secondary branch of this era, taken from the kind of service the Feb 1952 Guide shows (Table 36a) rather than from any timetable's running times", "geometry_source": "OpenStreetMap via Overpass, 2026-08-30", "geometry_quality": "Real trace from OpenStreetMap: a Dijkstra shortest path over every railway way (rail, abandoned, disused, razed, dismantled) in a corridor around the route, with ways tagged old_railway_operator=CB&Q costed at 1x and all other track at 3x, so the path stays on the Burlington's own alignment wherever OSM records it. Snapped to the report's own station list; every one of the 9 waypoints lies within 3.0 km of the drawn line. OSM lines followed: [abandoned] 79 mi; BNSF Brookfield Subdivision 20 mi; Iowa Southern Railway 3 mi; [rail] 0 mi. TRACED LENGTH 121.3 mi against a DOCUMENTED 100 mi (+21%). APPROXIMATED: 18.8 mi of the total is straight-line, drawn across 1 place(s) where the grade is lifted and OSM has no way at all -- Browning-Laclede 18.8 mi. Those legs are ruled lines, not survey. ERA NOTE: much of the surviving alignment is today's BNSF, which is the CB&Q's own successor on this route, so the modern centreline is the historical one; where the line is abandoned the trace follows the recorded grade. Simplified to a 20 m Douglas-Peucker tolerance.", "segments": [{"start": 1951, "end": 1952, "headway_min": 720, "note": "Feb 1952 Table 36a heads its columns \"84 80 / Mix Mix\" -- mixed trains carrying passengers. THIS TWO-YEAR SPAN IS A CONFIRMED-ONLY STUB, NOT THE LIFE OF THE BRANCH. The Feb 1952 Official Guide is a single snapshot, and it is the only evidence anyone has found for passenger service on this line. The branch is certainly far older and probably ran on past 1952; drawing 1951-1952 is a refusal to invent the other seventy years, not a claim they did not happen. BOTH ends are withheld unknowns. Headway is an estimate and is NOT sourced.", "sources": ["Segment-level for 1951 ONLY: Table 36a of the Feb 1952 Official Guide -- Feb 1952 Table 36a heads its columns \"84 80 / Mix Mix\" -- mixed trains carrying passengers. NOT SOURCED for any other year: no start year and no end year have been established for this branch. Headway and avg_speed_kmh are estimates and are NOT sourced.", "Feb 1952 Official Guide of the Railways (schedules effective 30 September 1951 / 27 January 1952), Burlington Lines section; full OCR cached at research/sources/official_guide_1952.txt", "research/branches/chicago_burlington_and_quincy_railroad.txt (research pass 2026-08-30)"]}]}, "geometry": {"type": "LineString", "coordinates": [[-92.866827, 40.722999], [-92.863548, 40.721892], [-92.820681, 40.695529], [-92.803257, 40.688432], [-92.800364, 40.685985], [-92.793477, 40.678512], [-92.777443, 40.662581], [-92.774309, 40.660616], [-92.761379, 40.655672], [-92.762573, 40.655789], [-92.763132, 40.655564], [-92.763132, 40.654322], [-92.764339, 40.65579], [-92.766195, 40.655971], [-92.774573, 40.653419], [-92.776959, 40.653197], [-92.7797, 40.653596], [-92.787017, 40.656282], [-92.790248, 40.656489], [-92.792354, 40.655952], [-92.802993, 40.650263], [-92.805299, 40.650098], [-92.811054, 40.65058], [-92.824942, 40.65047], [-92.827538, 40.650208], [-92.830625, 40.649148], [-92.833185, 40.648831], [-92.853445, 40.649065], [-92.855678, 40.648252], [-92.857603, 40.646586], [-92.860145, 40.641957], [-92.860562, 40.638141], [-92.861833, 40.63686], [-92.86432, 40.635895], [-92.866644, 40.63584], [-92.870275, 40.636254], [-92.885764, 40.633631], [-92.889163, 40.633491], [-92.89099, 40.633016], [-92.894257, 40.631128], [-92.896309, 40.630426], [-92.903408, 40.630164], [-92.909217, 40.628745], [-92.921145, 40.630178], [-92.926555, 40.630467], [-92.929006, 40.630085], [-92.930549, 40.629169], [-92.931847, 40.62744], [-92.932193, 40.625842], [-92.931064, 40.617844], [-92.929371, 40.614388], [-92.929164, 40.612488], [-92.932513, 40.605117], [-92.932795, 40.603232], [-92.932494, 40.602175], [-92.926172, 40.595831], [-92.920151, 40.592045], [-92.915785, 40.587358], [-92.910931, 40.584858], [-92.908203, 40.582714], [-92.907412, 40.581185], [-92.906626, 40.575686], [-92.907642, 40.572885], [-92.909298, 40.571699], [-92.910352, 40.57137], [-92.917558, 40.570298], [-92.92388, 40.565653], [-92.931181, 40.557934], [-92.932912, 40.557233], [-92.937065, 40.556869], [-92.939657, 40.555904], [-92.940673, 40.554916], [-92.946234, 40.545724], [-92.947814, 40.539504], [-92.94868, 40.537903], [-92.949861, 40.536715], [-92.952859, 40.535415], [-92.956924, 40.534656], [-92.962919, 40.534208], [-92.964725, 40.533376], [-92.966217, 40.532034], [-92.966724, 40.529392], [-92.966285, 40.525532], [-92.966094, 40.524388], [-92.964821, 40.521895], [-92.963781, 40.516671], [-92.963863, 40.51509], [-92.964876, 40.511833], [-92.963808, 40.507608], [-92.964123, 40.506172], [-92.965492, 40.504725], [-92.969448, 40.503237], [-92.971829, 40.503154], [-92.97573, 40.504028], [-92.976592, 40.503976], [-92.978741, 40.503154], [-92.979726, 40.502103], [-92.979945, 40.501374], [-92.981451, 40.491424], [-92.98282, 40.489259], [-92.988924, 40.485969], [-92.992168, 40.484939], [-92.993564, 40.483877], [-92.995371, 40.481628], [-92.998929, 40.479431], [-93.008661, 40.477079], [-93.010869, 40.475509], [-93.012321, 40.473345], [-93.013282, 40.467188], [-93.015801, 40.461919], [-93.015883, 40.460565], [-93.014185, 40.456858], [-93.013843, 40.453317], [-93.014076, 40.451577], [-93.018333, 40.44563], [-93.025176, 40.438047], [-93.026203, 40.432629], [-93.028105, 40.42692], [-93.029638, 40.424138], [-93.033033, 40.420543], [-93.049758, 40.405203], [-93.052112, 40.404046], [-93.053727, 40.403609], [-93.064526, 40.402004], [-93.066675, 40.401045], [-93.068263, 40.399544], [-93.069481, 40.39651], [-93.070932, 40.383573], [-93.074764, 40.377808], [-93.075928, 40.373022], [-93.077242, 40.371239], [-93.08362, 40.365096], [-93.09132, 40.350655], [-93.100649, 40.33627], [-93.100827, 40.333985], [-93.098241, 40.323478], [-93.09872, 40.321965], [-93.103182, 40.316465], [-93.104276, 40.314441], [-93.104961, 40.311664], [-93.105016, 40.302104], [-93.098405, 40.291497], [-93.097077, 40.290255], [-93.091452, 40.287875], [-93.084553, 40.282685], [-93.082569, 40.280785], [-93.081378, 40.279083], [-93.080817, 40.277663], [-93.080831, 40.276337], [-93.083664, 40.268922], [-93.084088, 40.264766], [-93.086141, 40.259773], [-93.095489, 40.247332], [-93.101211, 40.236634], [-93.102046, 40.230688], [-93.105768, 40.225955], [-93.110758, 40.214676], [-93.113768, 40.208743], [-93.116055, 40.199589], [-93.116061, 40.194225], [-93.122022, 40.173473], [-93.122289, 40.17202], [-93.12185, 40.167774], [-93.122508, 40.165564], [-93.123539, 40.163762], [-93.124268, 40.144487], [-93.125669, 40.136145], [-93.125218, 40.133957], [-93.122697, 40.128763], [-93.122193, 40.126921], [-93.122386, 40.125019], [-93.1236, 40.122732], [-93.131946, 40.112158], [-93.13257, 40.108033], [-93.133828, 40.105974], [-93.134844, 40.104733], [-93.138962, 40.101492], [-93.140842, 40.099274], [-93.141442, 40.097055], [-93.141241, 40.092227], [-93.14178, 40.090808], [-93.14378, 40.08827], [-93.144288, 40.08708], [-93.142781, 40.079092], [-93.143051, 40.077925], [-93.144603, 40.075913], [-93.148131, 40.072862], [-93.149031, 40.071674], [-93.149776, 40.069475], [-93.149514, 40.067581], [-93.145412, 40.061488], [-93.145176, 40.060493], [-93.145659, 40.058597], [-93.166558, 39.786488], [-93.167026, 39.784441], [-93.178091, 39.764784], [-93.18529, 39.748822], [-93.186825, 39.710076], [-93.187613, 39.708769], [-93.2135, 39.685061], [-93.224513, 39.677743], [-93.238108, 39.663603], [-93.249541, 39.654661], [-93.276097, 39.638675], [-93.296205, 39.624676], [-93.330065, 39.611897], [-93.333119, 39.609966], [-93.3412, 39.603037], [-93.345272, 39.600789], [-93.367478, 39.591795], [-93.379262, 39.585968], [-93.392582, 39.582636], [-93.397773, 39.580159], [-93.401363, 39.577038], [-93.416857, 39.559852], [-93.434664, 39.537289], [-93.437826, 39.534451], [-93.446016, 39.528921], [-93.45188, 39.525819], [-93.456094, 39.524408], [-93.474515, 39.519692], [-93.492399, 39.510406], [-93.496664, 39.507019], [-93.509119, 39.487817], [-93.510666, 39.484599], [-93.510666, 39.48132], [-93.509015, 39.475046], [-93.509067, 39.473548], [-93.510194, 39.47037], [-93.52147, 39.45794], [-93.522231, 39.455976], [-93.521783, 39.438102], [-93.517587, 39.421433], [-93.51153, 39.375152], [-93.510901, 39.373084], [-93.503466, 39.357569]]}}, {"type": "Feature", "properties": {"company": "Chicago, Burlington and Quincy Railroad", "line": "Chicago, Burlington and Quincy: Milan – Green City", "id": "cbq-milan-green-city", "color": "#8E1B3C", "mode": "intercity_rail", "avg_speed_kmh": 30, "speed_source": "estimated, NOT sourced: a mixed-train branch of this era, taken from the kind of service the Feb 1952 Guide shows (Table 33) rather than from any timetable's running times", "geometry_source": "OpenStreetMap via Overpass, 2026-08-30", "geometry_quality": "Real trace from OpenStreetMap: a Dijkstra shortest path over every railway way (rail, abandoned, disused, razed, dismantled) in a corridor around the route, with ways tagged old_railway_operator=CB&Q costed at 1x and all other track at 3x, so the path stays on the Burlington's own alignment wherever OSM records it. Snapped to the report's own station list; every one of the 2 waypoints lies within 1.1 km of the drawn line. OSM lines followed: Quincy, Omaha and Kansas City Railroad 11 mi. TRACED LENGTH 11.0 mi against a DOCUMENTED 10 mi (+10%). No straight-line approximation: the whole route is on mapped track. ERA NOTE: much of the surviving alignment is today's BNSF, which is the CB&Q's own successor on this route, so the modern centreline is the historical one; where the line is abandoned the trace follows the recorded grade. Simplified to a 20 m Douglas-Peucker tolerance.", "segments": [{"start": 1951, "end": 1952, "headway_min": 1440, "note": "Feb 1952 Table 33 carries \"NOTE A -- Mixed train provides service. Consult agent.\". THIS TWO-YEAR SPAN IS A CONFIRMED-ONLY STUB, NOT THE LIFE OF THE BRANCH. The Feb 1952 Official Guide is a single snapshot, and it is the only evidence anyone has found for passenger service on this line. The branch is certainly far older and probably ran on past 1952; drawing 1951-1952 is a refusal to invent the other seventy years, not a claim they did not happen. BOTH ends are withheld unknowns. Headway is an estimate and is NOT sourced.", "sources": ["Segment-level for 1951 ONLY: Table 33 of the Feb 1952 Official Guide -- Feb 1952 Table 33 carries \"NOTE A -- Mixed train provides service. Consult agent.\". NOT SOURCED for any other year: no start year and no end year have been established for this branch. Headway and avg_speed_kmh are estimates and are NOT sourced.", "Feb 1952 Official Guide of the Railways (schedules effective 30 September 1951 / 27 January 1952), Burlington Lines section; full OCR cached at research/sources/official_guide_1952.txt", "research/branches/chicago_burlington_and_quincy_railroad.txt (research pass 2026-08-30)"]}]}, "geometry": {"type": "LineString", "coordinates": [[-93.113913, 40.207233], [-93.112249, 40.209058], [-93.110101, 40.209884], [-93.097269, 40.209502], [-93.093446, 40.209905], [-93.086802, 40.212208], [-93.079891, 40.215917], [-93.074404, 40.219714], [-93.071687, 40.220314], [-93.069682, 40.219911], [-93.064936, 40.217155], [-93.063096, 40.216555], [-93.060623, 40.216331], [-93.055489, 40.217002], [-93.04548, 40.215526], [-93.032623, 40.211391], [-93.029611, 40.211266], [-93.024197, 40.212268], [-93.017845, 40.216085], [-93.011857, 40.224151], [-93.01001, 40.22546], [-93.001053, 40.228371], [-92.989608, 40.230113], [-92.985913, 40.232408], [-92.978959, 40.234473], [-92.977848, 40.235625], [-92.973647, 40.242878], [-92.97087, 40.244693], [-92.968335, 40.247614], [-92.965522, 40.249909], [-92.964568, 40.253014], [-92.964417, 40.257462], [-92.963439, 40.259544], [-92.960409, 40.262096], [-92.951583, 40.267338]]}}, {"type": "Feature", "properties": {"company": "Chicago, Burlington and Quincy Railroad", "line": "Chicago, Burlington and Quincy: Quincy – Kirksville", "id": "cbq-quincy-kirksville", "color": "#8E1B3C", "mode": "intercity_rail", "avg_speed_kmh": 45, "speed_source": "estimated, NOT sourced: a secondary branch of this era, taken from the kind of service the Feb 1952 Guide shows (Table 32) rather than from any timetable's running times", "geometry_source": "OpenStreetMap via Overpass, 2026-08-30", "geometry_quality": "Real trace from OpenStreetMap: a Dijkstra shortest path over every railway way (rail, abandoned, disused, razed, dismantled) in a corridor around the route, with ways tagged old_railway_operator=CB&Q costed at 1x and all other track at 3x, so the path stays on the Burlington's own alignment wherever OSM records it. Snapped to the report's own station list; every one of the 10 waypoints lies within 0.9 km of the drawn line. OSM lines followed: Quincy, Omaha and Kansas City Railroad 67 mi; BNSF Brookfield Subdivision 1 mi; [rail] 1 mi; BNSF Hannibal Subdivision 0 mi. TRACED LENGTH 69.9 mi against a DOCUMENTED 75 mi (-7%). No straight-line approximation: the whole route is on mapped track. ERA NOTE: much of the surviving alignment is today's BNSF, which is the CB&Q's own successor on this route, so the modern centreline is the historical one; where the line is abandoned the trace follows the recorded grade. Simplified to a 20 m Douglas-Peucker tolerance.", "segments": [{"start": 1951, "end": 1952, "headway_min": 720, "note": "Feb 1952 Table 32, times legible. THIS TWO-YEAR SPAN IS A CONFIRMED-ONLY STUB, NOT THE LIFE OF THE BRANCH. The Feb 1952 Official Guide is a single snapshot, and it is the only evidence anyone has found for passenger service on this line. The branch is certainly far older and probably ran on past 1952; drawing 1951-1952 is a refusal to invent the other seventy years, not a claim they did not happen. BOTH ends are withheld unknowns. Headway is an estimate and is NOT sourced.", "sources": ["Segment-level for 1951 ONLY: Table 32 of the Feb 1952 Official Guide -- Feb 1952 Table 32, times legible. NOT SOURCED for any other year: no start year and no end year have been established for this branch. Headway and avg_speed_kmh are estimates and are NOT sourced.", "Feb 1952 Official Guide of the Railways (schedules effective 30 September 1951 / 27 January 1952), Burlington Lines section; full OCR cached at research/sources/official_guide_1952.txt", "research/branches/chicago_burlington_and_quincy_railroad.txt (research pass 2026-08-30)"]}]}, "geometry": {"type": "LineString", "coordinates": [[-91.41524, 39.935468], [-91.415293, 39.948223], [-91.415954, 39.949339], [-91.416103, 39.951271], [-91.417434, 39.952039], [-91.418907, 39.951676], [-91.423813, 39.948187], [-91.426572, 39.94577], [-91.435134, 39.937731], [-91.436377, 39.934565], [-91.437991, 39.934274], [-91.44087, 39.934905], [-91.442491, 39.935601], [-91.440788, 39.934769], [-91.441362, 39.93371], [-91.487069, 39.936897], [-91.524532, 39.938221], [-91.534485, 39.937789], [-91.536818, 39.93793], [-91.5592, 39.941737], [-91.575204, 39.94324], [-91.600016, 39.953507], [-91.624873, 39.956019], [-91.630663, 39.957946], [-91.635908, 39.958485], [-91.638248, 39.959101], [-91.67818, 39.982104], [-91.695043, 39.995186], [-91.72039, 40.008679], [-91.722326, 40.011174], [-91.730389, 40.028242], [-91.731897, 40.029925], [-91.767925, 40.057221], [-91.808292, 40.082855], [-91.822442, 40.087627], [-91.913263, 40.115771], [-91.931508, 40.123924], [-91.939794, 40.125903], [-91.959158, 40.125946], [-92.07862, 40.165285], [-92.081338, 40.165655], [-92.102163, 40.166045], [-92.103618, 40.165855], [-92.113566, 40.162079], [-92.115727, 40.161526], [-92.144567, 40.160066], [-92.159001, 40.156482], [-92.162337, 40.156168], [-92.166543, 40.157051], [-92.173984, 40.161316], [-92.176467, 40.162168], [-92.1861, 40.161961], [-92.194891, 40.161202], [-92.212797, 40.164961], [-92.216244, 40.165424], [-92.262228, 40.164741], [-92.26505, 40.164401], [-92.2674, 40.163646], [-92.304253, 40.151077], [-92.313875, 40.147522], [-92.318503, 40.146304], [-92.342726, 40.146138], [-92.364683, 40.148219], [-92.367254, 40.148252], [-92.384934, 40.144014], [-92.386715, 40.143871], [-92.388755, 40.144223], [-92.408446, 40.151216], [-92.421042, 40.159317], [-92.423024, 40.160163], [-92.514726, 40.176487], [-92.575174, 40.200839], [-92.576773, 40.201125]]}}, {"type": "Feature", "properties": {"company": "Chicago, Burlington and Quincy Railroad", "line": "Chicago, Burlington and Quincy: Bigelow – Clearmont", "id": "cbq-bigelow-clearmont", "color": "#8E1B3C", "mode": "intercity_rail", "avg_speed_kmh": 40, "speed_source": "estimated, NOT sourced: a secondary branch of this era, taken from the kind of service the Feb 1952 Guide shows (Table 15) rather than from any timetable's running times", "geometry_source": "OpenStreetMap via Overpass, 2026-08-30", "geometry_quality": "Real trace from OpenStreetMap: a Dijkstra shortest path over every railway way (rail, abandoned, disused, razed, dismantled) in a corridor around the route, with ways tagged old_railway_operator=CB&Q costed at 1x and all other track at 3x, so the path stays on the Burlington's own alignment wherever OSM records it. Snapped to the report's own station list; every one of the 7 waypoints lies within 0.4 km of the drawn line. OSM lines followed: [abandoned] 36 mi; BNSF Napier Subdivision 0 mi. TRACED LENGTH 36.8 mi against a DOCUMENTED 37 mi (-1%). No straight-line approximation: the whole route is on mapped track. ERA NOTE: much of the surviving alignment is today's BNSF, which is the CB&Q's own successor on this route, so the modern centreline is the historical one; where the line is abandoned the trace follows the recorded grade. Simplified to a 20 m Douglas-Peucker tolerance.", "segments": [{"start": 1951, "end": 1952, "headway_min": 720, "note": "Feb 1952 Table 15 shows trains 98 and 99 with legible times. THIS TWO-YEAR SPAN IS A CONFIRMED-ONLY STUB, NOT THE LIFE OF THE BRANCH. The Feb 1952 Official Guide is a single snapshot, and it is the only evidence anyone has found for passenger service on this line. The branch is certainly far older and probably ran on past 1952; drawing 1951-1952 is a refusal to invent the other seventy years, not a claim they did not happen. BOTH ends are withheld unknowns. Headway is an estimate and is NOT sourced.", "sources": ["Segment-level for 1951 ONLY: Table 15 of the Feb 1952 Official Guide -- Feb 1952 Table 15 shows trains 98 and 99 with legible times. NOT SOURCED for any other year: no start year and no end year have been established for this branch. Headway and avg_speed_kmh are estimates and are NOT sourced.", "Feb 1952 Official Guide of the Railways (schedules effective 30 September 1951 / 27 January 1952), Burlington Lines section; full OCR cached at research/sources/official_guide_1952.txt", "research/branches/chicago_burlington_and_quincy_railroad.txt (research pass 2026-08-30)"]}]}, "geometry": {"type": "LineString", "coordinates": [[-95.289337, 40.110736], [-95.286187, 40.1058], [-95.285993, 40.107324], [-95.285177, 40.107957], [-95.234047, 40.128498], [-95.231876, 40.128767], [-95.229918, 40.128661], [-95.223732, 40.126579], [-95.221272, 40.126397], [-95.214113, 40.128166], [-95.20477, 40.129256], [-95.202549, 40.129247], [-95.196613, 40.128335], [-95.193727, 40.128287], [-95.173774, 40.133075], [-95.167073, 40.138179], [-95.165579, 40.140261], [-95.164149, 40.143446], [-95.162454, 40.144721], [-95.16061, 40.145201], [-95.157849, 40.145364], [-95.154774, 40.146774], [-95.152679, 40.147379], [-95.149065, 40.147081], [-95.146266, 40.147743], [-95.145061, 40.148798], [-95.142439, 40.152271], [-95.14033, 40.154314], [-95.138649, 40.15533], [-95.135725, 40.155628], [-95.130191, 40.154016], [-95.127405, 40.154198], [-95.125824, 40.154927], [-95.123615, 40.157028], [-95.119461, 40.159617], [-95.117529, 40.160231], [-95.112785, 40.160557], [-95.110074, 40.161698], [-95.104766, 40.167222], [-95.103047, 40.168325], [-95.094125, 40.172621], [-95.09164, 40.174654], [-95.087787, 40.17964], [-95.079693, 40.194825], [-95.078187, 40.196196], [-95.073331, 40.199225], [-95.072139, 40.200461], [-95.071689, 40.201742], [-95.071737, 40.203174], [-95.073306, 40.206988], [-95.074837, 40.215326], [-95.072766, 40.22464], [-95.073532, 40.231854], [-95.074347, 40.234], [-95.073833, 40.237813], [-95.074623, 40.24107], [-95.077472, 40.243685], [-95.07815, 40.244901], [-95.079342, 40.250122], [-95.079759, 40.257872], [-95.080735, 40.262376], [-95.08071, 40.264952], [-95.079932, 40.269749], [-95.079932, 40.28098], [-95.080369, 40.288687], [-95.081526, 40.292859], [-95.080786, 40.295798], [-95.078778, 40.298717], [-95.077542, 40.306942], [-95.077818, 40.312195], [-95.079361, 40.31896], [-95.077943, 40.322845], [-95.077855, 40.324471], [-95.078496, 40.328193], [-95.077956, 40.330623], [-95.07827, 40.33201], [-95.079161, 40.333483], [-95.079311, 40.334947], [-95.075421, 40.342953], [-95.074781, 40.345143], [-95.074097, 40.357084], [-95.07741, 40.369075], [-95.080158, 40.373348], [-95.079819, 40.376694], [-95.08443, 40.390567], [-95.085463, 40.413536], [-95.086722, 40.417742], [-95.086668, 40.420743], [-95.085607, 40.423743], [-95.075835, 40.436346], [-95.071749, 40.442263], [-95.069374, 40.45022], [-95.03689, 40.508206]]}}, {"type": "Feature", "properties": {"company": "Chicago, Burlington and Quincy Railroad", "line": "Chicago, Burlington and Quincy: Red Oak – Hamburg", "id": "cbq-red-oak-hamburg", "color": "#8E1B3C", "mode": "intercity_rail", "avg_speed_kmh": 40, "speed_source": "estimated, NOT sourced: a secondary branch of this era, taken from the kind of service the Feb 1952 Guide shows (Table 49) rather than from any timetable's running times", "geometry_source": "OpenStreetMap via Overpass, 2026-08-30", "geometry_quality": "Real trace from OpenStreetMap: a Dijkstra shortest path over every railway way (rail, abandoned, disused, razed, dismantled) in a corridor around the route, with ways tagged old_railway_operator=CB&Q costed at 1x and all other track at 3x, so the path stays on the Burlington's own alignment wherever OSM records it. Snapped to the report's own station list; every one of the 5 waypoints lies within 0.8 km of the drawn line. OSM lines followed: Farragut Spur 21 mi; [abandoned] 16 mi; Red Oak Industrial Track 1 mi; [dismantled] 0 mi; Monroe Street 0 mi; [rail] 0 mi. TRACED LENGTH 38.1 mi against a DOCUMENTED 39 mi (-2%). No straight-line approximation: the whole route is on mapped track. ERA NOTE: much of the surviving alignment is today's BNSF, which is the CB&Q's own successor on this route, so the modern centreline is the historical one; where the line is abandoned the trace follows the recorded grade. Simplified to a 20 m Douglas-Peucker tolerance.", "segments": [{"start": 1875, "end": 1952, "headway_min": 720, "note": "branchline.uk iowarrs route 16 (Red Oak - Hamburg): four stations lettered y = the 1875 Official Guide. Feb 1952 Table 49, times legible. THE 1952 END IS THE LAST CONFIRMED YEAR, NOT A KNOWN END. No source consulted dates when passenger service actually stopped here; the Burlington's branch trains were swept away somewhere between about 1952 and 1968 and not one of those discontinuances has been dated. The end year is a withheld unknown, not an abandonment -- DO NOT extend this line to a rounder year without evidence. Equally, 1875 is the earliest year positively CONFIRMED, not the year the line opened: the branch is older than the map shows, and the confirmed start is deliberately late rather than guessed early. Headway is an estimate and is NOT sourced.", "sources": ["Segment-level: start year 1875 from branchline.uk (John Fowler, Passenger Stations & Stops) -- branchline.uk iowarrs route 16 (Red Oak - Hamburg): four stations lettered y = the 1875 Official Guide. End year 1952 from Table 49 of the Feb 1952 Official Guide -- Feb 1952 Table 49, times legible. The end is a FLOOR on service, not the year it stopped. Headway and avg_speed_kmh are estimates and are NOT sourced.", "Feb 1952 Official Guide of the Railways (schedules effective 30 September 1951 / 27 January 1952), Burlington Lines section; full OCR cached at research/sources/official_guide_1952.txt", "https://www.branchline.uk/jfpdf/iowarrs.pdf", "research/branches/chicago_burlington_and_quincy_railroad.txt (research pass 2026-08-30)"]}]}, "geometry": {"type": "LineString", "coordinates": [[-95.238084, 41.008943], [-95.239721, 41.006351], [-95.239244, 41.004349], [-95.240086, 41.001905], [-95.241943, 40.998698], [-95.244444, 40.996357], [-95.245192, 40.995216], [-95.245421, 40.993878], [-95.245126, 40.992003], [-95.24543, 40.990835], [-95.246708, 40.989598], [-95.251208, 40.987362], [-95.252858, 40.984962], [-95.253014, 40.983666], [-95.251833, 40.97469], [-95.252165, 40.971093], [-95.257307, 40.948548], [-95.258277, 40.946574], [-95.261886, 40.941447], [-95.26255, 40.939681], [-95.276332, 40.870894], [-95.277331, 40.867249], [-95.278747, 40.864379], [-95.281982, 40.860081], [-95.381825, 40.760801], [-95.386506, 40.756746], [-95.391842, 40.753082], [-95.397442, 40.750041], [-95.404012, 40.74728], [-95.553493, 40.695275], [-95.558471, 40.694104], [-95.568931, 40.693249], [-95.571463, 40.692305], [-95.57481, 40.68993], [-95.613091, 40.650707], [-95.614207, 40.649942], [-95.616395, 40.649128], [-95.624657, 40.647223], [-95.626309, 40.646393], [-95.627823, 40.644822], [-95.628617, 40.64295], [-95.629291, 40.635923], [-95.629934, 40.633107], [-95.636191, 40.621634], [-95.637659, 40.61985], [-95.651134, 40.609132], [-95.652349, 40.607642], [-95.653126, 40.605255]]}}, {"type": "Feature", "properties": {"company": "Chicago, Burlington and Quincy Railroad", "line": "Chicago, Burlington and Quincy: Creston – Cumberland", "id": "cbq-creston-cumberland", "color": "#8E1B3C", "mode": "intercity_rail", "avg_speed_kmh": 40, "speed_source": "estimated, NOT sourced: a secondary branch of this era, taken from the kind of service the Feb 1952 Guide shows (Table 39) rather than from any timetable's running times", "geometry_source": "OpenStreetMap via Overpass, 2026-08-30", "geometry_quality": "Real trace from OpenStreetMap: a Dijkstra shortest path over every railway way (rail, abandoned, disused, razed, dismantled) in a corridor around the route, with ways tagged old_railway_operator=CB&Q costed at 1x and all other track at 3x, so the path stays on the Burlington's own alignment wherever OSM records it. Snapped to the report's own station list; every one of the 3 waypoints lies within 1.1 km of the drawn line. OSM lines followed: [abandoned] 41 mi; [disused] 3 mi; [rail] 2 mi. TRACED LENGTH 46.4 mi against a DOCUMENTED 47 mi (-1%). No straight-line approximation: the whole route is on mapped track. ERA NOTE: much of the surviving alignment is today's BNSF, which is the CB&Q's own successor on this route, so the modern centreline is the historical one; where the line is abandoned the trace follows the recorded grade. Simplified to a 20 m Douglas-Peucker tolerance.", "segments": [{"start": 1951, "end": 1952, "headway_min": 720, "note": "Feb 1952 Table 39, times legible. THIS TWO-YEAR SPAN IS A CONFIRMED-ONLY STUB, NOT THE LIFE OF THE BRANCH. The Feb 1952 Official Guide is a single snapshot, and it is the only evidence anyone has found for passenger service on this line. The branch is certainly far older and probably ran on past 1952; drawing 1951-1952 is a refusal to invent the other seventy years, not a claim they did not happen. BOTH ends are withheld unknowns. Headway is an estimate and is NOT sourced.", "sources": ["Segment-level for 1951 ONLY: Table 39 of the Feb 1952 Official Guide -- Feb 1952 Table 39, times legible. NOT SOURCED for any other year: no start year and no end year have been established for this branch. Headway and avg_speed_kmh are estimates and are NOT sourced.", "Feb 1952 Official Guide of the Railways (schedules effective 30 September 1951 / 27 January 1952), Burlington Lines section; full OCR cached at research/sources/official_guide_1952.txt", "research/branches/chicago_burlington_and_quincy_railroad.txt (research pass 2026-08-30)"]}]}, "geometry": {"type": "LineString", "coordinates": [[-94.34887, 41.057598], [-94.347556, 41.057965], [-94.346435, 41.058704], [-94.345436, 41.060701], [-94.345859, 41.061991], [-94.348235, 41.065572], [-94.349044, 41.067625], [-94.349557, 41.071021], [-94.349149, 41.074277], [-94.347498, 41.077943], [-94.336265, 41.09442], [-94.335757, 41.096431], [-94.335769, 41.101477], [-94.336727, 41.104572], [-94.339456, 41.107236], [-94.345632, 41.109918], [-94.348263, 41.112879], [-94.352571, 41.115833], [-94.355408, 41.118798], [-94.359064, 41.124999], [-94.375174, 41.155326], [-94.378428, 41.159571], [-94.384943, 41.166293], [-94.386007, 41.169082], [-94.386072, 41.172263], [-94.386891, 41.173382], [-94.398686, 41.181325], [-94.400237, 41.183176], [-94.40614, 41.197678], [-94.408117, 41.201138], [-94.412006, 41.202814], [-94.422024, 41.202913], [-94.424245, 41.203387], [-94.426307, 41.204642], [-94.429601, 41.212735], [-94.435868, 41.221167], [-94.44659, 41.230462], [-94.446718, 41.232496], [-94.442407, 41.239756], [-94.441806, 41.241541], [-94.442358, 41.243645], [-94.443363, 41.245199], [-94.444457, 41.24634], [-94.445611, 41.246932], [-94.449099, 41.247658], [-94.451741, 41.249139], [-94.455535, 41.250597], [-94.46278, 41.251086], [-94.464147, 41.251815], [-94.466822, 41.254257], [-94.467618, 41.256565], [-94.46962, 41.266305], [-94.472545, 41.27012], [-94.477529, 41.27329], [-94.477839, 41.274983], [-94.476601, 41.276312], [-94.472461, 41.277693], [-94.471153, 41.278955], [-94.468884, 41.280401], [-94.46543, 41.281345], [-94.459342, 41.283828], [-94.458467, 41.285065], [-94.45847, 41.285842], [-94.462428, 41.290523], [-94.462538, 41.296175], [-94.464899, 41.299855], [-94.46607, 41.300517], [-94.467662, 41.300562], [-94.469771, 41.299472], [-94.470552, 41.298687], [-94.471286, 41.296703], [-94.471827, 41.296147], [-94.472487, 41.295741], [-94.474229, 41.29541], [-94.476131, 41.296237], [-94.476932, 41.29726], [-94.479475, 41.298915], [-94.48406, 41.302946], [-94.486423, 41.303262], [-94.488405, 41.3026], [-94.492069, 41.301983], [-94.493731, 41.301096], [-94.495813, 41.298885], [-94.507407, 41.292597], [-94.511051, 41.289603], [-94.512252, 41.288956], [-94.522143, 41.286714], [-94.524305, 41.285826], [-94.529171, 41.282847], [-94.534217, 41.276422], [-94.535999, 41.275595], [-94.53718, 41.275489], [-94.539523, 41.276257], [-94.540363, 41.276964], [-94.547872, 41.284984], [-94.550415, 41.289527], [-94.551776, 41.290821], [-94.554319, 41.291664], [-94.565932, 41.293424], [-94.567774, 41.292341], [-94.569296, 41.28718], [-94.570958, 41.285781], [-94.574021, 41.285179], [-94.592883, 41.284548], [-94.594464, 41.284337], [-94.597027, 41.283269], [-94.605436, 41.274541], [-94.607299, 41.273518], [-94.613105, 41.271788], [-94.615768, 41.270463], [-94.621334, 41.264669], [-94.630545, 41.258573], [-94.636612, 41.25626], [-94.642298, 41.251232], [-94.6446, 41.249652], [-94.647644, 41.248538], [-94.668607, 41.243058], [-94.673773, 41.243133], [-94.676897, 41.243856], [-94.67976, 41.245211], [-94.686848, 41.251112], [-94.698381, 41.256531], [-94.699742, 41.256922], [-94.702506, 41.257073], [-94.707551, 41.256772], [-94.716722, 41.257976], [-94.719825, 41.257675], [-94.722468, 41.256471], [-94.728875, 41.25203], [-94.731238, 41.251202], [-94.747396, 41.250058], [-94.755905, 41.247725], [-94.758568, 41.247574], [-94.765116, 41.249712], [-94.801016, 41.256516], [-94.803339, 41.257765], [-94.810046, 41.263635], [-94.81301, 41.265215], [-94.823161, 41.269113], [-94.833893, 41.270061], [-94.836716, 41.270678], [-94.838158, 41.271416], [-94.841882, 41.274711], [-94.844425, 41.275689], [-94.846888, 41.275825], [-94.860603, 41.273899], [-94.86725, 41.271295], [-94.868892, 41.270904]]}}]}