{"type": "FeatureCollection", "metadata": {"note": "Chicago, Burlington and Quincy branch lines in Nebraska, Kansas and the Black Hills, traced 2026-08-30 from research/branches/chicago_burlington_and_quincy_railroad.txt.", "source": "research/branches/chicago_burlington_and_quincy_railroad.txt; Feb 1952 Official Guide of the Railways (Burlington Lines section), full OCR cached at research/sources/official_guide_1952.txt; branchline.uk (John Fowler), Passenger Stations & Stops, illinoisrrs2 / iowarrs / nebraskarrs / missourirrs", "pulled": "20260830", "geometry_method": "Overpass corridor fetch per branch (all railway ways: rail, abandoned, disused, razed, dismantled), Dijkstra over a graph in which ways tagged old_railway_operator=CB&Q cost 1x and everything else 3x, waypoints taken from the research report's own via lists and snapped by a dynamic program over up to eight candidate nodes each, with each leg confined to a corridor around its own straight line so the router cannot wander onto a parallel railroad. Every feature's geometry_quality gives its traced length against the report's documented mileage and names any straight-line legs.", "not_yet_sourced": "EVERY BRANCH IN THIS FILE THAT ENDS IN 1952 HAS AN UNKNOWN, WITHHELD END YEAR. The Feb 1952 Official Guide is a single snapshot: it proves the trains were running in September 1951 and says nothing about when they stopped. The Burlington's branch passenger service was swept away somewhere between about 1952 and 1968 and NOT ONE of those discontinuances has been dated by any source consulted. A 1952 end here is where the evidence stops, not where the trains stopped -- do not 'fix' one by rounding it up. Nor is a start year the year a line opened: it is the earliest year a timetable proves, usually a branchline.uk Official-Guide snapshot letter (1875, 1884 or 1893), and the lines are older than the map shows. branchline.uk cannot close a Burlington branch, only open one: outside Nebraska's single d = 1950t there is NO lettered timetable snapshot for the CB&Q between 1893 and 1976 in any of Fowler's state files, and the Missouri CB&Q legend is blank in every position. Still unexploited, and the highest-value source left for this railroad: the 1952 Guide's index of stations carries a per-station freight-only dagger across the whole 11,000-mile system, but the OCR has mangled that dagger into at least four different characters and it was not used.", "branches_deliberately_omitted": [{"branch": "Chicago, Burlington and Quincy: Holdrege – Beatrice", "reason": "67 of 164 traced miles (41%) came out as straight line, and what the router DID follow includes Rock Island track (CRI&P Ruskin Branch), not the Burlington's. Wrong-railroad geometry is worse than none."}, {"branch": "Chicago, Burlington and Quincy: Tecumseh – Nebraska City", "reason": "100% of the traced length was straight line -- OSM has no rail within 6 km of Nemaha or Shubert. Report block [52] is a one-year 1875 anchor recommending omission (Table 65 is an all-bus table in 1952)."}, {"branch": "Chicago, Burlington and Quincy: Ashland – South Sioux City", "reason": "95 of 121 traced miles (79%) came out as straight line: OSM does not carry the Ashland - Wann - Tekamah - Decatur alignment."}]}, "features": [{"type": "Feature", "properties": {"company": "Chicago, Burlington and Quincy Railroad", "line": "Chicago, Burlington and Quincy: Edgemont – Deadwood", "id": "cbq-edgemont-hot-springs-deadwood", "color": "#8E1B3C", "mode": "intercity_rail", "avg_speed_kmh": 32, "speed_source": "estimated, NOT sourced: a secondary branch of this era, taken from the kind of service the Feb 1952 Guide shows (Table 23) rather than from any timetable's running times", "geometry_source": "OpenStreetMap via Overpass, 2026-08-30", "geometry_quality": "Real trace from OpenStreetMap: a Dijkstra shortest path over every railway way (rail, abandoned, disused, razed, dismantled) in a corridor around the route, with ways tagged old_railway_operator=CB&Q costed at 1x and all other track at 3x, so the path stays on the Burlington's own alignment wherever OSM records it. Snapped to the report's own station list; every one of the 10 waypoints lies within 1.8 km of the drawn line. OSM lines followed: George S. Mickelson Trail 73 mi; [abandoned] 17 mi; [rail] 2 mi; Burlington Road 0 mi. TRACED LENGTH 109.5 mi against a DOCUMENTED 107 mi (+2%). APPROXIMATED: 23.1 mi of the total is straight-line, drawn across 2 place(s) where the grade is lifted and OSM has no way at all -- Hot Springs-Pringle 12.6 mi; Hill City-Mystic 10.6 mi. Those legs are ruled lines, not survey. ERA NOTE: much of the surviving alignment is today's BNSF, which is the CB&Q's own successor on this route, so the modern centreline is the historical one; where the line is abandoned the trace follows the recorded grade. Simplified to a 20 m Douglas-Peucker tolerance.", "segments": [{"start": 1891, "end": 1952, "headway_min": 720, "note": "the Burlington's Black Hills lines were standard-gauged and completed to Deadwood in 1890-1891; the bracket is collapsed inward to 1891. Feb 1952 Table 23 heads its columns \"Mix.\" and shows times -- a mixed train still carrying passengers. THE 1952 END IS THE LAST CONFIRMED YEAR, NOT A KNOWN END. No source consulted dates when passenger service actually stopped here; the Burlington's branch trains were swept away somewhere between about 1952 and 1968 and not one of those discontinuances has been dated. The end year is a withheld unknown, not an abandonment -- DO NOT extend this line to a rounder year without evidence. Equally, 1891 is the earliest year positively CONFIRMED, not the year the line opened: the branch is older than the map shows, and the confirmed start is deliberately late rather than guessed early. The scenic Black Hills line through Custer and Rochford. This mixed train was one of the last of its kind on the system. Headway is an estimate and is NOT sourced.", "sources": ["Segment-level: start year 1891 from branchline.uk (John Fowler, Passenger Stations & Stops) -- the Burlington's Black Hills lines were standard-gauged and completed to Deadwood in 1890-1891; the bracket is collapsed inward to 1891. End year 1952 from Table 23 of the Feb 1952 Official Guide -- Feb 1952 Table 23 heads its columns \"Mix.\" and shows times -- a mixed train still carrying passengers. The end is a FLOOR on service, not the year it stopped. Headway and avg_speed_kmh are estimates and are NOT sourced.", "Feb 1952 Official Guide of the Railways (schedules effective 30 September 1951 / 27 January 1952), Burlington Lines section; full OCR cached at research/sources/official_guide_1952.txt", "research/branches/chicago_burlington_and_quincy_railroad.txt (research pass 2026-08-30)"]}]}, "geometry": {"type": "LineString", "coordinates": [[-103.820685, 43.310199], [-103.809996, 43.315081], [-103.808165, 43.316191], [-103.777909, 43.34395], [-103.776357, 43.344657], [-103.773832, 43.344535], [-103.772883, 43.34407], [-103.771878, 43.342994], [-103.771726, 43.342022], [-103.772492, 43.336981], [-103.770775, 43.332922], [-103.766266, 43.32566], [-103.763119, 43.323623], [-103.761775, 43.323177], [-103.759042, 43.323313], [-103.755798, 43.32227], [-103.753595, 43.322351], [-103.752676, 43.322915], [-103.749763, 43.325929], [-103.747065, 43.327052], [-103.741096, 43.332118], [-103.739596, 43.332132], [-103.736757, 43.331316], [-103.732733, 43.32843], [-103.731109, 43.328118], [-103.730119, 43.328344], [-103.728108, 43.329604], [-103.724417, 43.32972], [-103.72246, 43.330073], [-103.714193, 43.333923], [-103.713763, 43.33531], [-103.714577, 43.338898], [-103.71396, 43.339893], [-103.711375, 43.341876], [-103.710697, 43.342996], [-103.708653, 43.353208], [-103.708541, 43.357466], [-103.71147, 43.366002], [-103.710992, 43.367435], [-103.706694, 43.371988], [-103.70556, 43.374789], [-103.70551, 43.377805], [-103.707032, 43.388538], [-103.704566, 43.399746], [-103.703603, 43.401174], [-103.698534, 43.404041], [-103.697249, 43.40574], [-103.689245, 43.430631], [-103.687978, 43.432408], [-103.667688, 43.434258], [-103.651096, 43.432145], [-103.644938, 43.431797], [-103.623626, 43.429619], [-103.622402, 43.429348], [-103.617114, 43.426887], [-103.615463, 43.426423], [-103.613014, 43.426448], [-103.598747, 43.428034], [-103.590531, 43.425624], [-103.58574, 43.422995], [-103.578801, 43.421487], [-103.578109, 43.421615], [-103.577133, 43.422337], [-103.576336, 43.4247], [-103.575446, 43.425739], [-103.574003, 43.426167], [-103.567252, 43.42706], [-103.565834, 43.427662], [-103.564253, 43.42963], [-103.556385, 43.432947], [-103.55296, 43.43415], [-103.548881, 43.434459], [-103.546472, 43.436938], [-103.542934, 43.439097], [-103.541527, 43.439055], [-103.537405, 43.437144], [-103.536225, 43.437194], [-103.535498, 43.438064], [-103.53603, 43.440831], [-103.535434, 43.441728], [-103.530355, 43.441567], [-103.529395, 43.442113], [-103.527011, 43.444561], [-103.523681, 43.446341], [-103.520541, 43.447393], [-103.518282, 43.447632], [-103.516567, 43.44821], [-103.513081, 43.448221], [-103.512381, 43.448724], [-103.510972, 43.451403], [-103.510028, 43.452014], [-103.507683, 43.4521], [-103.505904, 43.4517], [-103.504102, 43.450198], [-103.503449, 43.448272], [-103.504448, 43.445667], [-103.503638, 43.444725], [-103.50156, 43.444942], [-103.499774, 43.446547], [-103.498838, 43.446673], [-103.498043, 43.446301], [-103.497933, 43.444462], [-103.497044, 43.443576], [-103.494234, 43.442251], [-103.491913, 43.442085], [-103.593363, 43.608351], [-103.591318, 43.612453], [-103.591741, 43.615611], [-103.601657, 43.636352], [-103.601927, 43.638247], [-103.601311, 43.640072], [-103.60043, 43.641048], [-103.598191, 43.642254], [-103.596179, 43.642858], [-103.594374, 43.64428], [-103.592309, 43.647209], [-103.591343, 43.649245], [-103.589843, 43.655146], [-103.594896, 43.660495], [-103.602221, 43.665574], [-103.602967, 43.666565], [-103.603665, 43.668865], [-103.603291, 43.672303], [-103.604057, 43.674922], [-103.604048, 43.679632], [-103.60671, 43.684147], [-103.605106, 43.68895], [-103.604818, 43.693459], [-103.605718, 43.696908], [-103.609003, 43.70274], [-103.608626, 43.707598], [-103.612746, 43.71617], [-103.613443, 43.718332], [-103.612905, 43.719457], [-103.610187, 43.721457], [-103.607313, 43.722259], [-103.607123, 43.722913], [-103.606482, 43.722954], [-103.606232, 43.722511], [-103.604656, 43.722885], [-103.603949, 43.723245], [-103.603512, 43.724004], [-103.605, 43.726445], [-103.605012, 43.729637], [-103.60606, 43.731405], [-103.605771, 43.736114], [-103.606138, 43.737561], [-103.608014, 43.741548], [-103.609759, 43.742733], [-103.610552, 43.743883], [-103.609964, 43.747709], [-103.611794, 43.751953], [-103.611646, 43.753775], [-103.608149, 43.758462], [-103.607455, 43.761813], [-103.606639, 43.762866], [-103.605323, 43.76353], [-103.592151, 43.767118], [-103.591087, 43.767822], [-103.590932, 43.768988], [-103.593572, 43.771363], [-103.597295, 43.772956], [-103.601953, 43.776929], [-103.60569, 43.778864], [-103.610367, 43.782259], [-103.616201, 43.78542], [-103.617888, 43.787017], [-103.619901, 43.788126], [-103.621576, 43.790503], [-103.622733, 43.791446], [-103.623148, 43.792482], [-103.621802, 43.794812], [-103.622765, 43.796608], [-103.622761, 43.797262], [-103.621749, 43.798333], [-103.619103, 43.799227], [-103.617679, 43.800341], [-103.617321, 43.802839], [-103.616622, 43.804047], [-103.617013, 43.805191], [-103.618583, 43.805687], [-103.619591, 43.805338], [-103.620211, 43.804556], [-103.620166, 43.80328], [-103.620835, 43.802565], [-103.623458, 43.802279], [-103.626671, 43.800928], [-103.628165, 43.801417], [-103.629254, 43.802967], [-103.6299, 43.803292], [-103.63741, 43.802694], [-103.638709, 43.803146], [-103.639409, 43.804538], [-103.63893, 43.808853], [-103.637065, 43.811586], [-103.639262, 43.818877], [-103.639313, 43.82292], [-103.640794, 43.830669], [-103.638318, 43.834278], [-103.638665, 43.837864], [-103.637318, 43.840057], [-103.637051, 43.842056], [-103.636359, 43.842873], [-103.634717, 43.843696], [-103.632506, 43.846207], [-103.631853, 43.848454], [-103.632455, 43.850807], [-103.632336, 43.852221], [-103.630596, 43.854865], [-103.629815, 43.857567], [-103.628226, 43.859343], [-103.623269, 43.86241], [-103.622805, 43.863756], [-103.623503, 43.86508], [-103.624031, 43.865325], [-103.623499, 43.866563], [-103.620322, 43.870621], [-103.6161, 43.873271], [-103.615636, 43.874232], [-103.61536, 43.877045], [-103.6115, 43.883726], [-103.610165, 43.884356], [-103.603944, 43.885309], [-103.600172, 43.886522], [-103.598983, 43.886234], [-103.596329, 43.884435], [-103.595205, 43.884367], [-103.593336, 43.885359], [-103.589772, 43.889928], [-103.589026, 43.891247], [-103.589323, 43.892129], [-103.590572, 43.893582], [-103.591418, 43.903383], [-103.589422, 43.907006], [-103.58885, 43.909453], [-103.586078, 43.912579], [-103.583019, 43.91993], [-103.578378, 43.924538], [-103.575122, 43.9272], [-103.573935, 43.932456], [-103.635234, 44.078856], [-103.634872, 44.080096], [-103.63355, 44.080535], [-103.632395, 44.080267], [-103.630558, 44.079009], [-103.62888, 44.079252], [-103.628275, 44.080053], [-103.628078, 44.083307], [-103.627056, 44.084086], [-103.625288, 44.084623], [-103.624583, 44.08517], [-103.623673, 44.089122], [-103.626701, 44.091637], [-103.628493, 44.092517], [-103.629617, 44.095056], [-103.631597, 44.09542], [-103.633789, 44.094849], [-103.634836, 44.094856], [-103.639144, 44.096804], [-103.639702, 44.097808], [-103.638395, 44.099912], [-103.638743, 44.103015], [-103.63967, 44.103766], [-103.642981, 44.104366], [-103.644405, 44.106205], [-103.645374, 44.106754], [-103.649259, 44.107054], [-103.653733, 44.107008], [-103.654718, 44.107607], [-103.655416, 44.108745], [-103.656593, 44.109257], [-103.660325, 44.10902], [-103.666802, 44.109826], [-103.670166, 44.110764], [-103.674304, 44.110614], [-103.677053, 44.112277], [-103.681933, 44.113526], [-103.6894, 44.112475], [-103.691286, 44.112628], [-103.692733, 44.113272], [-103.695423, 44.115302], [-103.69563, 44.116654], [-103.694918, 44.1181], [-103.695373, 44.11909], [-103.700826, 44.120602], [-103.707091, 44.121498], [-103.710204, 44.120902], [-103.718261, 44.123372], [-103.724312, 44.121469], [-103.725715, 44.120568], [-103.727188, 44.120635], [-103.732288, 44.123849], [-103.735557, 44.128301], [-103.735879, 44.131998], [-103.73791, 44.134579], [-103.738737, 44.134819], [-103.739889, 44.134678], [-103.7416, 44.133164], [-103.742672, 44.132843], [-103.74437, 44.13348], [-103.746239, 44.135432], [-103.746104, 44.137914], [-103.745369, 44.138726], [-103.742678, 44.139371], [-103.742116, 44.14052], [-103.744983, 44.143833], [-103.745023, 44.146095], [-103.745702, 44.147122], [-103.750692, 44.148373], [-103.752683, 44.149653], [-103.753309, 44.150726], [-103.753192, 44.152439], [-103.751293, 44.154796], [-103.751479, 44.156803], [-103.751064, 44.160011], [-103.754712, 44.170494], [-103.754298, 44.175378], [-103.758614, 44.181056], [-103.75897, 44.184751], [-103.760105, 44.187591], [-103.760518, 44.193983], [-103.760162, 44.196806], [-103.760926, 44.197795], [-103.763169, 44.19888], [-103.764862, 44.201235], [-103.767303, 44.206346], [-103.768819, 44.208508], [-103.769433, 44.210632], [-103.771816, 44.215381], [-103.773839, 44.218141], [-103.773965, 44.219062], [-103.773252, 44.221228], [-103.774237, 44.226987], [-103.774628, 44.227457], [-103.775587, 44.227753], [-103.77968, 44.226926], [-103.784121, 44.227477], [-103.786359, 44.228059], [-103.787683, 44.228595], [-103.79031, 44.230706], [-103.794174, 44.231481], [-103.795815, 44.232183], [-103.797484, 44.233535], [-103.798791, 44.235865], [-103.798905, 44.237827], [-103.797895, 44.240459], [-103.796562, 44.251492], [-103.795381, 44.25412], [-103.795299, 44.255499], [-103.795674, 44.256466], [-103.796565, 44.257309], [-103.799931, 44.258482], [-103.801095, 44.259501], [-103.802464, 44.266145], [-103.80402, 44.26806], [-103.80297, 44.270198], [-103.804359, 44.271691], [-103.804651, 44.274055], [-103.804003, 44.275152], [-103.802511, 44.276458], [-103.802059, 44.278792], [-103.801126, 44.279734], [-103.798672, 44.280706], [-103.795391, 44.281476], [-103.793995, 44.282577], [-103.790706, 44.283989], [-103.787636, 44.283996], [-103.786325, 44.284703], [-103.786208, 44.285624], [-103.787079, 44.286971], [-103.787042, 44.287709], [-103.785915, 44.290206], [-103.784747, 44.296712], [-103.782643, 44.301154], [-103.780822, 44.302941], [-103.779377, 44.305402], [-103.778166, 44.305901], [-103.774051, 44.306731], [-103.772907, 44.30747], [-103.772149, 44.310782], [-103.77044, 44.312671], [-103.770607, 44.315193], [-103.7681, 44.31864], [-103.768406, 44.321295], [-103.768172, 44.322438], [-103.767073, 44.323362], [-103.764753, 44.324075], [-103.764173, 44.324723], [-103.76454, 44.32607], [-103.76706, 44.327282], [-103.768591, 44.330006], [-103.769026, 44.331803], [-103.770644, 44.33321], [-103.771364, 44.334532], [-103.774225, 44.336154], [-103.774301, 44.337258], [-103.773842, 44.337722], [-103.771395, 44.338589], [-103.767771, 44.338716], [-103.764902, 44.340251], [-103.762492, 44.340668], [-103.758639, 44.342336], [-103.75733, 44.342099], [-103.756, 44.340288], [-103.755238, 44.340154], [-103.754325, 44.340425], [-103.753947, 44.341473], [-103.755262, 44.344583], [-103.754674, 44.345225], [-103.752982, 44.345396], [-103.752097, 44.345811], [-103.753147, 44.347909], [-103.752911, 44.348818], [-103.752195, 44.349159], [-103.749875, 44.348968], [-103.748481, 44.349176], [-103.747438, 44.34961], [-103.745436, 44.351307], [-103.743044, 44.351361], [-103.739786, 44.352416], [-103.738775, 44.353175], [-103.738287, 44.354746], [-103.739378, 44.357888], [-103.738605, 44.360417], [-103.739689, 44.361783], [-103.739767, 44.362493], [-103.739368, 44.362953], [-103.736826, 44.364179], [-103.734402, 44.364177], [-103.733448, 44.364709], [-103.733445, 44.365472], [-103.735768, 44.36753], [-103.735942, 44.368189], [-103.735356, 44.369022], [-103.733354, 44.369902]]}}, {"type": "Feature", "properties": {"company": "Chicago, Burlington and Quincy Railroad", "line": "Chicago, Burlington and Quincy: Lincoln – Concordia", "id": "cbq-lincoln-wymore-concordia", "color": "#8E1B3C", "mode": "intercity_rail", "avg_speed_kmh": 45, "speed_source": "estimated, NOT sourced: a secondary branch of this era, taken from the kind of service the Feb 1952 Guide shows (Table 56) rather than from any timetable's running times", "geometry_source": "OpenStreetMap via Overpass, 2026-08-30", "geometry_quality": "Real trace from OpenStreetMap: a Dijkstra shortest path over every railway way (rail, abandoned, disused, razed, dismantled) in a corridor around the route, with ways tagged old_railway_operator=CB&Q costed at 1x and all other track at 3x, so the path stays on the Burlington's own alignment wherever OSM records it. Snapped to the report's own station list; every one of the 8 waypoints lies within 0.6 km of the drawn line. OSM lines followed: Homestead Trail 31 mi; CB&Q 22nd Subdivision 26 mi; Chicago Burlington & Quincy RR 22nd Subd (abnd) 26 mi; Burlington Northern Santa Fe Railway 10 mi; CB&Q RR 22nd Subdivision (abnd) 8 mi; CB&Q RR 21st Subdivision (abnd) 7 mi. TRACED LENGTH 133.3 mi against a DOCUMENTED 140 mi (-5%). No straight-line approximation: the whole route is on mapped track. ERA NOTE: much of the surviving alignment is today's BNSF, which is the CB&Q's own successor on this route, so the modern centreline is the historical one; where the line is abandoned the trace follows the recorded grade. Simplified to a 20 m Douglas-Peucker tolerance.", "segments": [{"start": 1884, "end": 1952, "headway_min": 720, "note": "branchline.uk nebraskarrs route 45 (Wymore - Concordia): one station lettered q = the 1884 Official Guide. Feb 1952 Table 56's footnote reads \"A Mixed between Wymore and Concordia\", so the Kansas end was a mixed train in 1951. THE 1952 END IS THE LAST CONFIRMED YEAR, NOT A KNOWN END. No source consulted dates when passenger service actually stopped here; the Burlington's branch trains were swept away somewhere between about 1952 and 1968 and not one of those discontinuances has been dated. The end year is a withheld unknown, not an abandonment -- DO NOT extend this line to a rounder year without evidence. Equally, 1884 is the earliest year positively CONFIRMED, not the year the line opened: the branch is older than the map shows, and the confirmed start is deliberately late rather than guessed early. Headway is an estimate and is NOT sourced.", "sources": ["Segment-level: start year 1884 from branchline.uk (John Fowler, Passenger Stations & Stops) -- branchline.uk nebraskarrs route 45 (Wymore - Concordia): one station lettered q = the 1884 Official Guide. End year 1952 from Table 56 of the Feb 1952 Official Guide -- Feb 1952 Table 56's footnote reads \"A Mixed between Wymore and Concordia\", so the Kansas end was a mixed train in 1951. The end is a FLOOR on service, not the year it stopped. Headway and avg_speed_kmh are estimates and are NOT sourced.", "Feb 1952 Official Guide of the Railways (schedules effective 30 September 1951 / 27 January 1952), Burlington Lines section; full OCR cached at research/sources/official_guide_1952.txt", "https://www.branchline.uk/jfpdf/nebraskarrs.pdf", "research/branches/chicago_burlington_and_quincy_railroad.txt (research pass 2026-08-30)"]}]}, "geometry": {"type": "LineString", "coordinates": [[-96.714431, 40.811279], [-96.7158, 40.809318], [-96.71831, 40.806691], [-96.717499, 40.805161], [-96.717453, 40.799102], [-96.716455, 40.788972], [-96.714728, 40.782731], [-96.714186, 40.778913], [-96.713154, 40.760998], [-96.712877, 40.760515], [-96.713103, 40.754616], [-96.712834, 40.749982], [-96.712462, 40.743876], [-96.712, 40.74164], [-96.703997, 40.726331], [-96.703475, 40.726151], [-96.702929, 40.725151], [-96.70305, 40.724578], [-96.701556, 40.721544], [-96.679969, 40.681854], [-96.66789, 40.649773], [-96.667296, 40.647447], [-96.667186, 40.644802], [-96.667915, 40.641477], [-96.669447, 40.638463], [-96.684492, 40.619768], [-96.688522, 40.61624], [-96.697815, 40.611051], [-96.701556, 40.60723], [-96.70223, 40.605653], [-96.700936, 40.593094], [-96.700892, 40.581074], [-96.701521, 40.578683], [-96.703869, 40.573194], [-96.708979, 40.559016], [-96.709534, 40.554971], [-96.704306, 40.492671], [-96.703741, 40.490757], [-96.697048, 40.475885], [-96.696678, 40.474114], [-96.697604, 40.452319], [-96.698443, 40.450156], [-96.701034, 40.44698], [-96.722452, 40.427369], [-96.724202, 40.424487], [-96.730145, 40.403799], [-96.730446, 40.401737], [-96.726127, 40.377119], [-96.724019, 40.357165], [-96.724137, 40.354942], [-96.740477, 40.291659], [-96.741507, 40.289355], [-96.751651, 40.271729], [-96.75201, 40.266392], [-96.751431, 40.265049], [-96.750985, 40.26492], [-96.750983, 40.264215], [-96.749957, 40.262128], [-96.747106, 40.26053], [-96.748221, 40.259461], [-96.750814, 40.258874], [-96.746803, 40.252011], [-96.744769, 40.242433], [-96.74245, 40.237314], [-96.741275, 40.223169], [-96.739422, 40.217343], [-96.73859, 40.211679], [-96.736111, 40.208125], [-96.72572, 40.201707], [-96.724137, 40.20042], [-96.711552, 40.186079], [-96.710383, 40.183243], [-96.710372, 40.163781], [-96.709224, 40.160575], [-96.708098, 40.159304], [-96.705094, 40.157402], [-96.671083, 40.140024], [-96.668347, 40.137957], [-96.662822, 40.133102], [-96.660569, 40.129886], [-96.658487, 40.125661], [-96.658166, 40.12329], [-96.659485, 40.119713], [-96.66191, 40.117744], [-96.664637, 40.116336], [-96.688829, 40.104732], [-96.70091, 40.095184], [-96.704622, 40.092651], [-96.710973, 40.0895], [-96.725208, 40.083835], [-96.728309, 40.08235], [-96.777477, 40.050433], [-96.779783, 40.049306], [-96.791025, 40.045517], [-96.793227, 40.045167], [-96.796001, 40.045247], [-96.798659, 40.045925], [-96.825817, 40.057582], [-96.82822, 40.057694], [-96.845209, 40.05099], [-96.862296, 40.039708], [-96.867692, 40.038014], [-96.870016, 40.036378], [-96.871048, 40.034547], [-96.873003, 40.026738], [-96.876651, 40.018177], [-96.876823, 40.016731], [-96.875106, 39.986404], [-96.875407, 39.979992], [-96.876179, 39.975963], [-96.885618, 39.941087], [-96.886699, 39.936193], [-96.887168, 39.926923], [-96.88907, 39.922138], [-96.89204, 39.916823], [-96.891428, 39.913455], [-96.888393, 39.908589], [-96.880218, 39.899621], [-96.879046, 39.897765], [-96.87867, 39.890203], [-96.880208, 39.886899], [-96.898361, 39.867852], [-96.901019, 39.866112], [-96.904236, 39.865602], [-96.907992, 39.866091], [-96.930383, 39.875681], [-96.935097, 39.876422], [-96.937462, 39.876215], [-96.940158, 39.875493], [-96.946541, 39.871651], [-96.96283, 39.865289], [-96.965292, 39.864941], [-96.967025, 39.865083], [-96.975876, 39.866985], [-96.979596, 39.866486], [-96.98138, 39.86561], [-96.988665, 39.860397], [-97.003519, 39.853931], [-97.008561, 39.851446], [-97.010262, 39.849921], [-97.011228, 39.848554], [-97.015359, 39.838949], [-97.01729, 39.836469], [-97.020658, 39.834244], [-97.03079, 39.828468], [-97.045764, 39.822891], [-97.059088, 39.820627], [-97.069644, 39.819553], [-97.071637, 39.819595], [-97.082029, 39.821539], [-97.107471, 39.833128], [-97.111199, 39.833655], [-97.128173, 39.833405], [-97.130166, 39.833736], [-97.166459, 39.846599], [-97.172431, 39.846755], [-97.178402, 39.846487], [-97.182681, 39.847259], [-97.186659, 39.84843], [-97.210566, 39.858302], [-97.213318, 39.858934], [-97.240358, 39.863037], [-97.243759, 39.862776], [-97.250867, 39.86105], [-97.253614, 39.860671], [-97.262412, 39.861034], [-97.269514, 39.860869], [-97.282904, 39.85853], [-97.289682, 39.858788], [-97.292205, 39.858351], [-97.328355, 39.845456], [-97.344482, 39.840755], [-97.351373, 39.838035], [-97.362629, 39.836824], [-97.364869, 39.836294], [-97.367915, 39.834688], [-97.372425, 39.831062], [-97.374731, 39.829842], [-97.376711, 39.829192], [-97.381335, 39.828901], [-97.395373, 39.83108], [-97.405051, 39.834238], [-97.407312, 39.834311], [-97.417419, 39.831712], [-97.424664, 39.82721], [-97.426527, 39.826484], [-97.428428, 39.826148], [-97.432773, 39.826373], [-97.435693, 39.82561], [-97.437296, 39.824551], [-97.438586, 39.822686], [-97.439279, 39.817766], [-97.438404, 39.813988], [-97.438586, 39.811825], [-97.440091, 39.809339], [-97.441468, 39.808229], [-97.443591, 39.807229], [-97.462331, 39.801399], [-97.487604, 39.785665], [-97.490326, 39.784493], [-97.495654, 39.782792], [-97.497335, 39.78166], [-97.498494, 39.780059], [-97.499784, 39.776645], [-97.503757, 39.773661], [-97.504747, 39.77247], [-97.51044, 39.760053], [-97.513592, 39.754826], [-97.515129, 39.753283], [-97.520562, 39.749257], [-97.522906, 39.746943], [-97.537002, 39.728611], [-97.544544, 39.718201], [-97.544987, 39.716879], [-97.554653, 39.622], [-97.555747, 39.616411], [-97.556372, 39.615488], [-97.56966, 39.60299], [-97.584419, 39.594039], [-97.592001, 39.589984], [-97.611934, 39.583903], [-97.655683, 39.573355], [-97.661646, 39.573462], [-97.660789, 39.57332]]}}, {"type": "Feature", "properties": {"company": "Chicago, Burlington and Quincy Railroad", "line": "Chicago, Burlington and Quincy: Holdrege – Sterling", "id": "cbq-holdrege-sterling", "color": "#8E1B3C", "mode": "intercity_rail", "avg_speed_kmh": 45, "speed_source": "estimated, NOT sourced: a secondary branch of this era, taken from the kind of service the Feb 1952 Guide shows (Table 68) rather than from any timetable's running times", "geometry_source": "OpenStreetMap via Overpass, 2026-08-30", "geometry_quality": "Real trace from OpenStreetMap: a Dijkstra shortest path over every railway way (rail, abandoned, disused, razed, dismantled) in a corridor around the route, with ways tagged old_railway_operator=CB&Q costed at 1x and all other track at 3x, so the path stays on the Burlington's own alignment wherever OSM records it. Snapped to the report's own station list; every one of the 7 waypoints lies within 0.9 km of the drawn line. OSM lines followed: Akron Subdivision 116 mi; BNSF Hastings Subdivision 78 mi; [rail] 0 mi. TRACED LENGTH 236.0 mi against a DOCUMENTED 230 mi (+3%). APPROXIMATED: 42.6 mi of the total is straight-line, drawn across 1 place(s) where the grade is lifted and OSM has no way at all -- Yuma-Sterling 42.6 mi. Those legs are ruled lines, not survey. ERA NOTE: much of the surviving alignment is today's BNSF, which is the CB&Q's own successor on this route, so the modern centreline is the historical one; where the line is abandoned the trace follows the recorded grade. Simplified to a 20 m Douglas-Peucker tolerance.", "segments": [{"start": 1951, "end": 1952, "headway_min": 720, "note": "Feb 1952 Table 68. THIS TWO-YEAR SPAN IS A CONFIRMED-ONLY STUB, NOT THE LIFE OF THE BRANCH. The Feb 1952 Official Guide is a single snapshot, and it is the only evidence anyone has found for passenger service on this line. The branch is certainly far older and probably ran on past 1952; drawing 1951-1952 is a refusal to invent the other seventy years, not a claim they did not happen. BOTH ends are withheld unknowns. NOT SOURCED beyond the table itself; the OCR interleaves Table 68 with Table 64. Headway is an estimate and is NOT sourced.", "sources": ["Segment-level for 1951 ONLY: Table 68 of the Feb 1952 Official Guide -- Feb 1952 Table 68. NOT SOURCED for any other year: no start year and no end year have been established for this branch. Headway and avg_speed_kmh are estimates and are NOT sourced.", "Feb 1952 Official Guide of the Railways (schedules effective 30 September 1951 / 27 January 1952), Burlington Lines section; full OCR cached at research/sources/official_guide_1952.txt", "research/branches/chicago_burlington_and_quincy_railroad.txt (research pass 2026-08-30)"]}]}, "geometry": {"type": "LineString", "coordinates": [[-99.378907, 40.433907], [-99.396483, 40.429928], [-99.399432, 40.428891], [-99.402603, 40.427205], [-99.488077, 40.352875], [-99.489754, 40.351761], [-99.492025, 40.350841], [-99.512481, 40.34486], [-99.524962, 40.336695], [-99.527276, 40.334828], [-99.52836, 40.33326], [-99.528956, 40.331556], [-99.529613, 40.323856], [-99.533466, 40.311187], [-99.546207, 40.290042], [-99.546482, 40.288325], [-99.545857, 40.271552], [-99.546115, 40.26902], [-99.554314, 40.251771], [-99.558792, 40.231282], [-99.559568, 40.229915], [-99.560667, 40.228859], [-99.562508, 40.227803], [-99.564775, 40.227203], [-99.567908, 40.227314], [-99.595258, 40.233325], [-99.625304, 40.247919], [-99.629398, 40.249327], [-99.641848, 40.251553], [-99.691092, 40.262873], [-99.815623, 40.287223], [-99.828846, 40.289276], [-99.832352, 40.290348], [-99.840832, 40.294504], [-99.845385, 40.296329], [-99.851237, 40.298166], [-99.856498, 40.299373], [-99.863056, 40.300132], [-99.868632, 40.30014], [-99.873654, 40.299647], [-99.883109, 40.297986], [-99.888179, 40.297883], [-99.941004, 40.305239], [-100.008538, 40.302035], [-100.012466, 40.302466], [-100.022452, 40.305216], [-100.026019, 40.305579], [-100.029845, 40.305446], [-100.059263, 40.300522], [-100.11905, 40.286952], [-100.14856, 40.284925], [-100.15231, 40.284198], [-100.164613, 40.280767], [-100.194727, 40.276342], [-100.228544, 40.269029], [-100.307035, 40.247997], [-100.38584, 40.240526], [-100.425882, 40.230766], [-100.457754, 40.226064], [-100.490865, 40.225888], [-100.495666, 40.225331], [-100.534114, 40.216369], [-100.560425, 40.205397], [-100.566183, 40.202372], [-100.580786, 40.197464], [-100.585338, 40.196665], [-100.606812, 40.196525], [-100.633784, 40.197532], [-100.636531, 40.197125], [-100.64124, 40.19568], [-100.644654, 40.195399], [-100.688557, 40.200489], [-100.692016, 40.201201], [-100.793087, 40.230262], [-100.795819, 40.230768], [-100.799478, 40.230991], [-100.81644, 40.230489], [-100.821281, 40.22927], [-100.866641, 40.212162], [-100.869619, 40.211309], [-100.900241, 40.204778], [-100.910804, 40.201188], [-100.915586, 40.200053], [-100.942403, 40.19688], [-100.978384, 40.18979], [-101.017807, 40.178633], [-101.051128, 40.175086], [-101.097555, 40.173324], [-101.121667, 40.169987], [-101.205168, 40.150365], [-101.241701, 40.144453], [-101.283636, 40.129869], [-101.287299, 40.12889], [-101.338246, 40.123054], [-101.342139, 40.123169], [-101.355169, 40.124871], [-101.359802, 40.124942], [-101.376463, 40.121763], [-101.485705, 40.079983], [-101.498008, 40.072164], [-101.510698, 40.065815], [-101.515191, 40.062297], [-101.532443, 40.04721], [-101.537008, 40.044571], [-101.559489, 40.038201], [-101.584903, 40.032685], [-101.587403, 40.032414], [-101.591777, 40.032467], [-101.673982, 40.039704], [-101.686012, 40.041864], [-101.689522, 40.042768], [-101.695572, 40.043244], [-101.720691, 40.041749], [-101.778909, 40.02815], [-101.784883, 40.027], [-101.788305, 40.026916], [-101.796575, 40.027468], [-101.806253, 40.026282], [-101.809997, 40.026167], [-101.823823, 40.028318], [-101.828754, 40.028413], [-101.901811, 40.018056], [-101.933512, 40.015549], [-101.939274, 40.016406], [-101.943224, 40.017836], [-101.946376, 40.019664], [-101.960173, 40.029449], [-101.962768, 40.030969], [-101.996796, 40.045163], [-102.024878, 40.058288], [-102.055106, 40.065686], [-102.079276, 40.076782], [-102.082243, 40.077903], [-102.106957, 40.083382], [-102.130383, 40.086157], [-102.134537, 40.086], [-102.144536, 40.084554], [-102.147352, 40.084392], [-102.158731, 40.08515], [-102.203401, 40.08418], [-102.238112, 40.078784], [-102.242779, 40.078592], [-102.246102, 40.078953], [-102.261179, 40.082331], [-102.272315, 40.086455], [-102.275813, 40.08744], [-102.291021, 40.090038], [-102.306009, 40.09502], [-102.317119, 40.100443], [-102.322546, 40.101672], [-102.325805, 40.101836], [-102.329594, 40.101527], [-102.332863, 40.100798], [-102.341758, 40.097963], [-102.345587, 40.097449], [-102.349823, 40.097527], [-102.353169, 40.098077], [-102.383223, 40.105214], [-102.416653, 40.108895], [-102.44713, 40.108283], [-102.473674, 40.113497], [-102.504977, 40.11623], [-102.510281, 40.115868], [-102.543491, 40.109248], [-102.549151, 40.109014], [-102.72674, 40.126013], [-103.20586, 40.622826]]}}, {"type": "Feature", "properties": {"company": "Chicago, Burlington and Quincy Railroad", "line": "Chicago, Burlington and Quincy: Sterling – Cheyenne", "id": "cbq-sterling-cheyenne", "color": "#8E1B3C", "mode": "intercity_rail", "avg_speed_kmh": 35, "speed_source": "estimated, NOT sourced: a mixed-train branch of this era, taken from the kind of service the Feb 1952 Guide shows (Table 69) rather than from any timetable's running times", "geometry_source": "OpenStreetMap via Overpass, 2026-08-30", "geometry_quality": "Real trace from OpenStreetMap: a Dijkstra shortest path over every railway way (rail, abandoned, disused, razed, dismantled) in a corridor around the route, with ways tagged old_railway_operator=CB&Q costed at 1x and all other track at 3x, so the path stays on the Burlington's own alignment wherever OSM records it. Snapped to the report's own station list; every one of the 6 waypoints lies within 1.1 km of the drawn line. OSM lines followed: [abandoned] 102 mi; UP Sidney Subdivision 3 mi; [rail] 0 mi. TRACED LENGTH 105.6 mi against a DOCUMENTED 106 mi (-0%). No straight-line approximation: the whole route is on mapped track. ERA NOTE: much of the surviving alignment is today's BNSF, which is the CB&Q's own successor on this route, so the modern centreline is the historical one; where the line is abandoned the trace follows the recorded grade. Simplified to a 20 m Douglas-Peucker tolerance.", "segments": [{"start": 1951, "end": 1952, "headway_min": 1440, "note": "Feb 1952 Table 69 heads both columns \"Mixed\" and shows times (lv 12 00 Noon, arr 11 30 AM). THIS TWO-YEAR SPAN IS A CONFIRMED-ONLY STUB, NOT THE LIFE OF THE BRANCH. The Feb 1952 Official Guide is a single snapshot, and it is the only evidence anyone has found for passenger service on this line. The branch is certainly far older and probably ran on past 1952; drawing 1951-1952 is a refusal to invent the other seventy years, not a claim they did not happen. BOTH ends are withheld unknowns. Headway is an estimate and is NOT sourced.", "sources": ["Segment-level for 1951 ONLY: Table 69 of the Feb 1952 Official Guide -- Feb 1952 Table 69 heads both columns \"Mixed\" and shows times (lv 12 00 Noon, arr 11 30 AM). NOT SOURCED for any other year: no start year and no end year have been established for this branch. Headway and avg_speed_kmh are estimates and are NOT sourced.", "Feb 1952 Official Guide of the Railways (schedules effective 30 September 1951 / 27 January 1952), Burlington Lines section; full OCR cached at research/sources/official_guide_1952.txt", "research/branches/chicago_burlington_and_quincy_railroad.txt (research pass 2026-08-30)"]}]}, "geometry": {"type": "LineString", "coordinates": [[-103.214667, 40.624276], [-103.26915, 40.600999], [-103.329821, 40.580766], [-103.337864, 40.579758], [-103.376809, 40.576368], [-103.382207, 40.576116], [-103.385714, 40.576425], [-103.388834, 40.577157], [-103.411338, 40.583367], [-103.415563, 40.583273], [-103.417977, 40.582787], [-103.419692, 40.582245], [-103.42218, 40.580751], [-103.425549, 40.577557], [-103.436045, 40.560486], [-103.43766, 40.558406], [-103.439291, 40.557453], [-103.441206, 40.556378], [-103.445566, 40.555196], [-103.45033, 40.554347], [-103.471442, 40.552527], [-103.486556, 40.55423], [-103.507746, 40.56225], [-103.52326, 40.567021], [-103.524799, 40.567664], [-103.530297, 40.571544], [-103.533971, 40.573546], [-103.53806, 40.574907], [-103.608099, 40.589534], [-103.639513, 40.5959], [-103.642115, 40.596205], [-103.650254, 40.598131], [-103.663793, 40.602305], [-103.669958, 40.603716], [-103.705359, 40.607437], [-103.726663, 40.610402], [-103.738021, 40.611018], [-103.743585, 40.613013], [-103.7505, 40.616219], [-103.767072, 40.622623], [-103.771339, 40.623717], [-103.777109, 40.623466], [-103.780927, 40.62295], [-103.883426, 40.59664], [-103.892579, 40.596628], [-103.916779, 40.597704], [-103.931767, 40.598815], [-103.936537, 40.599599], [-103.954432, 40.605484], [-103.95802, 40.607005], [-103.961558, 40.609261], [-103.969764, 40.61727], [-103.974955, 40.621373], [-103.976824, 40.62228], [-103.994071, 40.627539], [-103.997003, 40.628721], [-104.000505, 40.630823], [-104.005438, 40.63489], [-104.044445, 40.660454], [-104.047639, 40.663326], [-104.048953, 40.665297], [-104.063705, 40.691945], [-104.066092, 40.694859], [-104.143245, 40.76079], [-104.236815, 40.886902], [-104.26259, 40.929351], [-104.264166, 40.933728], [-104.26429, 40.943783], [-104.265413, 40.946929], [-104.26694, 40.949396], [-104.268718, 40.951372], [-104.272074, 40.953815], [-104.313985, 40.978967], [-104.319766, 40.983476], [-104.32766, 40.990792], [-104.332979, 40.995818], [-104.377093, 41.060513], [-104.379598, 41.062832], [-104.389882, 41.068739], [-104.395195, 41.072143], [-104.410062, 41.082791], [-104.424073, 41.088702], [-104.437666, 41.095053], [-104.448422, 41.098831], [-104.454701, 41.100286], [-104.483576, 41.104639], [-104.503889, 41.103999], [-104.507988, 41.10415], [-104.511678, 41.104856], [-104.524256, 41.108245], [-104.534819, 41.110008], [-104.542461, 41.111606], [-104.554824, 41.111983], [-104.568348, 41.113598], [-104.580453, 41.117165], [-104.599001, 41.12164], [-104.618887, 41.123874], [-104.643071, 41.122523], [-104.698715, 41.123847], [-104.71291, 41.122301], [-104.715427, 41.121522], [-104.722279, 41.118398], [-104.726376, 41.117882], [-104.736916, 41.119469], [-104.739433, 41.120156], [-104.754099, 41.127768], [-104.75421, 41.128209], [-104.786598, 41.130094], [-104.790328, 41.130848], [-104.800955, 41.134523], [-104.803463, 41.134949], [-104.806454, 41.1345], [-104.814359, 41.131562]]}}, {"type": "Feature", "properties": {"company": "Chicago, Burlington and Quincy Railroad", "line": "Chicago, Burlington and Quincy: Orleans – St. Francis", "id": "cbq-orleans-st-francis", "color": "#8E1B3C", "mode": "intercity_rail", "avg_speed_kmh": 40, "speed_source": "estimated, NOT sourced: a secondary branch of this era, taken from the kind of service the Feb 1952 Guide shows (Table 67) rather than from any timetable's running times", "geometry_source": "OpenStreetMap via Overpass, 2026-08-30", "geometry_quality": "Real trace from OpenStreetMap: a Dijkstra shortest path over every railway way (rail, abandoned, disused, razed, dismantled) in a corridor around the route, with ways tagged old_railway_operator=CB&Q costed at 1x and all other track at 3x, so the path stays on the Burlington's own alignment wherever OSM records it. Snapped to the report's own station list; every one of the 6 waypoints lies within 1.5 km of the drawn line. OSM lines followed: Nebraska, Kansas, & Colorado Railway 91 mi; Burlington Northern Railroad 37 mi; [disused] 4 mi. TRACED LENGTH 132.6 mi against a DOCUMENTED 138 mi (-4%). No straight-line approximation: the whole route is on mapped track. ERA NOTE: much of the surviving alignment is today's BNSF, which is the CB&Q's own successor on this route, so the modern centreline is the historical one; where the line is abandoned the trace follows the recorded grade. Simplified to a 20 m Douglas-Peucker tolerance.", "segments": [{"start": 1951, "end": 1952, "headway_min": 720, "note": "Feb 1952 Table 67, times legible. THIS TWO-YEAR SPAN IS A CONFIRMED-ONLY STUB, NOT THE LIFE OF THE BRANCH. The Feb 1952 Official Guide is a single snapshot, and it is the only evidence anyone has found for passenger service on this line. The branch is certainly far older and probably ran on past 1952; drawing 1951-1952 is a refusal to invent the other seventy years, not a claim they did not happen. BOTH ends are withheld unknowns. Headway is an estimate and is NOT sourced.", "sources": ["Segment-level for 1951 ONLY: Table 67 of the Feb 1952 Official Guide -- Feb 1952 Table 67, times legible. NOT SOURCED for any other year: no start year and no end year have been established for this branch. Headway and avg_speed_kmh are estimates and are NOT sourced.", "Feb 1952 Official Guide of the Railways (schedules effective 30 September 1951 / 27 January 1952), Burlington Lines section; full OCR cached at research/sources/official_guide_1952.txt", "research/branches/chicago_burlington_and_quincy_railroad.txt (research pass 2026-08-30)"]}]}, "geometry": {"type": "LineString", "coordinates": [[-99.4649, 40.132201], [-99.466053, 40.133535], [-99.467095, 40.133836], [-99.526904, 40.131289], [-99.549716, 40.132182], [-99.607674, 40.129975], [-99.63245, 40.135355], [-99.635067, 40.136544], [-99.643224, 40.143118], [-99.645987, 40.144715], [-99.689402, 40.160449], [-99.692461, 40.161067], [-99.697587, 40.161237], [-99.700785, 40.160868], [-99.70552, 40.159749], [-99.708186, 40.159523], [-99.715387, 40.160731], [-99.718737, 40.160897], [-99.729228, 40.160009], [-99.78162, 40.145586], [-99.802791, 40.141871], [-99.814607, 40.13834], [-99.816739, 40.136798], [-99.818771, 40.134187], [-99.821135, 40.13287], [-99.840399, 40.126216], [-99.844623, 40.125281], [-99.875616, 40.1236], [-99.879174, 40.122984], [-99.886307, 40.120306], [-99.888833, 40.120101], [-99.891127, 40.120305], [-99.912867, 40.124965], [-99.965078, 40.129197], [-99.969664, 40.128535], [-99.990134, 40.121308], [-100.00636, 40.112597], [-100.010103, 40.111565], [-100.116274, 40.110371], [-100.174429, 40.101089], [-100.179695, 40.099373], [-100.233893, 40.072237], [-100.235789, 40.071133], [-100.241605, 40.065575], [-100.243776, 40.064185], [-100.269431, 40.052886], [-100.272986, 40.051705], [-100.276189, 40.051119], [-100.279959, 40.050938], [-100.36384, 40.054105], [-100.367519, 40.053795], [-100.395266, 40.047309], [-100.39949, 40.045321], [-100.425853, 40.02903], [-100.428879, 40.027624], [-100.527493, 40.001924], [-100.533859, 39.999986], [-100.536753, 39.998462], [-100.5395, 39.996393], [-100.545818, 39.988863], [-100.550449, 39.985253], [-100.555018, 39.982637], [-100.567015, 39.978347], [-100.570436, 39.976158], [-100.587607, 39.958562], [-100.590038, 39.956611], [-100.689812, 39.914769], [-100.693837, 39.913614], [-100.697417, 39.913154], [-100.718388, 39.913807], [-100.72082, 39.913664], [-100.792142, 39.9047], [-100.797649, 39.903827], [-100.844903, 39.89386], [-100.849525, 39.891727], [-100.881329, 39.872253], [-100.885064, 39.870287], [-100.90919, 39.861132], [-100.92718, 39.857216], [-100.9461, 39.856141], [-100.948455, 39.855862], [-100.950593, 39.855191], [-100.972725, 39.841571], [-100.976312, 39.840057], [-100.990522, 39.835251], [-100.993174, 39.833936], [-101.002897, 39.827758], [-101.009476, 39.824813], [-101.012115, 39.824131], [-101.046759, 39.82313], [-101.049248, 39.823584], [-101.059697, 39.827045], [-101.061993, 39.827296], [-101.100493, 39.82293], [-101.104771, 39.822657], [-101.127024, 39.82177], [-101.129652, 39.821945], [-101.136784, 39.823292], [-101.139323, 39.823484], [-101.142181, 39.822936], [-101.146242, 39.819913], [-101.147816, 39.819084], [-101.153234, 39.8177], [-101.156093, 39.817277], [-101.163623, 39.816948], [-101.167596, 39.81581], [-101.169471, 39.815559], [-101.177811, 39.815736], [-101.18498, 39.813941], [-101.187345, 39.81364], [-101.18935, 39.813865], [-101.191706, 39.814941], [-101.205299, 39.825828], [-101.20793, 39.826629], [-101.210728, 39.826539], [-101.212547, 39.825922], [-101.216306, 39.823934], [-101.253605, 39.803135], [-101.256417, 39.801635], [-101.258691, 39.800893], [-101.523326, 39.757061], [-101.526986, 39.756662], [-101.668032, 39.76515], [-101.673196, 39.764742], [-101.691043, 39.76101], [-101.694445, 39.760967], [-101.728187, 39.767356], [-101.741808, 39.77122], [-101.769998, 39.784868], [-101.772114, 39.785516], [-101.774904, 39.785786], [-101.791171, 39.785808], [-101.794884, 39.785149]]}}, {"type": "Feature", "properties": {"company": "Chicago, Burlington and Quincy Railroad", "line": "Chicago, Burlington and Quincy: Orleans – Oberlin", "id": "cbq-orleans-oberlin", "color": "#8E1B3C", "mode": "intercity_rail", "avg_speed_kmh": 32, "speed_source": "estimated, NOT sourced: a mixed-train branch of this era, taken from the kind of service the Feb 1952 Guide shows (Table 66) rather than from any timetable's running times", "geometry_source": "OpenStreetMap via Overpass, 2026-08-30", "geometry_quality": "Real trace from OpenStreetMap: a Dijkstra shortest path over every railway way (rail, abandoned, disused, razed, dismantled) in a corridor around the route, with ways tagged old_railway_operator=CB&Q costed at 1x and all other track at 3x, so the path stays on the Burlington's own alignment wherever OSM records it. Snapped to the report's own station list; every one of the 2 waypoints lies within 2.1 km of the drawn line. OSM lines followed: Nebraska, Kansas, & Colorado Railway 29 mi; NKCR RR 28 mi; Kyle RR Phillipsburg Subdivision 18 mi; [abandoned] 0 mi; [disused] 0 mi. TRACED LENGTH 75.9 mi against a DOCUMENTED 45 mi (+69%). No straight-line approximation: the whole route is on mapped track. MILEAGE NOTE: report block [56] records the mileage as UNKNOWN. The \"45 mi\" this trace was checked against is a guess made while building the waypoint list, not a documented figure, so the +69%% is meaningless -- the traced 76 mi is simply the first measurement anyone has of this line, and it is unchecked. ERA NOTE: much of the surviving alignment is today's BNSF, which is the CB&Q's own successor on this route, so the modern centreline is the historical one; where the line is abandoned the trace follows the recorded grade. Simplified to a 20 m Douglas-Peucker tolerance.", "segments": [{"start": 1951, "end": 1952, "headway_min": 1440, "note": "Feb 1952 Table 66 says \"Mixed train provides service. Consult agent.\". THIS TWO-YEAR SPAN IS A CONFIRMED-ONLY STUB, NOT THE LIFE OF THE BRANCH. The Feb 1952 Official Guide is a single snapshot, and it is the only evidence anyone has found for passenger service on this line. The branch is certainly far older and probably ran on past 1952; drawing 1951-1952 is a refusal to invent the other seventy years, not a claim they did not happen. BOTH ends are withheld unknowns. Headway is an estimate and is NOT sourced.", "sources": ["Segment-level for 1951 ONLY: Table 66 of the Feb 1952 Official Guide -- Feb 1952 Table 66 says \"Mixed train provides service. Consult agent.\". NOT SOURCED for any other year: no start year and no end year have been established for this branch. Headway and avg_speed_kmh are estimates and are NOT sourced.", "Feb 1952 Official Guide of the Railways (schedules effective 30 September 1951 / 27 January 1952), Burlington Lines section; full OCR cached at research/sources/official_guide_1952.txt", "research/branches/chicago_burlington_and_quincy_railroad.txt (research pass 2026-08-30)"]}]}, "geometry": {"type": "LineString", "coordinates": [[-99.4649, 40.132201], [-99.466053, 40.133535], [-99.467095, 40.133836], [-99.515158, 40.131775], [-99.517564, 40.131432], [-99.520327, 40.130394], [-99.522269, 40.129053], [-99.533289, 40.118864], [-99.534861, 40.11614], [-99.535044, 40.11345], [-99.534321, 40.11136], [-99.520573, 40.088692], [-99.519628, 40.086274], [-99.519579, 40.084472], [-99.52027, 40.082331], [-99.524442, 40.076071], [-99.525212, 40.074205], [-99.525281, 40.071659], [-99.522349, 40.055337], [-99.527042, 40.040494], [-99.527264, 40.038939], [-99.52273, 40.008234], [-99.521437, 40.006207], [-99.50737, 39.989126], [-99.506339, 39.986979], [-99.506309, 39.973501], [-99.50712, 39.971258], [-99.50869, 39.969338], [-99.524762, 39.959696], [-99.536554, 39.949957], [-99.556444, 39.942532], [-99.571798, 39.931945], [-99.573976, 39.930927], [-99.675076, 39.908562], [-99.678027, 39.907573], [-99.680572, 39.90599], [-99.686165, 39.901062], [-99.688785, 39.899315], [-99.712591, 39.887383], [-99.733903, 39.869588], [-99.73514, 39.867891], [-99.745656, 39.857455], [-99.775353, 39.843436], [-99.777653, 39.842619], [-99.786969, 39.840117], [-99.791338, 39.839543], [-99.865934, 39.83887], [-99.86796, 39.838638], [-99.870537, 39.837527], [-99.88151, 39.828833], [-99.883516, 39.827734], [-99.885909, 39.82725], [-99.897784, 39.827165], [-99.900497, 39.826897], [-99.946196, 39.817178], [-100.034558, 39.784532], [-100.035273, 39.783767], [-100.036311, 39.785998], [-100.037941, 39.78731], [-100.046035, 39.790271], [-100.047902, 39.791446], [-100.055673, 39.802475], [-100.058363, 39.804954], [-100.098936, 39.828126], [-100.106516, 39.83174], [-100.130768, 39.841623], [-100.167841, 39.848402], [-100.16981, 39.848279], [-100.172055, 39.847539], [-100.20566, 39.831317], [-100.208061, 39.830468], [-100.212506, 39.830201], [-100.243705, 39.830064], [-100.255965, 39.831702], [-100.259379, 39.831706], [-100.323232, 39.815624], [-100.325915, 39.815376], [-100.341251, 39.81681], [-100.345017, 39.816744], [-100.348418, 39.815698], [-100.362409, 39.808355], [-100.407518, 39.791671], [-100.409661, 39.791042], [-100.414489, 39.790339], [-100.445171, 39.787203], [-100.448937, 39.787553], [-100.451973, 39.788741], [-100.468235, 39.798575], [-100.47925, 39.807594], [-100.481035, 39.809453], [-100.483339, 39.813727], [-100.483806, 39.815599], [-100.483851, 39.817931], [-100.484358, 39.819449], [-100.48733, 39.823555], [-100.489758, 39.82554], [-100.494132, 39.828101], [-100.497073, 39.828745], [-100.49893, 39.82861], [-100.504028, 39.827491], [-100.506451, 39.826215]]}}, {"type": "Feature", "properties": {"company": "Chicago, Burlington and Quincy Railroad", "line": "Chicago, Burlington and Quincy: Holdrege – Moorefield", "id": "cbq-holdrege-moorefield", "color": "#8E1B3C", "mode": "intercity_rail", "avg_speed_kmh": 32, "speed_source": "estimated, NOT sourced: a mixed-train branch of this era, taken from the kind of service the Feb 1952 Guide shows (Table 61) rather than from any timetable's running times", "geometry_source": "OpenStreetMap via Overpass, 2026-08-30", "geometry_quality": "Real trace from OpenStreetMap: a Dijkstra shortest path over every railway way (rail, abandoned, disused, razed, dismantled) in a corridor around the route, with ways tagged old_railway_operator=CB&Q costed at 1x and all other track at 3x, so the path stays on the Burlington's own alignment wherever OSM records it. Snapped to the report's own station list; every one of the 4 waypoints lies within 11.0 km of the drawn line. OSM lines followed: Nebraska, Kansas, & Colorado Railway 61 mi; Nebraska, Kansas, and Colorado Railway 15 mi; Nebraska, Kansas & Colorado Railway 3 mi; BNSF Hastings Subdivision 1 mi; Nebraska, Kansas Colorado Railnet 0 mi; [rail] 0 mi. TRACED LENGTH 63.1 mi against a DOCUMENTED 72 mi (-12%). No straight-line approximation: the whole route is on mapped track. ERA NOTE: much of the surviving alignment is today's BNSF, which is the CB&Q's own successor on this route, so the modern centreline is the historical one; where the line is abandoned the trace follows the recorded grade. Simplified to a 20 m Douglas-Peucker tolerance.", "segments": [{"start": 1951, "end": 1952, "headway_min": 1440, "note": "Feb 1952 Table 61 says \"Mixed train provides service. Consult agent.\". THIS TWO-YEAR SPAN IS A CONFIRMED-ONLY STUB, NOT THE LIFE OF THE BRANCH. The Feb 1952 Official Guide is a single snapshot, and it is the only evidence anyone has found for passenger service on this line. The branch is certainly far older and probably ran on past 1952; drawing 1951-1952 is a refusal to invent the other seventy years, not a claim they did not happen. BOTH ends are withheld unknowns. LOW CONFIDENCE on the exact extent: the OCR does not separate the short south-Nebraska stubs (Moorefield, Maywood, Wellfleet, Somerset, Dickens) cleanly, so which of them the mixed actually served is not established. CURTIS ITSELF IS NOT ON THE DRAWN LINE -- the traced route runs Holdrege - Farnam - Moorefield and passes 11 km from Curtis, so the Curtis spur is left untraced and the label names only what is drawn. Headway is an estimate and is NOT sourced.", "sources": ["Segment-level for 1951 ONLY: Table 61 of the Feb 1952 Official Guide -- Feb 1952 Table 61 says \"Mixed train provides service. Consult agent.\". NOT SOURCED for any other year: no start year and no end year have been established for this branch. Headway and avg_speed_kmh are estimates and are NOT sourced.", "Feb 1952 Official Guide of the Railways (schedules effective 30 September 1951 / 27 January 1952), Burlington Lines section; full OCR cached at research/sources/official_guide_1952.txt", "research/branches/chicago_burlington_and_quincy_railroad.txt (research pass 2026-08-30)"]}]}, "geometry": {"type": "LineString", "coordinates": [[-99.378907, 40.433907], [-99.394898, 40.430325], [-99.392519, 40.431002], [-99.391585, 40.432117], [-99.391989, 40.433606], [-99.393431, 40.43449], [-99.580353, 40.507833], [-99.752237, 40.574633], [-99.7787, 40.586517], [-99.780877, 40.586813], [-99.800826, 40.587046], [-99.803408, 40.587919], [-99.810642, 40.59131], [-99.822267, 40.593], [-99.824284, 40.592824], [-99.831873, 40.591019], [-99.836038, 40.590647], [-99.853448, 40.590498], [-99.85802, 40.590952], [-99.861428, 40.59184], [-99.865001, 40.59342], [-99.867813, 40.595234], [-99.877414, 40.603706], [-99.878361, 40.605082], [-99.880798, 40.611361], [-99.882147, 40.613052], [-99.88363, 40.614221], [-99.91434, 40.629388], [-99.916602, 40.630043], [-99.922556, 40.63099], [-99.926674, 40.631253], [-99.928812, 40.631923], [-99.932612, 40.634103], [-99.933966, 40.635368], [-99.934706, 40.636746], [-99.935205, 40.639975], [-99.936167, 40.641514], [-99.941258, 40.645895], [-99.945957, 40.648144], [-99.948144, 40.648415], [-99.95064, 40.648069], [-99.957651, 40.644967], [-99.963747, 40.641356], [-99.965665, 40.640923], [-99.967663, 40.640922], [-100.003368, 40.652758], [-100.012106, 40.657303], [-100.016145, 40.658924], [-100.033873, 40.663293], [-100.046677, 40.669551], [-100.049087, 40.670401], [-100.051973, 40.670762], [-100.054223, 40.670605], [-100.069549, 40.667771], [-100.07219, 40.667592], [-100.093004, 40.667981], [-100.097179, 40.668399], [-100.101558, 40.669575], [-100.121443, 40.678873], [-100.129752, 40.679926], [-100.13228, 40.680901], [-100.134737, 40.682519], [-100.141206, 40.689216], [-100.143996, 40.691004], [-100.174053, 40.70131], [-100.1761, 40.701773], [-100.181016, 40.702262], [-100.225495, 40.703626], [-100.229595, 40.70328], [-100.242393, 40.701109], [-100.246354, 40.701362], [-100.260776, 40.70647], [-100.264022, 40.707201], [-100.274636, 40.708663], [-100.277613, 40.709486], [-100.282559, 40.711895], [-100.286906, 40.713304], [-100.291599, 40.715935], [-100.293505, 40.716259], [-100.297538, 40.71596], [-100.300001, 40.716251], [-100.305102, 40.718828], [-100.310107, 40.720583], [-100.32073, 40.725229], [-100.33054, 40.728902], [-100.335116, 40.731862], [-100.338457, 40.732741], [-100.342188, 40.732444], [-100.345034, 40.731462], [-100.346899, 40.729571], [-100.348048, 40.727638], [-100.348537, 40.724612], [-100.351387, 40.71441], [-100.352564, 40.712425], [-100.353802, 40.711352], [-100.359335, 40.710451], [-100.369114, 40.711028], [-100.371222, 40.710707], [-100.373068, 40.709934], [-100.37854, 40.70565], [-100.381629, 40.704079], [-100.382901, 40.702789], [-100.383854, 40.70032], [-100.383217, 40.69734], [-100.383298, 40.69568], [-100.384478, 40.69374], [-100.386876, 40.692146], [-100.389193, 40.691587], [-100.393848, 40.691415], [-100.406387, 40.691698], [-100.40915, 40.690763], [-100.410961, 40.689243]]}}, {"type": "Feature", "properties": {"company": "Chicago, Burlington and Quincy Railroad", "line": "Chicago, Burlington and Quincy: South Sioux City – O'Neill", "id": "cbq-south-sioux-city-oneill", "color": "#8E1B3C", "mode": "intercity_rail", "avg_speed_kmh": 35, "speed_source": "estimated, NOT sourced: a mixed-train branch of this era, taken from the kind of service the Feb 1952 Guide shows (Table 59) rather than from any timetable's running times", "geometry_source": "OpenStreetMap via Overpass, 2026-08-30", "geometry_quality": "Real trace from OpenStreetMap: a Dijkstra shortest path over every railway way (rail, abandoned, disused, razed, dismantled) in a corridor around the route, with ways tagged old_railway_operator=CB&Q costed at 1x and all other track at 3x, so the path stays on the Burlington's own alignment wherever OSM records it. Snapped to the report's own station list; every one of the 8 waypoints lies within 1.6 km of the drawn line. OSM lines followed: O'Neill Subdivision 124 mi; BNSF Sioux City Subdivision 2 mi; [rail] 0 mi. TRACED LENGTH 125.4 mi against a DOCUMENTED 126 mi (-0%). No straight-line approximation: the whole route is on mapped track. ERA NOTE: much of the surviving alignment is today's BNSF, which is the CB&Q's own successor on this route, so the modern centreline is the historical one; where the line is abandoned the trace follows the recorded grade. Simplified to a 20 m Douglas-Peucker tolerance.", "segments": [{"start": 1951, "end": 1952, "headway_min": 1440, "note": "Feb 1952 Table 59: \"Mixed train provides service. Consult agent.\". THIS TWO-YEAR SPAN IS A CONFIRMED-ONLY STUB, NOT THE LIFE OF THE BRANCH. The Feb 1952 Official Guide is a single snapshot, and it is the only evidence anyone has found for passenger service on this line. The branch is certainly far older and probably ran on past 1952; drawing 1951-1952 is a refusal to invent the other seventy years, not a claim they did not happen. BOTH ends are withheld unknowns. STOPS AT SOUTH SIOUX CITY ON PURPOSE. The Guide adds \"A Bus and taxi service available between South Sioux City, Neb., and Sioux City, Ia.\", so the Missouri River crossing into Sioux City was NOT a CB&Q passenger rail link in 1951 and is not drawn. Headway is an estimate and is NOT sourced.", "sources": ["Segment-level for 1951 ONLY: Table 59 of the Feb 1952 Official Guide -- Feb 1952 Table 59: \"Mixed train provides service. Consult agent.\". NOT SOURCED for any other year: no start year and no end year have been established for this branch. Headway and avg_speed_kmh are estimates and are NOT sourced.", "Feb 1952 Official Guide of the Railways (schedules effective 30 September 1951 / 27 January 1952), Burlington Lines section; full OCR cached at research/sources/official_guide_1952.txt", "research/branches/chicago_burlington_and_quincy_railroad.txt (research pass 2026-08-30)"]}]}, "geometry": {"type": "LineString", "coordinates": [[-96.418417, 42.460799], [-96.419293, 42.45645], [-96.419353, 42.437832], [-96.419885, 42.436054], [-96.421525, 42.434648], [-96.423833, 42.433635], [-96.435107, 42.430304], [-96.43817, 42.430059], [-96.570411, 42.446427], [-96.575229, 42.446823], [-96.58228, 42.446698], [-96.584446, 42.447031], [-96.586839, 42.447825], [-96.589234, 42.449313], [-96.603932, 42.464631], [-96.610815, 42.469354], [-96.616677, 42.471563], [-96.628335, 42.474485], [-96.631171, 42.474642], [-96.634366, 42.473719], [-96.647307, 42.466711], [-96.649098, 42.465389], [-96.654732, 42.457299], [-96.657755, 42.448752], [-96.659325, 42.446003], [-96.671575, 42.435894], [-96.674304, 42.43453], [-96.676698, 42.434208], [-96.679281, 42.434548], [-96.704954, 42.442111], [-96.720752, 42.444283], [-96.722577, 42.444741], [-96.724838, 42.445865], [-96.732435, 42.45336], [-96.734448, 42.454794], [-96.74759, 42.461891], [-96.749618, 42.462568], [-96.752735, 42.462647], [-96.754733, 42.462149], [-96.76503, 42.45683], [-96.775706, 42.450173], [-96.786386, 42.446925], [-96.790297, 42.442397], [-96.795907, 42.439149], [-96.798722, 42.436215], [-96.800489, 42.435103], [-96.802573, 42.434504], [-96.806108, 42.434101], [-96.815359, 42.430211], [-96.816787, 42.429864], [-96.818988, 42.429689], [-96.826684, 42.429923], [-96.830812, 42.429083], [-96.835511, 42.426689], [-96.839222, 42.422288], [-96.840752, 42.419283], [-96.841467, 42.418583], [-96.843046, 42.417868], [-96.846474, 42.417645], [-96.848161, 42.417228], [-96.849654, 42.416372], [-96.852291, 42.41388], [-96.854516, 42.412641], [-96.858326, 42.411736], [-96.866867, 42.413085], [-96.873744, 42.412306], [-96.875135, 42.411879], [-96.876686, 42.410924], [-96.879435, 42.406734], [-96.884978, 42.405037], [-96.886589, 42.405165], [-96.887763, 42.405691], [-96.890581, 42.408335], [-96.891302, 42.409756], [-96.891959, 42.414512], [-96.892676, 42.416015], [-96.894666, 42.417603], [-96.897949, 42.418697], [-96.900269, 42.418695], [-96.910968, 42.417431], [-96.915527, 42.41842], [-96.91939, 42.418756], [-96.921758, 42.418657], [-96.924074, 42.41765], [-96.927729, 42.413732], [-96.929339, 42.413002], [-96.934106, 42.412011], [-96.946679, 42.41305], [-96.957017, 42.415939], [-96.960059, 42.416294], [-96.98797, 42.412847], [-96.995468, 42.414408], [-97.012283, 42.415295], [-97.019905, 42.418623], [-97.024739, 42.42021], [-97.028919, 42.422244], [-97.03468, 42.422378], [-97.039949, 42.420577], [-97.041779, 42.420494], [-97.053204, 42.424652], [-97.10791, 42.434812], [-97.113146, 42.435079], [-97.125217, 42.432975], [-97.149786, 42.423507], [-97.179408, 42.420902], [-97.192494, 42.416827], [-97.212206, 42.413748], [-97.227232, 42.412566], [-97.257616, 42.406209], [-97.261278, 42.405145], [-97.270095, 42.4015], [-97.307994, 42.389713], [-97.322899, 42.386888], [-97.346218, 42.384978], [-97.354203, 42.383474], [-97.361223, 42.3806], [-97.367644, 42.378563], [-97.376643, 42.37644], [-97.384145, 42.37223], [-97.397295, 42.368665], [-97.399232, 42.368865], [-97.407616, 42.372599], [-97.415649, 42.375587], [-97.417424, 42.375561], [-97.421721, 42.374374], [-97.435048, 42.374933], [-97.439631, 42.377503], [-97.447546, 42.380343], [-97.459663, 42.382912], [-97.467788, 42.387791], [-97.474248, 42.390321], [-97.476106, 42.390772], [-97.483371, 42.390965], [-97.490816, 42.389864], [-97.492557, 42.389184], [-97.496913, 42.386558], [-97.50424, 42.385204], [-97.506657, 42.384999], [-97.514497, 42.385725], [-97.516435, 42.38524], [-97.519722, 42.383488], [-97.523143, 42.379533], [-97.530761, 42.375296], [-97.534587, 42.371072], [-97.535985, 42.368846], [-97.537442, 42.3679], [-97.549622, 42.367043], [-97.557155, 42.364204], [-97.571496, 42.362801], [-97.627409, 42.347308], [-97.633265, 42.346293], [-97.706219, 42.348779], [-97.717818, 42.350375], [-97.719932, 42.350255], [-97.728087, 42.348401], [-97.731246, 42.348169], [-97.755577, 42.348547], [-97.776, 42.349734], [-97.77888, 42.3493], [-97.793269, 42.345873], [-97.820876, 42.345122], [-97.823499, 42.344746], [-97.840982, 42.3379], [-97.844405, 42.337365], [-97.869018, 42.338113], [-97.90061, 42.336898], [-97.945806, 42.336052], [-97.948909, 42.33634], [-97.962375, 42.338645], [-97.992019, 42.340572], [-98.043723, 42.340296], [-98.046655, 42.340151], [-98.091391, 42.33375], [-98.108883, 42.333256], [-98.124009, 42.330726], [-98.158193, 42.329804], [-98.201635, 42.330573], [-98.225616, 42.330097], [-98.325114, 42.3532], [-98.329344, 42.354758], [-98.416222, 42.39918], [-98.419887, 42.400656], [-98.505911, 42.421266], [-98.640692, 42.452953]]}}, {"type": "Feature", "properties": {"company": "Chicago, Burlington and Quincy Railroad", "line": "Chicago, Burlington and Quincy: Omaha – Prague", "id": "cbq-omaha-prague", "color": "#8E1B3C", "mode": "intercity_rail", "avg_speed_kmh": 40, "speed_source": "estimated, NOT sourced: a secondary branch of this era, taken from the kind of service the Feb 1952 Guide shows (Table 51) rather than from any timetable's running times", "geometry_source": "OpenStreetMap via Overpass, 2026-08-30", "geometry_quality": "Real trace from OpenStreetMap: a Dijkstra shortest path over every railway way (rail, abandoned, disused, razed, dismantled) in a corridor around the route, with ways tagged old_railway_operator=CB&Q costed at 1x and all other track at 3x, so the path stays on the Burlington's own alignment wherever OSM records it. Snapped to the report's own station list; every one of the 6 waypoints lies within 2.2 km of the drawn line. OSM lines followed: BNSF Creston Subdivision 25 mi; BNSF Omaha Subdivision 17 mi; BNSF Sioux City Subdivision 15 mi; UP Lincoln Subdivision 13 mi; [abandoned] 12 mi; C&NW Superior Branch 1 mi. TRACED LENGTH 83.5 mi against a DOCUMENTED 90 mi (-7%). No straight-line approximation: the whole route is on mapped track. ERA NOTE: much of the surviving alignment is today's BNSF, which is the CB&Q's own successor on this route, so the modern centreline is the historical one; where the line is abandoned the trace follows the recorded grade. Simplified to a 20 m Douglas-Peucker tolerance.", "segments": [{"start": 1875, "end": 1952, "headway_min": 720, "note": "branchline.uk nebraskarrs route 24 (Oreapolis - Schuyler): four stations lettered y = the 1875 Official Guide. Feb 1952 Table 51, times legible. THE 1952 END IS THE LAST CONFIRMED YEAR, NOT A KNOWN END. No source consulted dates when passenger service actually stopped here; the Burlington's branch trains were swept away somewhere between about 1952 and 1968 and not one of those discontinuances has been dated. The end year is a withheld unknown, not an abandonment -- DO NOT extend this line to a rounder year without evidence. Equally, 1875 is the earliest year positively CONFIRMED, not the year the line opened: the branch is older than the map shows, and the confirmed start is deliberately late rather than guessed early. Headway is an estimate and is NOT sourced.", "sources": ["Segment-level: start year 1875 from branchline.uk (John Fowler, Passenger Stations & Stops) -- branchline.uk nebraskarrs route 24 (Oreapolis - Schuyler): four stations lettered y = the 1875 Official Guide. End year 1952 from Table 51 of the Feb 1952 Official Guide -- Feb 1952 Table 51, times legible. The end is a FLOOR on service, not the year it stopped. Headway and avg_speed_kmh are estimates and are NOT sourced.", "Feb 1952 Official Guide of the Railways (schedules effective 30 September 1951 / 27 January 1952), Burlington Lines section; full OCR cached at research/sources/official_guide_1952.txt", "https://www.branchline.uk/jfpdf/nebraskarrs.pdf", "research/branches/chicago_burlington_and_quincy_railroad.txt (research pass 2026-08-30)"]}]}, "geometry": {"type": "LineString", "coordinates": [[-95.930666, 41.255319], [-95.931657, 41.250764], [-95.93328, 41.250816], [-95.930781, 41.250841], [-95.926654, 41.249884], [-95.924124, 41.24915], [-95.92253, 41.248151], [-95.920364, 41.245562], [-95.918714, 41.242277], [-95.91594, 41.238374], [-95.914488, 41.234826], [-95.914016, 41.232652], [-95.91441, 41.230639], [-95.915896, 41.228362], [-95.927997, 41.219816], [-95.929305, 41.218414], [-95.930938, 41.215804], [-95.931897, 41.212771], [-95.932539, 41.206733], [-95.931278, 41.200487], [-95.929719, 41.196088], [-95.928034, 41.193282], [-95.925005, 41.189762], [-95.92099, 41.185953], [-95.91895, 41.18457], [-95.917078, 41.183797], [-95.914414, 41.183246], [-95.907647, 41.183407], [-95.905618, 41.183099], [-95.901088, 41.181033], [-95.89889, 41.179415], [-95.893392, 41.172877], [-95.889418, 41.166806], [-95.887465, 41.162043], [-95.885761, 41.152752], [-95.887218, 41.137796], [-95.889268, 41.127701], [-95.889301, 41.112525], [-95.889867, 41.110105], [-95.891048, 41.108331], [-95.893135, 41.106589], [-95.895455, 41.105512], [-95.902588, 41.103531], [-95.905059, 41.102542], [-95.906998, 41.101289], [-95.910768, 41.097651], [-95.912235, 41.095403], [-95.916568, 41.083304], [-95.923451, 41.072253], [-95.925543, 41.070207], [-95.931218, 41.06714], [-95.932525, 41.065917], [-95.933062, 41.064356], [-95.932792, 41.062893], [-95.926351, 41.052272], [-95.926257, 41.051033], [-95.927066, 41.049727], [-95.928459, 41.048997], [-95.929742, 41.048834], [-95.960885, 41.052775], [-95.963462, 41.05348], [-95.966454, 41.055115], [-95.968815, 41.055583], [-95.971581, 41.055192], [-95.983387, 41.050452], [-95.986457, 41.049906], [-96.036743, 41.056949], [-96.064004, 41.056838], [-96.075438, 41.056191], [-96.078032, 41.055722], [-96.080431, 41.054772], [-96.081646, 41.053693], [-96.087915, 41.045056], [-96.089686, 41.043787], [-96.095829, 41.040471], [-96.104517, 41.036097], [-96.125724, 41.030016], [-96.130466, 41.027771], [-96.140652, 41.019116], [-96.147292, 41.012355], [-96.154552, 41.008149], [-96.158058, 41.005216], [-96.160513, 41.003849], [-96.170192, 41.001166], [-96.18389, 40.99869], [-96.19153, 40.998712], [-96.198741, 40.996221], [-96.204037, 40.993901], [-96.210206, 40.993395], [-96.215986, 40.992511], [-96.22321, 40.993984], [-96.230232, 40.994165], [-96.233123, 40.994899], [-96.234434, 40.995626], [-96.254137, 41.011346], [-96.256893, 41.013028], [-96.260219, 41.014427], [-96.266887, 41.016285], [-96.283964, 41.019642], [-96.294077, 41.020597], [-96.297063, 41.021432], [-96.298881, 41.022556], [-96.305268, 41.027776], [-96.307703, 41.031883], [-96.309615, 41.03347], [-96.312199, 41.034609], [-96.316659, 41.035606], [-96.321082, 41.037144], [-96.326929, 41.037773], [-96.329382, 41.038808], [-96.330997, 41.040348], [-96.334762, 41.046732], [-96.335966, 41.047824], [-96.33765, 41.048659], [-96.340364, 41.049142], [-96.3427, 41.048921], [-96.344834, 41.048059], [-96.352026, 41.043633], [-96.353429, 41.043526], [-96.354671, 41.044207], [-96.355009, 41.045144], [-96.355218, 41.055634], [-96.356313, 41.148016], [-96.364878, 41.199594], [-96.365382, 41.201707], [-96.366964, 41.204875], [-96.379037, 41.220926], [-96.39151, 41.231984], [-96.392908, 41.233792], [-96.394052, 41.236675], [-96.396064, 41.252058], [-96.3972, 41.248759], [-96.398221, 41.243495], [-96.39925, 41.2422], [-96.400859, 41.241439], [-96.403562, 41.24145], [-96.407126, 41.242755], [-96.412119, 41.244078], [-96.415427, 41.245863], [-96.417719, 41.246017], [-96.428209, 41.242199], [-96.43565, 41.240981], [-96.445163, 41.238763], [-96.454497, 41.235043], [-96.458932, 41.232402], [-96.461922, 41.231302], [-96.494694, 41.227177], [-96.498815, 41.226952], [-96.603453, 41.22759], [-96.605831, 41.226759], [-96.608094, 41.224683], [-96.611793, 41.214562], [-96.621135, 41.214932], [-96.621286, 41.206134], [-96.620421, 41.203586], [-96.621311, 41.204962], [-96.62334, 41.206822], [-96.627116, 41.209195], [-96.633296, 41.210963], [-96.641439, 41.212803], [-96.658314, 41.217908], [-96.663378, 41.221405], [-96.683248, 41.239382], [-96.690372, 41.246191], [-96.696766, 41.253311], [-96.698655, 41.255903], [-96.700286, 41.257193], [-96.70668, 41.26057], [-96.711701, 41.262742], [-96.716851, 41.263774], [-96.74878, 41.267936], [-96.755518, 41.269549], [-96.780065, 41.280955], [-96.787275, 41.283933], [-96.790685, 41.285842], [-96.797654, 41.292066]]}}, {"type": "Feature", "properties": {"company": "Chicago, Burlington and Quincy Railroad", "line": "Chicago, Burlington and Quincy: Lincoln – Columbus", "id": "cbq-lincoln-columbus", "color": "#8E1B3C", "mode": "intercity_rail", "avg_speed_kmh": 45, "speed_source": "estimated, NOT sourced: a secondary branch of this era, taken from the kind of service the Feb 1952 Guide shows (Table 53) rather than from any timetable's running times", "geometry_source": "OpenStreetMap via Overpass, 2026-08-30", "geometry_quality": "Real trace from OpenStreetMap: a Dijkstra shortest path over every railway way (rail, abandoned, disused, razed, dismantled) in a corridor around the route, with ways tagged old_railway_operator=CB&Q costed at 1x and all other track at 3x, so the path stays on the Burlington's own alignment wherever OSM records it. Snapped to the report's own station list; every one of the 5 waypoints lies within 0.8 km of the drawn line. OSM lines followed: BNSF Bellwood Subdivision 44 mi; Burlington Northern 12 mi; [abandoned] 7 mi; UP Lincoln Subdivision 4 mi; Woodlawn Industrial Track 2 mi; [rail] 2 mi. TRACED LENGTH 72.3 mi against a DOCUMENTED 71 mi (+2%). No straight-line approximation: the whole route is on mapped track. ERA NOTE: much of the surviving alignment is today's BNSF, which is the CB&Q's own successor on this route, so the modern centreline is the historical one; where the line is abandoned the trace follows the recorded grade. Simplified to a 20 m Douglas-Peucker tolerance.", "segments": [{"start": 1875, "end": 1952, "headway_min": 720, "note": "branchline.uk nebraskarrs route 36 (Lincoln - Columbus): three stations lettered y = the 1875 Official Guide. Feb 1952 Table 53, times legible. THE 1952 END IS THE LAST CONFIRMED YEAR, NOT A KNOWN END. No source consulted dates when passenger service actually stopped here; the Burlington's branch trains were swept away somewhere between about 1952 and 1968 and not one of those discontinuances has been dated. The end year is a withheld unknown, not an abandonment -- DO NOT extend this line to a rounder year without evidence. Equally, 1875 is the earliest year positively CONFIRMED, not the year the line opened: the branch is older than the map shows, and the confirmed start is deliberately late rather than guessed early. Headway is an estimate and is NOT sourced.", "sources": ["Segment-level: start year 1875 from branchline.uk (John Fowler, Passenger Stations & Stops) -- branchline.uk nebraskarrs route 36 (Lincoln - Columbus): three stations lettered y = the 1875 Official Guide. End year 1952 from Table 53 of the Feb 1952 Official Guide -- Feb 1952 Table 53, times legible. The end is a FLOOR on service, not the year it stopped. Headway and avg_speed_kmh are estimates and are NOT sourced.", "Feb 1952 Official Guide of the Railways (schedules effective 30 September 1951 / 27 January 1952), Burlington Lines section; full OCR cached at research/sources/official_guide_1952.txt", "https://www.branchline.uk/jfpdf/nebraskarrs.pdf", "research/branches/chicago_burlington_and_quincy_railroad.txt (research pass 2026-08-30)"]}]}, "geometry": {"type": "LineString", "coordinates": [[-96.714244, 40.813563], [-96.714406, 40.817113], [-96.714793, 40.817885], [-96.718268, 40.819699], [-96.721178, 40.823116], [-96.731225, 40.830403], [-96.742346, 40.84256], [-96.743519, 40.845653], [-96.743593, 40.858317], [-96.744101, 40.860082], [-96.745079, 40.861696], [-96.747447, 40.863742], [-96.761357, 40.872226], [-96.763546, 40.873068], [-96.78499, 40.878983], [-96.787575, 40.880363], [-96.794175, 40.886071], [-96.795449, 40.886949], [-96.797268, 40.887596], [-96.801534, 40.887554], [-96.819893, 40.883903], [-96.821583, 40.88376], [-96.824072, 40.884274], [-96.860171, 40.903392], [-96.872819, 40.91159], [-96.881817, 40.91485], [-96.89882, 40.919942], [-96.902132, 40.921343], [-96.911235, 40.926477], [-96.913444, 40.926991], [-96.918993, 40.926766], [-96.921598, 40.927087], [-96.929724, 40.930582], [-96.931257, 40.931751], [-96.93368, 40.934535], [-96.935488, 40.935694], [-96.938973, 40.936925], [-96.940712, 40.937895], [-96.942409, 40.939219], [-96.945408, 40.942788], [-96.948406, 40.944233], [-96.967211, 40.944509], [-96.974389, 40.944038], [-96.98176, 40.945473], [-96.98525, 40.945424], [-97.010494, 40.938153], [-97.043019, 40.934653], [-97.046781, 40.933163], [-97.066611, 40.917859], [-97.067484, 40.916837], [-97.068649, 40.91371], [-97.069356, 40.912865], [-97.072154, 40.911653], [-97.078587, 40.910367], [-97.080025, 40.909683], [-97.080992, 40.909029], [-97.086085, 40.903042], [-97.08733, 40.90206], [-97.090466, 40.901233], [-97.092153, 40.901227], [-97.098562, 40.903828], [-97.101595, 40.90418], [-97.10499, 40.903851], [-97.106703, 40.904552], [-97.109257, 40.911316], [-97.110478, 40.913562], [-97.129683, 40.938539], [-97.167238, 40.972737], [-97.170591, 40.976293], [-97.178227, 40.98763], [-97.179147, 40.989559], [-97.182005, 40.998724], [-97.188441, 41.006977], [-97.200839, 41.031918], [-97.201769, 41.034963], [-97.201835, 41.062944], [-97.201389, 41.073546], [-97.201824, 41.076572], [-97.205154, 41.090324], [-97.205068, 41.092156], [-97.201707, 41.098128], [-97.194118, 41.106045], [-97.192363, 41.107226], [-97.180163, 41.113194], [-97.177037, 41.116219], [-97.176099, 41.11779], [-97.17377, 41.126416], [-97.171168, 41.130389], [-97.168513, 41.139294], [-97.165947, 41.142967], [-97.165308, 41.144611], [-97.165217, 41.155975], [-97.167301, 41.160711], [-97.16768, 41.162365], [-97.167968, 41.172087], [-97.16756, 41.174348], [-97.132138, 41.231154], [-97.131329, 41.232916], [-97.131113, 41.235019], [-97.131628, 41.238458], [-97.133241, 41.244182], [-97.133034, 41.261648], [-97.13401, 41.265503], [-97.135659, 41.268379], [-97.151711, 41.288955], [-97.154769, 41.291954], [-97.15792, 41.29394], [-97.178706, 41.303228], [-97.180908, 41.303438], [-97.185996, 41.302453], [-97.18778, 41.302816], [-97.189481, 41.303616], [-97.192168, 41.306219], [-97.192672, 41.310045], [-97.193496, 41.311397], [-97.194603, 41.31205], [-97.197706, 41.31261], [-97.198919, 41.31318], [-97.201349, 41.315484], [-97.254723, 41.357335], [-97.255897, 41.358636], [-97.258344, 41.362605], [-97.264225, 41.366588], [-97.265515, 41.368495], [-97.266287, 41.371966], [-97.266238, 41.390175], [-97.267134, 41.394771], [-97.267971, 41.395858], [-97.269597, 41.397037], [-97.287424, 41.404867], [-97.294248, 41.408268], [-97.294774, 41.409311], [-97.294944, 41.414117], [-97.298565, 41.423502], [-97.298761, 41.429926], [-97.299623, 41.431305], [-97.300654, 41.431775], [-97.302266, 41.431863], [-97.358211, 41.42793]]}}]}