{"type": "FeatureCollection", "metadata": {"note": "Chicago, Burlington and Quincy secondary main lines -- the through routes that are not branches but were missing from the map: the St. Louis and Kansas City gateways, the Sand Hills crossing, the Denver - Black Hills line and the North Platte valley line to Casper. Traced 2026-08-30 from research/branches/chicago_burlington_and_quincy_railroad.txt. NOTE this file's Lincoln - Alliance feature draws the same physical corridor as burlington_route_lincoln_billings.geojson, which continues to Billings; the two are the same rails carrying different services, and the Sand Hills feature exists because its confirmed start year (1893) and confirmed end (1952) are both different from that layer's.", "source": "research/branches/chicago_burlington_and_quincy_railroad.txt; Feb 1952 Official Guide of the Railways (Burlington Lines section), full OCR cached at research/sources/official_guide_1952.txt; branchline.uk (John Fowler), Passenger Stations & Stops, illinoisrrs2 / iowarrs / nebraskarrs / missourirrs", "pulled": "20260830", "geometry_method": "Overpass corridor fetch per branch (all railway ways: rail, abandoned, disused, razed, dismantled), Dijkstra over a graph in which ways tagged old_railway_operator=CB&Q cost 1x and everything else 3x, waypoints taken from the research report's own via lists and snapped by a dynamic program over up to eight candidate nodes each, with each leg confined to a corridor around its own straight line so the router cannot wander onto a parallel railroad. Every feature's geometry_quality gives its traced length against the report's documented mileage and names any straight-line legs.", "not_yet_sourced": "EVERY BRANCH IN THIS FILE THAT ENDS IN 1952 HAS AN UNKNOWN, WITHHELD END YEAR. The Feb 1952 Official Guide is a single snapshot: it proves the trains were running in September 1951 and says nothing about when they stopped. The Burlington's branch passenger service was swept away somewhere between about 1952 and 1968 and NOT ONE of those discontinuances has been dated by any source consulted. A 1952 end here is where the evidence stops, not where the trains stopped -- do not 'fix' one by rounding it up. Nor is a start year the year a line opened: it is the earliest year a timetable proves, usually a branchline.uk Official-Guide snapshot letter (1875, 1884 or 1893), and the lines are older than the map shows. branchline.uk cannot close a Burlington branch, only open one: outside Nebraska's single d = 1950t there is NO lettered timetable snapshot for the CB&Q between 1893 and 1976 in any of Fowler's state files, and the Missouri CB&Q legend is blank in every position. Still unexploited, and the highest-value source left for this railroad: the 1952 Guide's index of stations carries a per-station freight-only dagger across the whole 11,000-mile system, but the OCR has mangled that dagger into at least four different characters and it was not used.", "branches_deliberately_omitted": []}, "features": [{"type": "Feature", "properties": {"company": "Chicago, Burlington and Quincy Railroad", "line": "Chicago, Burlington and Quincy: St. Louis – Burlington", "id": "cbq-stlouis-hannibal-burlington", "color": "#8E1B3C", "mode": "intercity_rail", "avg_speed_kmh": 60, "speed_source": "estimated, NOT sourced: a secondary branch of this era, taken from the kind of service the Feb 1952 Guide shows (Table 9) rather than from any timetable's running times", "geometry_source": "OpenStreetMap via Overpass, 2026-08-30", "geometry_quality": "Real trace from OpenStreetMap: a Dijkstra shortest path over every railway way (rail, abandoned, disused, razed, dismantled) in a corridor around the route, with ways tagged old_railway_operator=CB&Q costed at 1x and all other track at 3x, so the path stays on the Burlington's own alignment wherever OSM records it. Snapped to the report's own station list; every one of the 6 waypoints lies within 9.1 km of the drawn line. OSM lines followed: BNSF Hannibal Subdivision 122 mi; Keokuk Junction Railway 38 mi; CB&Q 31 mi; Alton District (A&E Line) 24 mi; [abandoned] 10 mi; Merchants Subdivision 10 mi. TRACED LENGTH 222.7 mi against a DOCUMENTED 225 mi (-1%). No straight-line approximation: the whole route is on mapped track. ERA NOTE: much of the surviving alignment is today's BNSF, which is the CB&Q's own successor on this route, so the modern centreline is the historical one; where the line is abandoned the trace follows the recorded grade. Simplified to a 20 m Douglas-Peucker tolerance.", "segments": [{"start": 1886, "end": 1971, "headway_min": 360, "note": "the through St. Louis - Twin Cities route dates from the completion of the Chicago, Burlington and Northern river line in 1886. Amtrak took the surviving intercity trains on 1 May 1971. THE 1971 END IS THE LAST CONFIRMED YEAR, NOT A KNOWN END. No source consulted dates when passenger service actually stopped here; the Burlington's branch trains were swept away somewhere between about 1952 and 1968 and not one of those discontinuances has been dated. The end year is a withheld unknown, not an abandonment -- DO NOT extend this line to a rounder year without evidence. Equally, 1886 is the earliest year positively CONFIRMED, not the year the line opened: the branch is older than the map shows, and the confirmed start is deliberately late rather than guessed early. Road of the Mark Twain Zephyr (from 30 October 1935, St. Louis - Burlington) and the St. Louis end of the Zephyr Rocket, run jointly with the Rock Island to the Twin Cities until 1967. Headway is an estimate and is NOT sourced.", "sources": ["Segment-level: start year 1886 from branchline.uk (John Fowler, Passenger Stations & Stops) -- the through St. Louis - Twin Cities route dates from the completion of the Chicago, Burlington and Northern river line in 1886. End year 1971 from Table 9 of the Feb 1952 Official Guide -- Amtrak took the surviving intercity trains on 1 May 1971. The end is a FLOOR on service, not the year it stopped. Headway and avg_speed_kmh are estimates and are NOT sourced.", "Feb 1952 Official Guide of the Railways (schedules effective 30 September 1951 / 27 January 1952), Burlington Lines section; full OCR cached at research/sources/official_guide_1952.txt", "research/branches/chicago_burlington_and_quincy_railroad.txt (research pass 2026-08-30)"]}]}, "geometry": {"type": "LineString", "coordinates": [[-90.183138, 38.62761], [-90.182496, 38.629022], [-90.181795, 38.632961], [-90.182698, 38.63534], [-90.183714, 38.643567], [-90.184516, 38.646238], [-90.186145, 38.649669], [-90.186503, 38.653021], [-90.193411, 38.666561], [-90.194962, 38.67024], [-90.194885, 38.671256], [-90.194324, 38.672175], [-90.192214, 38.673221], [-90.19563, 38.672759], [-90.199239, 38.673399], [-90.201736, 38.674299], [-90.207719, 38.681132], [-90.210914, 38.682738], [-90.222228, 38.694511], [-90.223445, 38.697269], [-90.229636, 38.704548], [-90.229159, 38.705785], [-90.221497, 38.710107], [-90.220396, 38.711351], [-90.22032, 38.718917], [-90.219791, 38.720013], [-90.217811, 38.722356], [-90.21759, 38.723203], [-90.217821, 38.732625], [-90.218529, 38.734207], [-90.220778, 38.737105], [-90.221322, 38.738899], [-90.220144, 38.744129], [-90.219209, 38.757913], [-90.218656, 38.759433], [-90.21774, 38.760561], [-90.211429, 38.764395], [-90.2097, 38.766256], [-90.208509, 38.768389], [-90.207919, 38.770901], [-90.205343, 38.794418], [-90.206083, 38.796904], [-90.216603, 38.811979], [-90.218571, 38.813312], [-90.225137, 38.815274], [-90.228357, 38.816997], [-90.230299, 38.818754], [-90.234839, 38.824522], [-90.235962, 38.826839], [-90.2385, 38.838183], [-90.238357, 38.84003], [-90.223906, 38.863123], [-90.222746, 38.864604], [-90.221793, 38.865205], [-90.223022, 38.865014], [-90.22434, 38.865323], [-90.309483, 38.904359], [-90.313947, 38.905603], [-90.318868, 38.905962], [-90.322931, 38.905538], [-90.33668, 38.902633], [-90.563511, 38.854019], [-90.56864, 38.853129], [-90.573342, 38.853137], [-90.576407, 38.853612], [-90.579705, 38.854582], [-90.733397, 38.910155], [-90.737984, 38.912479], [-90.741405, 38.915464], [-90.743242, 38.918032], [-90.744582, 38.921403], [-90.747028, 38.937113], [-90.737664, 38.989756], [-90.743296, 39.066958], [-90.75119, 39.101924], [-90.766561, 39.133982], [-90.774103, 39.151001], [-90.78807, 39.185378], [-90.79313, 39.204386], [-90.82047, 39.254055], [-90.854897, 39.295578], [-90.855625, 39.297207], [-90.860845, 39.316603], [-90.861712, 39.318661], [-90.862507, 39.319603], [-90.863769, 39.320239], [-90.871519, 39.322449], [-90.874592, 39.323763], [-90.878293, 39.32622], [-90.88039, 39.328362], [-90.890763, 39.343505], [-90.892457, 39.352792], [-90.893299, 39.355133], [-90.898526, 39.362648], [-90.901563, 39.368486], [-90.905295, 39.372491], [-90.908586, 39.374994], [-90.91213, 39.376403], [-90.914254, 39.376852], [-90.918403, 39.37704], [-90.929994, 39.374746], [-90.933643, 39.375102], [-90.936277, 39.376045], [-90.938713, 39.377705], [-90.960008, 39.396796], [-90.961868, 39.398016], [-90.967635, 39.400845], [-90.969033, 39.402687], [-90.972382, 39.409258], [-90.97591, 39.412695], [-90.978691, 39.414897], [-90.981759, 39.416581], [-90.98573, 39.418189], [-90.995354, 39.419922], [-90.999653, 39.420213], [-91.001647, 39.420855], [-91.005674, 39.423648], [-91.010385, 39.428271], [-91.012976, 39.43002], [-91.015477, 39.430671], [-91.022287, 39.431238], [-91.028517, 39.433859], [-91.029847, 39.434914], [-91.034535, 39.440555], [-91.037548, 39.442959], [-91.036039, 39.443406], [-91.026772, 39.450919], [-91.025669, 39.451363], [-91.024026, 39.451529], [-91.026458, 39.451315], [-91.028599, 39.451471], [-91.030975, 39.452611], [-91.034951, 39.455412], [-91.037172, 39.457665], [-91.037642, 39.458832], [-91.037545, 39.460375], [-91.015659, 39.493901], [-91.003154, 39.515774], [-91.00235, 39.518768], [-91.002229, 39.523123], [-91.004295, 39.528183], [-91.008883, 39.535678], [-91.010151, 39.539216], [-91.010728, 39.540068], [-91.016025, 39.544135], [-91.026416, 39.550813], [-91.029583, 39.553375], [-91.038091, 39.56443], [-91.042907, 39.57133], [-91.055235, 39.584999], [-91.076605, 39.602946], [-91.10427, 39.628741], [-91.214259, 39.711273], [-91.265415, 39.757169], [-91.314296, 39.78498], [-91.317603, 39.787197], [-91.383566, 39.85209], [-91.385971, 39.854868], [-91.393914, 39.866384], [-91.399803, 39.877653], [-91.411334, 39.906608], [-91.412864, 39.913885], [-91.412553, 39.917234], [-91.415117, 39.931788], [-91.415224, 39.947378], [-91.415357, 39.948452], [-91.415954, 39.949339], [-91.416103, 39.951271], [-91.417235, 39.952004], [-91.41855, 39.951873], [-91.424311, 39.947803], [-91.435134, 39.937731], [-91.435697, 39.936765], [-91.435942, 39.935095], [-91.437046, 39.934268], [-91.44087, 39.934905], [-91.442491, 39.935601], [-91.452803, 39.942226], [-91.45517, 39.944267], [-91.458, 39.948222], [-91.466283, 39.968889], [-91.479163, 39.996614], [-91.497704, 40.034118], [-91.498191, 40.036263], [-91.4971, 40.041849], [-91.496054, 40.052113], [-91.503677, 40.080037], [-91.505091, 40.086548], [-91.506386, 40.095076], [-91.513942, 40.12079], [-91.514734, 40.131445], [-91.515544, 40.134532], [-91.516061, 40.138616], [-91.517879, 40.147134], [-91.520914, 40.156285], [-91.520791, 40.1655], [-91.521213, 40.173234], [-91.520077, 40.192299], [-91.521437, 40.203541], [-91.521367, 40.211472], [-91.519411, 40.215912], [-91.51859, 40.222834], [-91.517794, 40.22534], [-91.516708, 40.227533], [-91.513256, 40.230852], [-91.512265, 40.232314], [-91.497628, 40.277271], [-91.488455, 40.298955], [-91.485634, 40.315826], [-91.48597, 40.321226], [-91.485761, 40.322783], [-91.483111, 40.327202], [-91.4815, 40.332798], [-91.478818, 40.338345], [-91.474326, 40.341949], [-91.470865, 40.346268], [-91.465896, 40.351352], [-91.46053, 40.355533], [-91.460016, 40.356763], [-91.459855, 40.360727], [-91.458946, 40.362456], [-91.451077, 40.370044], [-91.447706, 40.372783], [-91.438525, 40.382799], [-91.436712, 40.384104], [-91.432507, 40.386088], [-91.430935, 40.386316], [-91.423325, 40.385381], [-91.419035, 40.385163], [-91.393968, 40.387539], [-91.382303, 40.389895], [-91.378001, 40.392091], [-91.359953, 40.387848], [-91.354073, 40.38837], [-91.350541, 40.386954], [-91.348875, 40.386687], [-91.344551, 40.387538], [-91.342131, 40.387338], [-91.330917, 40.382278], [-91.326665, 40.380735], [-91.324978, 40.379381], [-91.322973, 40.376872], [-91.319272, 40.375361], [-91.309023, 40.375117], [-91.302532, 40.3755], [-91.295427, 40.376884], [-91.289013, 40.379144], [-91.265201, 40.392267], [-91.260792, 40.394248], [-91.248076, 40.399106], [-91.244719, 40.400877], [-91.242229, 40.40334], [-91.209359, 40.445508], [-91.207597, 40.447003], [-91.111681, 40.500867], [-91.1084, 40.5023], [-91.1042, 40.503354], [-91.100151, 40.503703], [-91.079623, 40.50291], [-91.077136, 40.503338], [-91.072743, 40.504878], [-91.070794, 40.50523], [-91.06452, 40.504888], [-91.057961, 40.503858], [-91.055939, 40.504047], [-91.054478, 40.504562], [-91.052548, 40.50594], [-91.051585, 40.507288], [-91.049747, 40.514208], [-91.049168, 40.515471], [-91.046596, 40.51825], [-91.043851, 40.519928], [-91.036953, 40.521999], [-91.014728, 40.532066], [-91.009134, 40.535667], [-90.992692, 40.547342], [-90.988667, 40.55129], [-90.978084, 40.563471], [-90.973326, 40.570382], [-90.971534, 40.577048], [-90.971828, 40.577942], [-90.972693, 40.578388], [-90.979934, 40.579465], [-90.982171, 40.580235], [-90.983825, 40.581192], [-90.986003, 40.583412], [-90.989965, 40.590296], [-90.991407, 40.59175], [-90.997219, 40.594952], [-91.001816, 40.598349], [-91.039853, 40.642177], [-91.040644, 40.644097], [-91.04078, 40.648591], [-91.041886, 40.650306], [-91.048014, 40.655384], [-91.050382, 40.656036], [-91.053924, 40.65585], [-91.056123, 40.656207], [-91.057825, 40.657049], [-91.059298, 40.65867], [-91.059743, 40.660274], [-91.05928, 40.662101], [-91.052812, 40.668288], [-91.051991, 40.669816], [-91.051799, 40.671319], [-91.052406, 40.673184], [-91.05968, 40.685951], [-91.06045, 40.688197], [-91.060541, 40.717762], [-91.061435, 40.751208], [-91.061817, 40.754886], [-91.064651, 40.765798], [-91.071963, 40.785242], [-91.077313, 40.79168], [-91.082744, 40.798975], [-91.084756, 40.799981], [-91.086684, 40.800198], [-91.095618, 40.797308], [-91.096728, 40.797263], [-91.097809, 40.797582], [-91.098807, 40.79848], [-91.100921, 40.803655], [-91.101578, 40.80718], [-91.102307, 40.807922], [-91.103302, 40.808259]]}}, {"type": "Feature", "properties": {"company": "Chicago, Burlington and Quincy Railroad", "line": "Chicago, Burlington and Quincy: St. Louis – Rock Island", "id": "cbq-stlouis-galesburg-rock-island", "color": "#8E1B3C", "mode": "intercity_rail", "avg_speed_kmh": 55, "speed_source": "estimated, NOT sourced: a secondary branch of this era, taken from the kind of service the Feb 1952 Guide shows (Table 8) rather than from any timetable's running times", "geometry_source": "OpenStreetMap via Overpass, 2026-08-30", "geometry_quality": "Real trace from OpenStreetMap: a Dijkstra shortest path over every railway way (rail, abandoned, disused, razed, dismantled) in a corridor around the route, with ways tagged old_railway_operator=CB&Q costed at 1x and all other track at 3x, so the path stays on the Burlington's own alignment wherever OSM records it. Snapped to the report's own station list; every one of the 9 waypoints lies within 2.2 km of the drawn line. OSM lines followed: CB&Q Beardstown & St. Louis Subdivision 57 mi; BNSF Barstow Subdivision 40 mi; BNSF Beardstown Subdivision 39 mi; BNSF Brookfield Subdivision 30 mi; [abandoned] 19 mi; East St Louis Terminal Subdivision 14 mi. TRACED LENGTH 236.2 mi against a DOCUMENTED 300 mi (-21%). APPROXIMATED: 18.1 mi of the total is straight-line, drawn across 1 place(s) where the grade is lifted and OSM has no way at all -- Brighton-Rockbridge 18.1 mi. Those legs are ruled lines, not survey. ERA NOTE: much of the surviving alignment is today's BNSF, which is the CB&Q's own successor on this route, so the modern centreline is the historical one; where the line is abandoned the trace follows the recorded grade. Simplified to a 20 m Douglas-Peucker tolerance.", "segments": [{"start": 1875, "end": 1952, "headway_min": 480, "note": "branchline.uk illinoisrrs2 route 136 (St. Louis - Rio) carries TWENTY-SEVEN stations lettered y = the 1875 Official Guide, and route 133 (Galesburg - Rock Island - Savanna) ten more. Feb 1952 Table 8, times legible. THE 1952 END IS THE LAST CONFIRMED YEAR, NOT A KNOWN END. No source consulted dates when passenger service actually stopped here; the Burlington's branch trains were swept away somewhere between about 1952 and 1968 and not one of those discontinuances has been dated. The end year is a withheld unknown, not an abandonment -- DO NOT extend this line to a rounder year without evidence. Equally, 1875 is the earliest year positively CONFIRMED, not the year the line opened: the branch is older than the map shows, and the confirmed start is deliberately late rather than guessed early. The Guide's own heading says the through cars ran \"Via C.R.I.&P.\" north of Davenport, so the Rock Island end of the advertised service was not all CB&Q track. Headway is an estimate and is NOT sourced.", "sources": ["Segment-level: start year 1875 from branchline.uk (John Fowler, Passenger Stations & Stops) -- branchline.uk illinoisrrs2 route 136 (St. Louis - Rio) carries TWENTY-SEVEN stations lettered y = the 1875 Official Guide, and route 133 (Galesburg - Rock Island - Savanna) ten more. End year 1952 from Table 8 of the Feb 1952 Official Guide -- Feb 1952 Table 8, times legible. The end is a FLOOR on service, not the year it stopped. Headway and avg_speed_kmh are estimates and are NOT sourced.", "Feb 1952 Official Guide of the Railways (schedules effective 30 September 1951 / 27 January 1952), Burlington Lines section; full OCR cached at research/sources/official_guide_1952.txt", "https://www.branchline.uk/jfpdf/illinoisrrs2.pdf", "research/branches/chicago_burlington_and_quincy_railroad.txt (research pass 2026-08-30)"]}]}, "geometry": {"type": "LineString", "coordinates": [[-90.183138, 38.62761], [-90.182496, 38.629022], [-90.181795, 38.632961], [-90.182698, 38.63534], [-90.183628, 38.643253], [-90.184516, 38.646238], [-90.186145, 38.649669], [-90.186457, 38.65291], [-90.193411, 38.666561], [-90.194924, 38.670066], [-90.194689, 38.671693], [-90.193677, 38.672675], [-90.192214, 38.673221], [-90.178399, 38.676567], [-90.164578, 38.676669], [-90.163048, 38.677056], [-90.161818, 38.677897], [-90.161163, 38.678966], [-90.15894, 38.686613], [-90.159068, 38.699651], [-90.158772, 38.700532], [-90.090056, 38.763904], [-90.088253, 38.765869], [-90.086687, 38.768324], [-90.085476, 38.771722], [-90.083467, 38.789824], [-90.092242, 38.837459], [-90.093346, 38.840215], [-90.108747, 38.870679], [-90.109832, 38.88456], [-90.110862, 38.885682], [-90.11418, 38.886709], [-90.115312, 38.887423], [-90.116713, 38.888881], [-90.121436, 38.895948], [-90.125613, 38.900059], [-90.126993, 38.902055], [-90.127243, 38.903353], [-90.127054, 38.906603], [-90.122941, 38.916132], [-90.122532, 38.917878], [-90.126485, 38.930545], [-90.126459, 38.93226], [-90.126015, 38.934104], [-90.12174, 38.940917], [-90.121082, 38.942684], [-90.121191, 38.945577], [-90.124147, 38.953071], [-90.13141, 38.965383], [-90.145028, 38.974264], [-90.145972, 38.975282], [-90.146646, 38.977146], [-90.147793, 38.985844], [-90.147468, 38.987373], [-90.146279, 38.988982], [-90.139649, 38.995735], [-90.136245, 39.001278], [-90.134473, 39.013959], [-90.132689, 39.018059], [-90.132531, 39.020919], [-90.132858, 39.022029], [-90.135261, 39.02533], [-90.136079, 39.026994], [-90.136358, 39.028582], [-90.136096, 39.032804], [-90.210475, 39.294607], [-90.214643, 39.341304], [-90.215232, 39.343767], [-90.216913, 39.346194], [-90.218753, 39.347566], [-90.220581, 39.348391], [-90.294015, 39.374952], [-90.314879, 39.386009], [-90.324213, 39.391365], [-90.32947, 39.394897], [-90.333698, 39.396887], [-90.341208, 39.398794], [-90.344233, 39.399905], [-90.365262, 39.408941], [-90.369038, 39.41098], [-90.378501, 39.418225], [-90.395533, 39.430045], [-90.39667, 39.431308], [-90.397366, 39.433972], [-90.397315, 39.445997], [-90.397997, 39.448096], [-90.398361, 39.452483], [-90.403386, 39.467929], [-90.403025, 39.491315], [-90.40164, 39.503951], [-90.401822, 39.507121], [-90.403196, 39.510222], [-90.403775, 39.51355], [-90.405393, 39.517143], [-90.41167, 39.525097], [-90.413108, 39.527792], [-90.412847, 39.543927], [-90.413631, 39.547975], [-90.415331, 39.550308], [-90.438027, 39.564422], [-90.443071, 39.565343], [-90.445256, 39.566207], [-90.448413, 39.569059], [-90.451122, 39.570729], [-90.459098, 39.574271], [-90.462255, 39.575006], [-90.465207, 39.576863], [-90.467784, 39.577324], [-90.469522, 39.578835], [-90.469895, 39.579944], [-90.469354, 39.596153], [-90.468905, 39.600572], [-90.460256, 39.633481], [-90.458482, 39.635769], [-90.439578, 39.650196], [-90.437971, 39.652051], [-90.43728, 39.654007], [-90.435823, 39.661586], [-90.413385, 39.722398], [-90.41352, 39.725317], [-90.41564, 39.72944], [-90.41601, 39.731042], [-90.415258, 39.733232], [-90.412487, 39.737452], [-90.412589, 39.739377], [-90.413638, 39.743146], [-90.412887, 39.745241], [-90.407007, 39.756311], [-90.401793, 39.764525], [-90.367918, 39.799057], [-90.365858, 39.801395], [-90.364492, 39.803658], [-90.363588, 39.806704], [-90.362394, 39.862496], [-90.361782, 39.865797], [-90.36189, 39.866965], [-90.362546, 39.868012], [-90.363793, 39.868863], [-90.365299, 39.869259], [-90.368378, 39.869308], [-90.369867, 39.869631], [-90.372143, 39.871002], [-90.373019, 39.87201], [-90.373359, 39.875153], [-90.375831, 39.878018], [-90.376433, 39.879183], [-90.417942, 39.978433], [-90.418089, 39.980704], [-90.417443, 39.983328], [-90.417459, 40.00047], [-90.418557, 40.00593], [-90.421249, 40.010533], [-90.427924, 40.020161], [-90.428968, 40.020975], [-90.436276, 40.024277], [-90.437274, 40.025341], [-90.437802, 40.026711], [-90.436109, 40.034062], [-90.431025, 40.046877], [-90.430938, 40.049248], [-90.4318, 40.057989], [-90.430963, 40.064539], [-90.429899, 40.067068], [-90.41468, 40.083006], [-90.406028, 40.095001], [-90.373206, 40.127768], [-90.369816, 40.132641], [-90.369534, 40.13496], [-90.370603, 40.140331], [-90.37325, 40.144554], [-90.374994, 40.149573], [-90.377259, 40.15433], [-90.376877, 40.159028], [-90.375974, 40.162316], [-90.376775, 40.164679], [-90.376915, 40.166858], [-90.375566, 40.170923], [-90.373581, 40.173218], [-90.371863, 40.173996], [-90.359301, 40.176038], [-90.356641, 40.177302], [-90.353078, 40.179616], [-90.349553, 40.182057], [-90.348484, 40.18336], [-90.347758, 40.185373], [-90.34716, 40.190059], [-90.34675, 40.21081], [-90.347501, 40.213638], [-90.348698, 40.21563], [-90.350848, 40.217681], [-90.354584, 40.219558], [-90.357575, 40.220015], [-90.37823, 40.220199], [-90.381985, 40.220987], [-90.40782, 40.236651], [-90.410188, 40.238186], [-90.411969, 40.240246], [-90.42406, 40.264393], [-90.424798, 40.267054], [-90.425014, 40.270693], [-90.423187, 40.327547], [-90.422185, 40.364215], [-90.422406, 40.365605], [-90.423074, 40.366981], [-90.42432, 40.368259], [-90.491659, 40.412431], [-90.493885, 40.414134], [-90.495262, 40.415955], [-90.495998, 40.418998], [-90.495122, 40.491636], [-90.495742, 40.493491], [-90.50366, 40.506706], [-90.521698, 40.530686], [-90.522498, 40.533124], [-90.521829, 40.535339], [-90.492354, 40.574757], [-90.431402, 40.670908], [-90.429773, 40.674509], [-90.42884, 40.680933], [-90.428143, 40.682857], [-90.414331, 40.707665], [-90.410099, 40.723375], [-90.408177, 40.727202], [-90.404046, 40.733969], [-90.403189, 40.736167], [-90.401833, 40.74893], [-90.39712, 40.770556], [-90.395632, 40.780286], [-90.394249, 40.884468], [-90.391748, 40.889675], [-90.387771, 40.895263], [-90.381772, 40.907544], [-90.376796, 40.914734], [-90.376053, 40.916576], [-90.375145, 40.920871], [-90.367413, 40.936778], [-90.365433, 40.939297], [-90.364619, 40.943041], [-90.355895, 40.952106], [-90.354726, 40.954655], [-90.353696, 41.019226], [-90.354482, 41.021682], [-90.361796, 41.032609], [-90.362678, 41.034749], [-90.362348, 41.05984], [-90.364475, 41.072383], [-90.366199, 41.075381], [-90.396422, 41.10846], [-90.398002, 41.110614], [-90.398647, 41.110985], [-90.39961, 41.110895], [-90.397099, 41.113138], [-90.382947, 41.130694], [-90.382015, 41.132234], [-90.381509, 41.134139], [-90.381406, 41.140834], [-90.384477, 41.150674], [-90.385903, 41.159601], [-90.382025, 41.221781], [-90.385819, 41.234764], [-90.386542, 41.239347], [-90.386422, 41.241279], [-90.384492, 41.246387], [-90.383226, 41.254016], [-90.382567, 41.255746], [-90.370043, 41.271729], [-90.365739, 41.278728], [-90.365315, 41.28028], [-90.365337, 41.285092], [-90.362926, 41.289193], [-90.359763, 41.30052], [-90.359582, 41.311245], [-90.359869, 41.314064], [-90.3667, 41.331136], [-90.369516, 41.334915], [-90.38194, 41.346761], [-90.383252, 41.34866], [-90.384073, 41.350984], [-90.384012, 41.354476], [-90.38292, 41.357641], [-90.379102, 41.364324], [-90.37188, 41.374854], [-90.371217, 41.377178], [-90.371495, 41.378575], [-90.37289, 41.381353], [-90.373455, 41.385507], [-90.379536, 41.400005], [-90.380062, 41.402245], [-90.379921, 41.403844], [-90.379278, 41.405503], [-90.373419, 41.413465], [-90.372659, 41.415269], [-90.372948, 41.417547], [-90.376318, 41.423436], [-90.376997, 41.425914], [-90.376984, 41.429932], [-90.374089, 41.438153], [-90.373943, 41.44012], [-90.374338, 41.44147], [-90.37534, 41.442998], [-90.378861, 41.445605], [-90.381501, 41.448236], [-90.384232, 41.449879], [-90.384841, 41.450763], [-90.384946, 41.451735], [-90.38433, 41.452992], [-90.381111, 41.455713], [-90.374753, 41.457981], [-90.362247, 41.461653], [-90.35991, 41.462966], [-90.357595, 41.4658], [-90.353699, 41.473311], [-90.35203, 41.477985], [-90.351889, 41.479782], [-90.352471, 41.481153], [-90.353618, 41.48205], [-90.35869, 41.483595], [-90.365476, 41.487569], [-90.37776, 41.49243], [-90.381489, 41.494384], [-90.384725, 41.497008], [-90.396006, 41.508408], [-90.398483, 41.510043], [-90.40136, 41.511001], [-90.430499, 41.516834], [-90.435298, 41.517157], [-90.44697, 41.516501], [-90.501351, 41.512187], [-90.506012, 41.511288], [-90.517604, 41.507093], [-90.522834, 41.506333], [-90.53859, 41.50748], [-90.553041, 41.507804], [-90.566035, 41.510753], [-90.569616, 41.511961], [-90.574462, 41.512265]]}}, {"type": "Feature", "properties": {"company": "Chicago, Burlington and Quincy Railroad", "line": "Chicago, Burlington and Quincy: Cameron – Kansas City", "id": "cbq-cameron-kansas-city", "color": "#8E1B3C", "mode": "intercity_rail", "avg_speed_kmh": 60, "speed_source": "estimated, NOT sourced: a secondary branch of this era, taken from the kind of service the Feb 1952 Guide shows (Table 6) rather than from any timetable's running times", "geometry_source": "OpenStreetMap via Overpass, 2026-08-30", "geometry_quality": "Real trace from OpenStreetMap: a Dijkstra shortest path over every railway way (rail, abandoned, disused, razed, dismantled) in a corridor around the route, with ways tagged old_railway_operator=CB&Q costed at 1x and all other track at 3x, so the path stays on the Burlington's own alignment wherever OSM records it. Snapped to the report's own station list; every one of the 5 waypoints lies within 1.3 km of the drawn line. OSM lines followed: Chicago Burlington and Quincy Railroad 12 mi; BNSF Kearney Branch 11 mi; BNSF Brookfield Subdivision 8 mi; Kansas City, Clay County & St Joseph Railroad 3 mi; Claycomo Industrial Lead 2 mi; [rail] 1 mi. TRACED LENGTH 54.6 mi against a DOCUMENTED 54 mi (+1%). APPROXIMATED: 14.6 mi of the total is straight-line, drawn across 1 place(s) where the grade is lifted and OSM has no way at all -- Cameron-Lathrop 14.6 mi. Those legs are ruled lines, not survey. ERA NOTE: much of the surviving alignment is today's BNSF, which is the CB&Q's own successor on this route, so the modern centreline is the historical one; where the line is abandoned the trace follows the recorded grade. Simplified to a 20 m Douglas-Peucker tolerance.", "segments": [{"start": 1883, "end": 1971, "headway_min": 360, "note": "the CB&Q absorbed the Hannibal and St. Joseph in 1883 and ran the through Chicago - Kansas City service under its own name from then (it had held control since 1872, but the H&StJ ran its own trains under its own name until 1883). Amtrak took the surviving intercity trains on 1 May 1971. THE 1971 END IS THE LAST CONFIRMED YEAR, NOT A KNOWN END. No source consulted dates when passenger service actually stopped here; the Burlington's branch trains were swept away somewhere between about 1952 and 1968 and not one of those discontinuances has been dated. The end year is a withheld unknown, not an abandonment -- DO NOT extend this line to a rounder year without evidence. Equally, 1883 is the earliest year positively CONFIRMED, not the year the line opened: the branch is older than the map shows, and the confirmed start is deliberately late rather than guessed early. \"Route of the American Royal\" is the Feb 1952 page heading; the Kansas City Zephyr and American Royal Zephyr ran this line to Amtrak day. The Cameron - Kansas City leg opened in 1867 under the Hannibal and St. Joseph's Kansas City extension; only the CB&Q-operated years are drawn here. Headway is an estimate and is NOT sourced.", "sources": ["Segment-level: start year 1883 from branchline.uk (John Fowler, Passenger Stations & Stops) -- the CB&Q absorbed the Hannibal and St. Joseph in 1883 and ran the through Chicago - Kansas City service under its own name from then (it had held control since 1872, but the H&StJ ran its own trains under its own name until 1883). End year 1971 from Table 6 of the Feb 1952 Official Guide -- Amtrak took the surviving intercity trains on 1 May 1971. The end is a FLOOR on service, not the year it stopped. Headway and avg_speed_kmh are estimates and are NOT sourced.", "Feb 1952 Official Guide of the Railways (schedules effective 30 September 1951 / 27 January 1952), Burlington Lines section; full OCR cached at research/sources/official_guide_1952.txt", "research/branches/chicago_burlington_and_quincy_railroad.txt (research pass 2026-08-30)"]}]}, "geometry": {"type": "LineString", "coordinates": [[-94.253188, 39.74018], [-94.333948, 39.538691], [-94.334013, 39.536192], [-94.332833, 39.534007], [-94.325719, 39.527255], [-94.322436, 39.523076], [-94.321943, 39.521346], [-94.322275, 39.517307], [-94.323423, 39.510992], [-94.322447, 39.504129], [-94.323102, 39.502474], [-94.326975, 39.496679], [-94.326792, 39.486387], [-94.327575, 39.48469], [-94.32897, 39.482984], [-94.329421, 39.48151], [-94.329281, 39.479431], [-94.327715, 39.476922], [-94.327693, 39.475606], [-94.328305, 39.474214], [-94.33059, 39.472102], [-94.332125, 39.469154], [-94.33353, 39.46319], [-94.334592, 39.461004], [-94.337961, 39.456969], [-94.345568, 39.451187], [-94.34914, 39.447351], [-94.350986, 39.444825], [-94.352273, 39.433589], [-94.352402, 39.42318], [-94.35444, 39.419351], [-94.354934, 39.414461], [-94.357487, 39.407017], [-94.36268, 39.397359], [-94.364837, 39.39202], [-94.365716, 39.388549], [-94.366446, 39.382529], [-94.365398, 39.373824], [-94.365499, 39.367208], [-94.364755, 39.364125], [-94.365376, 39.358848], [-94.366643, 39.353258], [-94.36752, 39.351206], [-94.369831, 39.348027], [-94.371514, 39.344706], [-94.375526, 39.341515], [-94.376897, 39.337331], [-94.378762, 39.335227], [-94.382369, 39.329996], [-94.382488, 39.326487], [-94.384088, 39.323695], [-94.384432, 39.320757], [-94.383711, 39.318897], [-94.380845, 39.315031], [-94.38092, 39.310515], [-94.380255, 39.308004], [-94.380255, 39.306351], [-94.381346, 39.3027], [-94.382153, 39.301215], [-94.384313, 39.299021], [-94.390073, 39.294286], [-94.392081, 39.291333], [-94.393979, 39.286418], [-94.395329, 39.279141], [-94.398082, 39.276084], [-94.400298, 39.271731], [-94.400408, 39.270459], [-94.399885, 39.26816], [-94.400074, 39.265709], [-94.401499, 39.262084], [-94.403759, 39.258249], [-94.403519, 39.254261], [-94.405071, 39.24912], [-94.405801, 39.248223], [-94.410085, 39.24492], [-94.41182, 39.244178], [-94.413386, 39.244005], [-94.416955, 39.244321], [-94.419369, 39.24385], [-94.420362, 39.243384], [-94.422182, 39.244723], [-94.424743, 39.244031], [-94.426108, 39.243018], [-94.426669, 39.241656], [-94.426902, 39.239677], [-94.427884, 39.238515], [-94.475238, 39.20979], [-94.479334, 39.20781], [-94.476784, 39.200441], [-94.474541, 39.198796], [-94.469919, 39.189466], [-94.46872, 39.188568], [-94.460752, 39.184398], [-94.458442, 39.181483], [-94.455904, 39.180707], [-94.451012, 39.178097], [-94.449522, 39.173427], [-94.449892, 39.172216], [-94.450917, 39.171028], [-94.465633, 39.160599], [-94.475256, 39.157545], [-94.5207, 39.151426], [-94.536855, 39.146842], [-94.540243, 39.147009], [-94.549495, 39.146517], [-94.552527, 39.146121], [-94.554501, 39.145449], [-94.556175, 39.144236], [-94.576215, 39.124571], [-94.577713, 39.123727], [-94.587507, 39.120402], [-94.588996, 39.119359], [-94.590301, 39.11745], [-94.590548, 39.115908], [-94.590216, 39.114883], [-94.587881, 39.111532], [-94.587771, 39.110426], [-94.588485, 39.109543], [-94.59094, 39.108611], [-94.593741, 39.10519], [-94.592998, 39.104898], [-94.588319, 39.104716]]}}, {"type": "Feature", "properties": {"company": "Hannibal and St. Joseph Railroad", "line": "Hannibal and St. Joseph: Hannibal – St. Joseph", "id": "hannibal-st-joseph-main", "color": "#B0CC66", "mode": "intercity_rail", "avg_speed_kmh": 50, "speed_source": "estimated, NOT sourced: a secondary branch of this era, taken from the kind of service the Feb 1952 Guide shows (Table 6) rather than from any timetable's running times", "geometry_source": "OpenStreetMap via Overpass, 2026-08-30", "geometry_quality": "Real trace from OpenStreetMap: a Dijkstra shortest path over every railway way (rail, abandoned, disused, razed, dismantled) in a corridor around the route, with ways tagged old_railway_operator=CB&Q costed at 1x and all other track at 3x, so the path stays on the Burlington's own alignment wherever OSM records it. Snapped to the report's own station list; every one of the 12 waypoints lies within 1.4 km of the drawn line. OSM lines followed: BNSF Brookfield Subdivision 91 mi; Hannibal and St. Joseph Railroad 39 mi; Hannibal and St. Joseph RR 21 mi; [abandoned] 14 mi; [rail] 10 mi; UP Trenton Subdivision 8 mi. TRACED LENGTH 205.0 mi against a DOCUMENTED 206 mi (-0%). APPROXIMATED: 17.6 mi of the total is straight-line, drawn across 2 place(s) where the grade is lifted and OSM has no way at all -- Hannibal-Palmyra 11.0 mi; Cameron-Osborn 6.5 mi. Those legs are ruled lines, not survey. ERA NOTE: much of the surviving alignment is today's BNSF, which is the CB&Q's own successor on this route, so the modern centreline is the historical one; where the line is abandoned the trace follows the recorded grade. Simplified to a 20 m Douglas-Peucker tolerance.", "segments": [{"start": 1859, "end": 1883, "headway_min": 480, "note": "through trains over the completed Hannibal and St. Joseph ran from 13 February 1859 (exact). the CB&Q absorbed the Hannibal and St. Joseph in 1883, after eleven years of holding control without operating it. THE 1883 END IS THE LAST CONFIRMED YEAR, NOT A KNOWN END. No source consulted dates when passenger service actually stopped here; the Burlington's branch trains were swept away somewhere between about 1952 and 1968 and not one of those discontinuances has been dated. The end year is a withheld unknown, not an abandonment -- DO NOT extend this line to a rounder year without evidence. Equally, 1859 is the earliest year positively CONFIRMED, not the year the line opened: the branch is older than the map shows, and the confirmed start is deliberately late rather than guessed early. The first railroad completed across Missouri, and the road that carried the Pony Express mail west from St. Joseph in 1860. The CB&Q had held control since 1872, but the H&StJ ran its own trains under its own name until 1883, so 1883 -- not 1872 -- is the operating split. Geometry is identical to cbq-hannibal-st-joseph; this is an ownership split, not a different route. Headway is an estimate and is NOT sourced.", "sources": ["Segment-level: the 13 February 1859 opening of through service over the completed Hannibal and St. Joseph is an exact, documented date; 1883 is the year the CB&Q absorbed the company. Headway and avg_speed_kmh are estimates and are NOT sourced.", "https://en.wikipedia.org/wiki/Hannibal_and_St._Joseph_Railroad", "research/branches/chicago_burlington_and_quincy_railroad.txt (research pass 2026-08-30)"]}]}, "geometry": {"type": "LineString", "coordinates": [[-91.356191, 39.712549], [-91.532513, 39.79704], [-91.532586, 39.794136], [-91.533258, 39.791637], [-91.535119, 39.788472], [-91.537173, 39.786514], [-91.580633, 39.763689], [-91.586146, 39.760044], [-91.590557, 39.756242], [-91.593693, 39.752786], [-91.59643, 39.748923], [-91.620699, 39.707524], [-91.625375, 39.700603], [-91.629967, 39.695236], [-91.63622, 39.689282], [-91.641613, 39.684923], [-91.652142, 39.677457], [-91.67979, 39.662895], [-91.685327, 39.660919], [-91.74272, 39.651472], [-91.745562, 39.651222], [-91.763481, 39.651182], [-91.86877, 39.667747], [-91.877235, 39.668005], [-91.914183, 39.66519], [-91.920192, 39.665449], [-92.24682, 39.741502], [-92.25361, 39.742151], [-92.353388, 39.746492], [-92.378695, 39.746796], [-92.383541, 39.746494], [-92.392827, 39.745157], [-92.395865, 39.744423], [-92.411724, 39.739103], [-92.419926, 39.737346], [-92.426152, 39.73656], [-92.435481, 39.736239], [-92.468317, 39.736769], [-92.477208, 39.737545], [-92.487859, 39.73725], [-92.493111, 39.738081], [-92.502403, 39.740395], [-92.521501, 39.743184], [-92.532551, 39.743959], [-92.542002, 39.744108], [-92.543871, 39.744505], [-92.549146, 39.746563], [-92.553532, 39.747398], [-92.564322, 39.747098], [-92.570556, 39.747475], [-92.580974, 39.746007], [-92.584912, 39.746246], [-92.587283, 39.747013], [-92.592518, 39.750041], [-92.595265, 39.751171], [-92.631269, 39.76228], [-92.637593, 39.763132], [-92.652702, 39.761664], [-92.65636, 39.76178], [-92.659691, 39.762242], [-92.66291, 39.763083], [-92.720556, 39.782016], [-92.723399, 39.782709], [-92.726564, 39.782725], [-92.728099, 39.782437], [-92.73092, 39.781365], [-92.734311, 39.779592], [-92.742475, 39.778446], [-92.74475, 39.777828], [-92.748563, 39.776151], [-92.752607, 39.773384], [-92.759202, 39.770067], [-92.762517, 39.768877], [-92.766177, 39.768157], [-92.769953, 39.76797], [-92.772757, 39.768175], [-92.782199, 39.770331], [-92.79152, 39.772195], [-92.793222, 39.772302], [-92.79589, 39.771767], [-92.809699, 39.76691], [-92.811636, 39.766791], [-92.82214, 39.767615], [-92.828577, 39.766487], [-92.831706, 39.766277], [-92.836091, 39.766677], [-92.855919, 39.770929], [-92.857739, 39.771017], [-92.86206, 39.770596], [-92.871789, 39.770938], [-92.873593, 39.77127], [-92.87535, 39.772062], [-92.889881, 39.781535], [-92.892583, 39.782885], [-92.895545, 39.783863], [-92.90741, 39.786432], [-92.9098, 39.786698], [-92.912025, 39.786554], [-92.921193, 39.783899], [-92.924289, 39.7835], [-92.927488, 39.783544], [-92.930565, 39.784013], [-92.9658, 39.791888], [-92.981213, 39.794197], [-92.984389, 39.793895], [-93.001887, 39.789982], [-93.031588, 39.786066], [-93.065106, 39.787272], [-93.068142, 39.786825], [-93.07451, 39.784903], [-93.080931, 39.78413], [-93.094565, 39.785748], [-93.109711, 39.786703], [-93.140987, 39.785356], [-93.169552, 39.785912], [-93.179277, 39.787464], [-93.181215, 39.787496], [-93.211981, 39.784088], [-93.237348, 39.78424], [-93.240364, 39.783588], [-93.245524, 39.781221], [-93.247138, 39.780715], [-93.24854, 39.78065], [-93.251938, 39.781042], [-93.268566, 39.786231], [-93.27173, 39.78646], [-93.288868, 39.786362], [-93.301037, 39.784795], [-93.351898, 39.785872], [-93.373305, 39.785644], [-93.388393, 39.785289], [-93.4038, 39.783892], [-93.429328, 39.784989], [-93.455382, 39.784631], [-93.506599, 39.788248], [-93.524074, 39.787702], [-93.531309, 39.786512], [-93.547886, 39.787763], [-93.551929, 39.787113], [-93.558294, 39.785071], [-93.56506, 39.785263], [-93.568252, 39.786297], [-93.571563, 39.789302], [-93.573495, 39.790165], [-93.636505, 39.796543], [-93.678387, 39.801214], [-93.679976, 39.801638], [-93.751537, 39.83488], [-93.793373, 39.855535], [-93.794051, 39.858749], [-93.792191, 39.861561], [-93.823301, 39.818541], [-93.824916, 39.816852], [-93.844927, 39.800582], [-93.857698, 39.781978], [-93.867384, 39.772061], [-93.876551, 39.759504], [-93.892002, 39.759783], [-93.896568, 39.759536], [-93.90047, 39.75867], [-93.924635, 39.75105], [-93.92783, 39.750577], [-93.954784, 39.748564], [-93.974143, 39.744261], [-93.980509, 39.743157], [-93.985596, 39.742882], [-93.997987, 39.743197], [-94.002469, 39.744086], [-94.031167, 39.76197], [-94.032822, 39.762757], [-94.099872, 39.778663], [-94.104345, 39.779052], [-94.124986, 39.777298], [-94.126729, 39.776819], [-94.128514, 39.775781], [-94.139564, 39.765904], [-94.142842, 39.764938], [-94.150249, 39.764655], [-94.153593, 39.764049], [-94.156175, 39.762999], [-94.161423, 39.759553], [-94.163686, 39.758638], [-94.166656, 39.758416], [-94.181531, 39.760513], [-94.194221, 39.760094], [-94.197517, 39.7594], [-94.200455, 39.75797], [-94.206439, 39.753762], [-94.210442, 39.751446], [-94.226719, 39.743534], [-94.349737, 39.747112], [-94.452665, 39.754215], [-94.456587, 39.754088], [-94.501559, 39.749712], [-94.510079, 39.746219], [-94.512852, 39.745883], [-94.520405, 39.745967], [-94.522686, 39.745616], [-94.527594, 39.74434], [-94.542536, 39.7395], [-94.544214, 39.738868], [-94.546787, 39.737171], [-94.553719, 39.729258], [-94.55642, 39.727293], [-94.589131, 39.717485], [-94.599184, 39.713176], [-94.602012, 39.712474], [-94.603982, 39.71232], [-94.607138, 39.712502], [-94.624635, 39.715001], [-94.626842, 39.715646], [-94.638664, 39.720937], [-94.643317, 39.722073], [-94.656093, 39.721642], [-94.665077, 39.72339], [-94.667229, 39.723473], [-94.668604, 39.723233], [-94.67361, 39.72141], [-94.676364, 39.721209], [-94.698695, 39.724961], [-94.745092, 39.726407], [-94.748701, 39.726017], [-94.759588, 39.72267], [-94.763143, 39.722367], [-94.765727, 39.722793], [-94.77356, 39.725578], [-94.781682, 39.725823], [-94.78629, 39.726562], [-94.793, 39.728415], [-94.800509, 39.731222], [-94.804306, 39.731794], [-94.80668, 39.731448], [-94.813314, 39.729149], [-94.821275, 39.72829], [-94.822911, 39.728355], [-94.825755, 39.729335], [-94.846636, 39.741271], [-94.848873, 39.742859], [-94.850387, 39.744796], [-94.851042, 39.746606], [-94.851235, 39.75514], [-94.852544, 39.75697], [-94.85324, 39.757363]]}}, {"type": "Feature", "properties": {"company": "Chicago, Burlington and Quincy Railroad", "line": "Chicago, Burlington and Quincy: Hannibal – St. Joseph", "id": "cbq-hannibal-st-joseph", "color": "#8E1B3C", "mode": "intercity_rail", "avg_speed_kmh": 50, "speed_source": "estimated, NOT sourced: a secondary branch of this era, taken from the kind of service the Feb 1952 Guide shows (Table 6) rather than from any timetable's running times", "geometry_source": "OpenStreetMap via Overpass, 2026-08-30", "geometry_quality": "Real trace from OpenStreetMap: a Dijkstra shortest path over every railway way (rail, abandoned, disused, razed, dismantled) in a corridor around the route, with ways tagged old_railway_operator=CB&Q costed at 1x and all other track at 3x, so the path stays on the Burlington's own alignment wherever OSM records it. Snapped to the report's own station list; every one of the 12 waypoints lies within 1.4 km of the drawn line. OSM lines followed: BNSF Brookfield Subdivision 91 mi; Hannibal and St. Joseph Railroad 39 mi; Hannibal and St. Joseph RR 21 mi; [abandoned] 14 mi; [rail] 10 mi; UP Trenton Subdivision 8 mi. TRACED LENGTH 205.0 mi against a DOCUMENTED 206 mi (-0%). APPROXIMATED: 17.6 mi of the total is straight-line, drawn across 2 place(s) where the grade is lifted and OSM has no way at all -- Hannibal-Palmyra 11.0 mi; Cameron-Osborn 6.5 mi. Those legs are ruled lines, not survey. ERA NOTE: much of the surviving alignment is today's BNSF, which is the CB&Q's own successor on this route, so the modern centreline is the historical one; where the line is abandoned the trace follows the recorded grade. Simplified to a 20 m Douglas-Peucker tolerance.", "segments": [{"start": 1883, "end": 1952, "headway_min": 480, "note": "the CB&Q absorbed the Hannibal and St. Joseph Railroad in 1883. Feb 1952 Table 6 footnote g, \"mixed train between Cameron Junction and St. Joseph\". THE 1952 END IS THE LAST CONFIRMED YEAR, NOT A KNOWN END. No source consulted dates when passenger service actually stopped here; the Burlington's branch trains were swept away somewhere between about 1952 and 1968 and not one of those discontinuances has been dated. The end year is a withheld unknown, not an abandonment -- DO NOT extend this line to a rounder year without evidence. Equally, 1883 is the earliest year positively CONFIRMED, not the year the line opened: the branch is older than the map shows, and the confirmed start is deliberately late rather than guessed early. The first railroad completed across Missouri, and the road that carried the Pony Express mail west from St. Joseph in 1860. By 1951 the through trains ran Chicago - Kansas City instead and the St. Joseph leg was a mixed train. Headway is an estimate and is NOT sourced.", "sources": ["Segment-level: start year 1883 from branchline.uk (John Fowler, Passenger Stations & Stops) -- the CB&Q absorbed the Hannibal and St. Joseph Railroad in 1883. End year 1952 from Table 6 of the Feb 1952 Official Guide -- Feb 1952 Table 6 footnote g, \"mixed train between Cameron Junction and St. Joseph\". The end is a FLOOR on service, not the year it stopped. Headway and avg_speed_kmh are estimates and are NOT sourced.", "Feb 1952 Official Guide of the Railways (schedules effective 30 September 1951 / 27 January 1952), Burlington Lines section; full OCR cached at research/sources/official_guide_1952.txt", "research/branches/chicago_burlington_and_quincy_railroad.txt (research pass 2026-08-30)"]}]}, "geometry": {"type": "LineString", "coordinates": [[-91.356191, 39.712549], [-91.532513, 39.79704], [-91.532586, 39.794136], [-91.533258, 39.791637], [-91.535119, 39.788472], [-91.537173, 39.786514], [-91.580633, 39.763689], [-91.586146, 39.760044], [-91.590557, 39.756242], [-91.593693, 39.752786], [-91.59643, 39.748923], [-91.620699, 39.707524], [-91.625375, 39.700603], [-91.629967, 39.695236], [-91.63622, 39.689282], [-91.641613, 39.684923], [-91.652142, 39.677457], [-91.67979, 39.662895], [-91.685327, 39.660919], [-91.74272, 39.651472], [-91.745562, 39.651222], [-91.763481, 39.651182], [-91.86877, 39.667747], [-91.877235, 39.668005], [-91.914183, 39.66519], [-91.920192, 39.665449], [-92.24682, 39.741502], [-92.25361, 39.742151], [-92.353388, 39.746492], [-92.378695, 39.746796], [-92.383541, 39.746494], [-92.392827, 39.745157], [-92.395865, 39.744423], [-92.411724, 39.739103], [-92.419926, 39.737346], [-92.426152, 39.73656], [-92.435481, 39.736239], [-92.468317, 39.736769], [-92.477208, 39.737545], [-92.487859, 39.73725], [-92.493111, 39.738081], [-92.502403, 39.740395], [-92.521501, 39.743184], [-92.532551, 39.743959], [-92.542002, 39.744108], [-92.543871, 39.744505], [-92.549146, 39.746563], [-92.553532, 39.747398], [-92.564322, 39.747098], [-92.570556, 39.747475], [-92.580974, 39.746007], [-92.584912, 39.746246], [-92.587283, 39.747013], [-92.592518, 39.750041], [-92.595265, 39.751171], [-92.631269, 39.76228], [-92.637593, 39.763132], [-92.652702, 39.761664], [-92.65636, 39.76178], [-92.659691, 39.762242], [-92.66291, 39.763083], [-92.720556, 39.782016], [-92.723399, 39.782709], [-92.726564, 39.782725], [-92.728099, 39.782437], [-92.73092, 39.781365], [-92.734311, 39.779592], [-92.742475, 39.778446], [-92.74475, 39.777828], [-92.748563, 39.776151], [-92.752607, 39.773384], [-92.759202, 39.770067], [-92.762517, 39.768877], [-92.766177, 39.768157], [-92.769953, 39.76797], [-92.772757, 39.768175], [-92.782199, 39.770331], [-92.79152, 39.772195], [-92.793222, 39.772302], [-92.79589, 39.771767], [-92.809699, 39.76691], [-92.811636, 39.766791], [-92.82214, 39.767615], [-92.828577, 39.766487], [-92.831706, 39.766277], [-92.836091, 39.766677], [-92.855919, 39.770929], [-92.857739, 39.771017], [-92.86206, 39.770596], [-92.871789, 39.770938], [-92.873593, 39.77127], [-92.87535, 39.772062], [-92.889881, 39.781535], [-92.892583, 39.782885], [-92.895545, 39.783863], [-92.90741, 39.786432], [-92.9098, 39.786698], [-92.912025, 39.786554], [-92.921193, 39.783899], [-92.924289, 39.7835], [-92.927488, 39.783544], [-92.930565, 39.784013], [-92.9658, 39.791888], [-92.981213, 39.794197], [-92.984389, 39.793895], [-93.001887, 39.789982], [-93.031588, 39.786066], [-93.065106, 39.787272], [-93.068142, 39.786825], [-93.07451, 39.784903], [-93.080931, 39.78413], [-93.094565, 39.785748], [-93.109711, 39.786703], [-93.140987, 39.785356], [-93.169552, 39.785912], [-93.179277, 39.787464], [-93.181215, 39.787496], [-93.211981, 39.784088], [-93.237348, 39.78424], [-93.240364, 39.783588], [-93.245524, 39.781221], [-93.247138, 39.780715], [-93.24854, 39.78065], [-93.251938, 39.781042], [-93.268566, 39.786231], [-93.27173, 39.78646], [-93.288868, 39.786362], [-93.301037, 39.784795], [-93.351898, 39.785872], [-93.373305, 39.785644], [-93.388393, 39.785289], [-93.4038, 39.783892], [-93.429328, 39.784989], [-93.455382, 39.784631], [-93.506599, 39.788248], [-93.524074, 39.787702], [-93.531309, 39.786512], [-93.547886, 39.787763], [-93.551929, 39.787113], [-93.558294, 39.785071], [-93.56506, 39.785263], [-93.568252, 39.786297], [-93.571563, 39.789302], [-93.573495, 39.790165], [-93.636505, 39.796543], [-93.678387, 39.801214], [-93.679976, 39.801638], [-93.751537, 39.83488], [-93.793373, 39.855535], [-93.794051, 39.858749], [-93.792191, 39.861561], [-93.823301, 39.818541], [-93.824916, 39.816852], [-93.844927, 39.800582], [-93.857698, 39.781978], [-93.867384, 39.772061], [-93.876551, 39.759504], [-93.892002, 39.759783], [-93.896568, 39.759536], [-93.90047, 39.75867], [-93.924635, 39.75105], [-93.92783, 39.750577], [-93.954784, 39.748564], [-93.974143, 39.744261], [-93.980509, 39.743157], [-93.985596, 39.742882], [-93.997987, 39.743197], [-94.002469, 39.744086], [-94.031167, 39.76197], [-94.032822, 39.762757], [-94.099872, 39.778663], [-94.104345, 39.779052], [-94.124986, 39.777298], [-94.126729, 39.776819], [-94.128514, 39.775781], [-94.139564, 39.765904], [-94.142842, 39.764938], [-94.150249, 39.764655], [-94.153593, 39.764049], [-94.156175, 39.762999], [-94.161423, 39.759553], [-94.163686, 39.758638], [-94.166656, 39.758416], [-94.181531, 39.760513], [-94.194221, 39.760094], [-94.197517, 39.7594], [-94.200455, 39.75797], [-94.206439, 39.753762], [-94.210442, 39.751446], [-94.226719, 39.743534], [-94.349737, 39.747112], [-94.452665, 39.754215], [-94.456587, 39.754088], [-94.501559, 39.749712], [-94.510079, 39.746219], [-94.512852, 39.745883], [-94.520405, 39.745967], [-94.522686, 39.745616], [-94.527594, 39.74434], [-94.542536, 39.7395], [-94.544214, 39.738868], [-94.546787, 39.737171], [-94.553719, 39.729258], [-94.55642, 39.727293], [-94.589131, 39.717485], [-94.599184, 39.713176], [-94.602012, 39.712474], [-94.603982, 39.71232], [-94.607138, 39.712502], [-94.624635, 39.715001], [-94.626842, 39.715646], [-94.638664, 39.720937], [-94.643317, 39.722073], [-94.656093, 39.721642], [-94.665077, 39.72339], [-94.667229, 39.723473], [-94.668604, 39.723233], [-94.67361, 39.72141], [-94.676364, 39.721209], [-94.698695, 39.724961], [-94.745092, 39.726407], [-94.748701, 39.726017], [-94.759588, 39.72267], [-94.763143, 39.722367], [-94.765727, 39.722793], [-94.77356, 39.725578], [-94.781682, 39.725823], [-94.78629, 39.726562], [-94.793, 39.728415], [-94.800509, 39.731222], [-94.804306, 39.731794], [-94.80668, 39.731448], [-94.813314, 39.729149], [-94.821275, 39.72829], [-94.822911, 39.728355], [-94.825755, 39.729335], [-94.846636, 39.741271], [-94.848873, 39.742859], [-94.850387, 39.744796], [-94.851042, 39.746606], [-94.851235, 39.75514], [-94.852544, 39.75697], [-94.85324, 39.757363]]}}, {"type": "Feature", "properties": {"company": "Chicago, Burlington and Quincy Railroad", "line": "Chicago, Burlington and Quincy: St. Louis – Hannibal (via Mexico)", "id": "cbq-stlouis-mexico-hannibal", "color": "#8E1B3C", "mode": "intercity_rail", "avg_speed_kmh": 50, "speed_source": "estimated, NOT sourced: a secondary branch of this era, taken from the kind of service the Feb 1952 Guide shows (Table 7) rather than from any timetable's running times", "geometry_source": "OpenStreetMap via Overpass, 2026-08-30", "geometry_quality": "Real trace from OpenStreetMap: a Dijkstra shortest path over every railway way (rail, abandoned, disused, razed, dismantled) in a corridor around the route, with ways tagged old_railway_operator=CB&Q costed at 1x and all other track at 3x, so the path stays on the Burlington's own alignment wherever OSM records it. Snapped to the report's own station list; every one of the 6 waypoints lies within 0.9 km of the drawn line. OSM lines followed: [abandoned] 72 mi; NS St. Louis District 24 mi; NS Springfield-Hannibal District 22 mi; Saint Louis District 3 mi; Merchants Subdivision 3 mi; CPKC Roodhouse Subdivision 2 mi. TRACED LENGTH 161.7 mi against a DOCUMENTED 145 mi (+12%). APPROXIMATED: 33.9 mi of the total is straight-line, drawn across 1 place(s) where the grade is lifted and OSM has no way at all -- Mexico-Monroe City 33.9 mi. Those legs are ruled lines, not survey. ERA NOTE: much of the surviving alignment is today's BNSF, which is the CB&Q's own successor on this route, so the modern centreline is the historical one; where the line is abandoned the trace follows the recorded grade. Simplified to a 20 m Douglas-Peucker tolerance.", "segments": [{"start": 1951, "end": 1952, "headway_min": 720, "note": "Feb 1952 Table 7, times legible. THIS TWO-YEAR SPAN IS A CONFIRMED-ONLY STUB, NOT THE LIFE OF THE BRANCH. The Feb 1952 Official Guide is a single snapshot, and it is the only evidence anyone has found for passenger service on this line. The branch is certainly far older and probably ran on past 1952; drawing 1951-1952 is a refusal to invent the other seventy years, not a claim they did not happen. BOTH ends are withheld unknowns. The Missouri end of the CB&Q's St. Louis - Kansas City - Denver service, running St. Louis - Hawk Point - Mexico - Francis - Hannibal. Headway is an estimate and is NOT sourced.", "sources": ["Segment-level for 1951 ONLY: Table 7 of the Feb 1952 Official Guide -- Feb 1952 Table 7, times legible. NOT SOURCED for any other year: no start year and no end year have been established for this branch. Headway and avg_speed_kmh are estimates and are NOT sourced.", "Feb 1952 Official Guide of the Railways (schedules effective 30 September 1951 / 27 January 1952), Burlington Lines section; full OCR cached at research/sources/official_guide_1952.txt", "research/branches/chicago_burlington_and_quincy_railroad.txt (research pass 2026-08-30)"]}]}, "geometry": {"type": "LineString", "coordinates": [[-90.183138, 38.62761], [-90.182496, 38.629022], [-90.181808, 38.633096], [-90.182698, 38.63534], [-90.183628, 38.643253], [-90.184516, 38.646238], [-90.186145, 38.649669], [-90.1864, 38.652747], [-90.196169, 38.671833], [-90.197408, 38.672822], [-90.200081, 38.673619], [-90.198699, 38.673296], [-90.200463, 38.674057], [-90.202346, 38.676687], [-90.208449, 38.683706], [-90.230942, 38.706069], [-90.233278, 38.707902], [-90.236102, 38.709426], [-90.251353, 38.714746], [-90.259742, 38.719048], [-90.263436, 38.721654], [-90.267878, 38.727058], [-90.27018, 38.728763], [-90.282155, 38.734732], [-90.302811, 38.743087], [-90.306012, 38.745148], [-90.311324, 38.74945], [-90.313033, 38.750407], [-90.345487, 38.757862], [-90.384454, 38.759738], [-90.38837, 38.760569], [-90.390935, 38.76199], [-90.404399, 38.772483], [-90.40755, 38.774172], [-90.413308, 38.775223], [-90.427612, 38.776082], [-90.432598, 38.777322], [-90.435399, 38.778507], [-90.48187, 38.806143], [-90.497946, 38.817769], [-90.499263, 38.818492], [-90.501208, 38.819021], [-90.503991, 38.818939], [-90.575684, 38.80465], [-90.609504, 38.801552], [-90.612502, 38.8017], [-90.619154, 38.802764], [-90.628935, 38.804398], [-90.630819, 38.805089], [-90.671559, 38.833202], [-90.682233, 38.840967], [-90.711156, 38.865805], [-90.720747, 38.8748], [-90.729834, 38.886009], [-90.741993, 38.909264], [-90.744737, 38.922118], [-90.747022, 38.937569], [-90.747949, 38.936381], [-90.749205, 38.936101], [-90.75409, 38.937609], [-90.774218, 38.938843], [-90.777477, 38.938583], [-90.787497, 38.93658], [-90.790759, 38.93623], [-90.809505, 38.938284], [-90.818769, 38.938996], [-90.886826, 38.94332], [-90.931137, 38.943512], [-90.933798, 38.943913], [-90.936931, 38.944847], [-90.956006, 38.952757], [-90.964632, 38.954122], [-90.982979, 38.956044], [-90.987764, 38.956912], [-91.001368, 38.960116], [-91.005337, 38.960483], [-91.067887, 38.962101], [-91.075847, 38.963319], [-91.09267, 38.967657], [-91.095867, 38.968074], [-91.151121, 38.969008], [-91.195083, 38.976547], [-91.201722, 38.977471], [-91.224859, 38.97767], [-91.284435, 38.975409], [-91.291537, 38.975809], [-91.29718, 38.977605], [-91.312415, 38.985267], [-91.321041, 38.989186], [-91.540064, 39.073454], [-91.572675, 39.085015], [-91.831712, 39.174671], [-91.837227, 39.17578], [-91.841068, 39.175852], [-91.844973, 39.17542], [-91.849733, 39.174399], [-91.868155, 39.168122], [-91.870668, 39.167635], [-91.872859, 39.167597], [-91.734694, 39.646464], [-91.632578, 39.662932], [-91.603111, 39.661775], [-91.573059, 39.657604], [-91.569268, 39.657646], [-91.566022, 39.658635], [-91.563065, 39.660709], [-91.553118, 39.674486], [-91.550187, 39.676717], [-91.548004, 39.677541], [-91.545753, 39.677927], [-91.535307, 39.67805], [-91.532745, 39.678375], [-91.517718, 39.684675], [-91.514408, 39.685481], [-91.505528, 39.686068], [-91.497556, 39.685194], [-91.495454, 39.685202], [-91.492731, 39.685724], [-91.488195, 39.687466], [-91.485001, 39.687888], [-91.482402, 39.687638], [-91.476564, 39.686138], [-91.467164, 39.686188], [-91.464196, 39.686836], [-91.45718, 39.68992], [-91.453544, 39.690406], [-91.45054, 39.690024], [-91.442337, 39.687561], [-91.438857, 39.686946], [-91.435425, 39.687025], [-91.427276, 39.688147], [-91.42354, 39.688003], [-91.420114, 39.687126], [-91.412356, 39.683702], [-91.409699, 39.68283], [-91.405982, 39.682388], [-91.401323, 39.682792], [-91.396295, 39.683975], [-91.390379, 39.686226], [-91.374379, 39.693941], [-91.368475, 39.697369], [-91.360532, 39.702591]]}}, {"type": "Feature", "properties": {"company": "Chicago, Burlington and Quincy Railroad", "line": "Chicago, Burlington and Quincy: Alliance – Casper", "id": "cbq-alliance-casper", "color": "#8E1B3C", "mode": "intercity_rail", "avg_speed_kmh": 55, "speed_source": "estimated, NOT sourced: a secondary branch of this era, taken from the kind of service the Feb 1952 Guide shows (Table 21) rather than from any timetable's running times", "geometry_source": "OpenStreetMap via Overpass, 2026-08-30", "geometry_quality": "Real trace from OpenStreetMap: a Dijkstra shortest path over every railway way (rail, abandoned, disused, razed, dismantled) in a corridor around the route, with ways tagged old_railway_operator=CB&Q costed at 1x and all other track at 3x, so the path stays on the Burlington's own alignment wherever OSM records it. Snapped to the report's own station list; every one of the 11 waypoints lies within 3.2 km of the drawn line. OSM lines followed: BNSF Valley Subdivision 90 mi; [abandoned] 44 mi; BNSF Canyon Subdivision 43 mi; BNSF Angora Subdivision 37 mi; Union Pacific Railroad 6 mi; Abandoned Railroad 6 mi. TRACED LENGTH 235.2 mi against a DOCUMENTED 231 mi (+2%). No straight-line approximation: the whole route is on mapped track. ERA NOTE: much of the surviving alignment is today's BNSF, which is the CB&Q's own successor on this route, so the modern centreline is the historical one; where the line is abandoned the trace follows the recorded grade. Simplified to a 20 m Douglas-Peucker tolerance.", "segments": [{"start": 1914, "end": 1952, "headway_min": 720, "note": "the Casper - Orin Junction link was completed in 1914, giving through Alliance - Casper running; the Alliance - Guernsey portion dates from about 1900 but is NOT firmly sourced. Feb 1952 Table 21 shows trains 31 and 32 with full times Alliance - Casper. THE 1952 END IS THE LAST CONFIRMED YEAR, NOT A KNOWN END. No source consulted dates when passenger service actually stopped here; the Burlington's branch trains were swept away somewhere between about 1952 and 1968 and not one of those discontinuances has been dated. The end year is a withheld unknown, not an abandonment -- DO NOT extend this line to a rounder year without evidence. Equally, 1914 is the earliest year positively CONFIRMED, not the year the line opened: the branch is older than the map shows, and the confirmed start is deliberately late rather than guessed early. BUS TRAP HANDLED: Table 21's footnotes name American Bus Lines for SOME station pairs between Casper and Alliance (\"a American Buslines; from stations Casper to Alliance\"). The rail column, not the bus column, is what is drawn here. Headway is an estimate and is NOT sourced.", "sources": ["Segment-level: start year 1914 from branchline.uk (John Fowler, Passenger Stations & Stops) -- the Casper - Orin Junction link was completed in 1914, giving through Alliance - Casper running; the Alliance - Guernsey portion dates from about 1900 but is NOT firmly sourced. End year 1952 from Table 21 of the Feb 1952 Official Guide -- Feb 1952 Table 21 shows trains 31 and 32 with full times Alliance - Casper. The end is a FLOOR on service, not the year it stopped. Headway and avg_speed_kmh are estimates and are NOT sourced.", "Feb 1952 Official Guide of the Railways (schedules effective 30 September 1951 / 27 January 1952), Burlington Lines section; full OCR cached at research/sources/official_guide_1952.txt", "research/branches/chicago_burlington_and_quincy_railroad.txt (research pass 2026-08-30)"]}]}, "geometry": {"type": "LineString", "coordinates": [[-102.875533, 42.094168], [-102.881542, 42.094242], [-102.882905, 42.093858], [-102.883958, 42.093091], [-102.913898, 42.045562], [-102.954014, 41.999154], [-102.955499, 41.996732], [-102.958906, 41.988149], [-102.960629, 41.9856], [-102.97797, 41.968159], [-102.985572, 41.961674], [-102.988151, 41.960175], [-102.99435, 41.95749], [-102.999687, 41.952464], [-103.001312, 41.951329], [-103.008118, 41.94849], [-103.011117, 41.946854], [-103.060571, 41.912003], [-103.075564, 41.899044], [-103.084969, 41.887944], [-103.08706, 41.885946], [-103.103956, 41.875625], [-103.106582, 41.873441], [-103.125513, 41.849126], [-103.1266, 41.846456], [-103.126755, 41.844557], [-103.126043, 41.841589], [-103.124695, 41.839395], [-103.10295, 41.818071], [-103.09673, 41.81418], [-103.095137, 41.812136], [-103.094376, 41.809758], [-103.094806, 41.80682], [-103.096172, 41.804722], [-103.106808, 41.79617], [-103.11193, 41.791319], [-103.113029, 41.788171], [-103.112339, 41.779704], [-103.112944, 41.777223], [-103.11483, 41.77468], [-103.119391, 41.77183], [-103.121406, 41.769641], [-103.122263, 41.767238], [-103.123069, 41.761346], [-103.12711, 41.755796], [-103.128044, 41.753332], [-103.127985, 41.751477], [-103.127338, 41.749647], [-103.121546, 41.743029], [-103.10916, 41.720919], [-103.108057, 41.718085], [-103.107953, 41.715715], [-103.108711, 41.713034], [-103.112842, 41.70717], [-103.114156, 41.704299], [-103.115572, 41.696376], [-103.117163, 41.693525], [-103.116919, 41.691624], [-103.117564, 41.693031], [-103.118735, 41.694012], [-103.158501, 41.71515], [-103.163057, 41.716984], [-103.167116, 41.717817], [-103.244784, 41.727306], [-103.249355, 41.728148], [-103.432597, 41.785567], [-103.653476, 41.8543], [-103.658464, 41.856849], [-103.73048, 41.90744], [-103.732933, 41.908884], [-103.853896, 41.955725], [-103.857405, 41.956575], [-103.861137, 41.956985], [-103.992029, 41.966721], [-103.996686, 41.967705], [-104.021255, 41.976288], [-104.025183, 41.978214], [-104.028687, 41.980987], [-104.0309, 41.983792], [-104.035667, 41.991933], [-104.037637, 41.994154], [-104.040127, 41.996105], [-104.088851, 42.021107], [-104.283327, 42.104532], [-104.491814, 42.202251], [-104.518956, 42.212299], [-104.522554, 42.214354], [-104.538304, 42.227505], [-104.54103, 42.229137], [-104.56212, 42.234511], [-104.571344, 42.238288], [-104.579781, 42.244113], [-104.582353, 42.245148], [-104.584762, 42.245699], [-104.589213, 42.245868], [-104.599607, 42.244135], [-104.61602, 42.245314], [-104.619511, 42.245995], [-104.62951, 42.249581], [-104.632846, 42.250096], [-104.636107, 42.249822], [-104.64528, 42.247946], [-104.651891, 42.248222], [-104.657002, 42.247613], [-104.659875, 42.247616], [-104.672797, 42.250944], [-104.674946, 42.252251], [-104.679372, 42.256115], [-104.682939, 42.257588], [-104.687127, 42.258032], [-104.695603, 42.257361], [-104.698556, 42.257877], [-104.702097, 42.259153], [-104.70457, 42.259666], [-104.707306, 42.259711], [-104.712818, 42.259076], [-104.716565, 42.259626], [-104.72077, 42.261454], [-104.749176, 42.276321], [-104.75882, 42.278332], [-104.762708, 42.279823], [-104.766565, 42.282725], [-104.774193, 42.292028], [-104.775891, 42.293585], [-104.7998, 42.304901], [-104.802566, 42.305773], [-104.805241, 42.306171], [-104.813924, 42.305822], [-104.815888, 42.306005], [-104.818352, 42.30666], [-104.821328, 42.308317], [-104.835225, 42.319247], [-104.848559, 42.32332], [-104.851233, 42.323756], [-104.854133, 42.323661], [-104.861295, 42.321606], [-104.864116, 42.321233], [-104.866644, 42.321461], [-104.869209, 42.322371], [-104.870672, 42.323353], [-104.872039, 42.324869], [-104.877626, 42.337334], [-104.878991, 42.339346], [-104.881982, 42.342441], [-104.883995, 42.343492], [-104.890815, 42.344869], [-104.897877, 42.347107], [-104.901883, 42.349525], [-104.904684, 42.352821], [-104.90824, 42.355191], [-104.909449, 42.35637], [-104.910187, 42.358226], [-104.909776, 42.361176], [-104.908296, 42.365495], [-104.905384, 42.369534], [-104.904576, 42.372791], [-104.907554, 42.380192], [-104.908325, 42.381349], [-104.909722, 42.3822], [-104.913528, 42.383158], [-104.91478, 42.383969], [-104.915588, 42.38528], [-104.915898, 42.38817], [-104.91671, 42.389339], [-104.917806, 42.39015], [-104.91933, 42.390738], [-104.920913, 42.390933], [-104.924439, 42.390389], [-104.926062, 42.390423], [-104.929716, 42.391691], [-104.946728, 42.40296], [-104.949085, 42.405149], [-104.95022, 42.407802], [-104.950915, 42.418357], [-104.950727, 42.419966], [-104.949401, 42.42373], [-104.949716, 42.425938], [-104.951519, 42.42801], [-104.958698, 42.431629], [-104.961525, 42.434153], [-104.965067, 42.436468], [-104.966375, 42.438081], [-104.967464, 42.440968], [-104.96757, 42.446835], [-104.965339, 42.45093], [-104.965167, 42.452203], [-104.96573, 42.453727], [-104.969824, 42.45988], [-104.971671, 42.461632], [-104.973747, 42.462954], [-104.989399, 42.469125], [-104.992758, 42.470033], [-105.00375, 42.472095], [-105.007005, 42.473455], [-105.009036, 42.475112], [-105.010256, 42.47687], [-105.0125, 42.48416], [-105.013613, 42.486171], [-105.015441, 42.487893], [-105.022994, 42.492553], [-105.025328, 42.494843], [-105.027035, 42.497986], [-105.027466, 42.501742], [-105.0268, 42.504171], [-105.024392, 42.508921], [-105.023899, 42.510801], [-105.025006, 42.52211], [-105.035705, 42.549298], [-105.037888, 42.552799], [-105.046071, 42.561581], [-105.047438, 42.562306], [-105.053166, 42.564153], [-105.067031, 42.572262], [-105.069978, 42.574792], [-105.071785, 42.57816], [-105.072079, 42.580745], [-105.071439, 42.583549], [-105.068476, 42.588459], [-105.06851, 42.589486], [-105.069458, 42.59113], [-105.071296, 42.592181], [-105.080877, 42.594517], [-105.082478, 42.595198], [-105.087868, 42.599298], [-105.162623, 42.647191], [-105.17053, 42.652093], [-105.173622, 42.653397], [-105.178465, 42.65448], [-105.183633, 42.654686], [-105.192151, 42.65347], [-105.192353, 42.654118], [-105.214735, 42.651067], [-105.218283, 42.651094], [-105.286034, 42.658998], [-105.315972, 42.668304], [-105.320493, 42.670172], [-105.333315, 42.678677], [-105.335949, 42.680907], [-105.348812, 42.688844], [-105.357216, 42.694441], [-105.373942, 42.713983], [-105.37513, 42.716871], [-105.38822, 42.762251], [-105.390556, 42.769302], [-105.392241, 42.771521], [-105.423527, 42.790026], [-105.470238, 42.824196], [-105.486051, 42.83095], [-105.488273, 42.832316], [-105.494843, 42.838032], [-105.49804, 42.839715], [-105.500368, 42.840297], [-105.503887, 42.840392], [-105.522566, 42.836624], [-105.52758, 42.836536], [-105.605157, 42.844294], [-105.644993, 42.848589], [-105.691792, 42.849367], [-105.695215, 42.849753], [-105.701641, 42.85131], [-105.704885, 42.851669], [-105.708455, 42.850972], [-105.716845, 42.846347], [-105.719441, 42.845528], [-105.733896, 42.842387], [-105.73532, 42.841752], [-105.740827, 42.837557], [-105.744045, 42.835952], [-105.747264, 42.834882], [-105.789264, 42.827088], [-105.792311, 42.827041], [-105.795179, 42.827439], [-105.799134, 42.828991], [-105.819111, 42.844773], [-105.822623, 42.846651], [-105.834613, 42.852225], [-105.835596, 42.85235], [-105.838356, 42.853648], [-105.838516, 42.854011], [-105.852765, 42.860589], [-105.856717, 42.861731], [-105.900714, 42.864279], [-105.902495, 42.864059], [-105.907124, 42.862365], [-105.910542, 42.861605], [-105.912602, 42.861747], [-105.917988, 42.86291], [-105.922923, 42.862706], [-105.939145, 42.860567], [-105.984399, 42.847825], [-105.988304, 42.847341], [-106.015148, 42.851066], [-106.016843, 42.851695], [-106.035082, 42.861951], [-106.047629, 42.866423], [-106.050382, 42.867047], [-106.060789, 42.868289], [-106.062977, 42.868179], [-106.065252, 42.867629], [-106.067612, 42.86626], [-106.07126, 42.863256], [-106.072885, 42.862337], [-106.098164, 42.85584], [-106.102824, 42.855649], [-106.114407, 42.855979], [-106.120874, 42.857251], [-106.134716, 42.858408], [-106.153689, 42.85802], [-106.15645, 42.857198], [-106.167795, 42.851723], [-106.175536, 42.846546], [-106.188709, 42.841803], [-106.192149, 42.840983], [-106.195518, 42.840978], [-106.199022, 42.841777], [-106.201645, 42.843082], [-106.20892, 42.848308], [-106.222437, 42.85287], [-106.263285, 42.85745], [-106.26645, 42.857453], [-106.308898, 42.851883], [-106.313152, 42.850921], [-106.320241, 42.84841]]}}, {"type": "Feature", "properties": {"company": "Chicago, Burlington and Quincy Railroad", "line": "Chicago, Burlington and Quincy: Lincoln – Alliance (Sand Hills)", "id": "cbq-lincoln-ravenna-alliance-sandhills", "color": "#8E1B3C", "mode": "intercity_rail", "avg_speed_kmh": 55, "speed_source": "estimated, NOT sourced: a secondary branch of this era, taken from the kind of service the Feb 1952 Guide shows (Table 21) rather than from any timetable's running times", "geometry_source": "OpenStreetMap via Overpass, 2026-08-30", "geometry_quality": "Real trace from OpenStreetMap: a Dijkstra shortest path over every railway way (rail, abandoned, disused, razed, dismantled) in a corridor around the route, with ways tagged old_railway_operator=CB&Q costed at 1x and all other track at 3x, so the path stays on the Burlington's own alignment wherever OSM records it. Snapped to the report's own station list; every one of the 16 waypoints lies within 0.8 km of the drawn line. OSM lines followed: BNSF Sand Hills Subdivision 236 mi; BNSF Ravenna Subdivision 96 mi; Burlington Northern 12 mi; [abandoned] 9 mi; UP Lincoln Subdivision 4 mi; Woodlawn Industrial Track 2 mi. TRACED LENGTH 361.6 mi against a DOCUMENTED 250 mi (+45%). No straight-line approximation: the whole route is on mapped track. MILEAGE NOTE: the report's \"approx 250 mi\" is a partial figure -- it is read off the Table 21 milepost column, which reaches 258 only at Seneca, and Alliance is a further hundred miles west. The traced 362 mi is the whole Lincoln - Alliance distance and is the better number; the +45%% gap is the report's figure being short, not the trace being wrong. Every one of the sixteen waypoints lies within 0.8 km of the drawn line. ERA NOTE: much of the surviving alignment is today's BNSF, which is the CB&Q's own successor on this route, so the modern centreline is the historical one; where the line is abandoned the trace follows the recorded grade. Simplified to a 20 m Douglas-Peucker tolerance.", "segments": [{"start": 1893, "end": 1952, "headway_min": 720, "note": "branchline.uk nebraskarrs route 35 (Lincoln - Edgemont): one station lettered z = the 1893 Official Guide. This REPLACES a looser \"1888 approx\" from the construction history -- 1893 is confirmed and 1888 was not. Feb 1952 Table 21. THE 1952 END IS THE LAST CONFIRMED YEAR, NOT A KNOWN END. No source consulted dates when passenger service actually stopped here; the Burlington's branch trains were swept away somewhere between about 1952 and 1968 and not one of those discontinuances has been dated. The end year is a withheld unknown, not an abandonment -- DO NOT extend this line to a rounder year without evidence. Equally, 1893 is the earliest year positively CONFIRMED, not the year the line opened: the branch is older than the map shows, and the confirmed start is deliberately late rather than guessed early. The Sand Hills crossing, the loneliest main-line passenger route on the system. NOTE the existing layer burlington_route_lincoln_billings.geojson also runs Lincoln - Alliance on its way to Billings; this feature draws the same corridor as the Sand Hills route in its own right, on the earlier confirmed start year. Headway is an estimate and is NOT sourced.", "sources": ["Segment-level: start year 1893 from branchline.uk (John Fowler, Passenger Stations & Stops) -- branchline.uk nebraskarrs route 35 (Lincoln - Edgemont): one station lettered z = the 1893 Official Guide. This REPLACES a looser \"1888 approx\" from the construction history -- 1893 is confirmed and 1888 was not. End year 1952 from Table 21 of the Feb 1952 Official Guide -- Feb 1952 Table 21. The end is a FLOOR on service, not the year it stopped. Headway and avg_speed_kmh are estimates and are NOT sourced.", "Feb 1952 Official Guide of the Railways (schedules effective 30 September 1951 / 27 January 1952), Burlington Lines section; full OCR cached at research/sources/official_guide_1952.txt", "https://www.branchline.uk/jfpdf/nebraskarrs.pdf", "research/branches/chicago_burlington_and_quincy_railroad.txt (research pass 2026-08-30)"]}]}, "geometry": {"type": "LineString", "coordinates": [[-96.714244, 40.813563], [-96.714406, 40.817113], [-96.714793, 40.817885], [-96.718268, 40.819699], [-96.721178, 40.823116], [-96.731225, 40.830403], [-96.742346, 40.84256], [-96.743519, 40.845653], [-96.743593, 40.858317], [-96.744101, 40.860082], [-96.745079, 40.861696], [-96.747447, 40.863742], [-96.761357, 40.872226], [-96.763546, 40.873068], [-96.78499, 40.878983], [-96.787575, 40.880363], [-96.794175, 40.886071], [-96.795449, 40.886949], [-96.797268, 40.887596], [-96.801534, 40.887554], [-96.819893, 40.883903], [-96.821583, 40.88376], [-96.824072, 40.884274], [-96.860171, 40.903392], [-96.872819, 40.91159], [-96.881817, 40.91485], [-96.89882, 40.919942], [-96.902132, 40.921343], [-96.911235, 40.926477], [-96.913444, 40.926991], [-96.918993, 40.926766], [-96.921598, 40.927087], [-96.929724, 40.930582], [-96.931257, 40.931751], [-96.93368, 40.934535], [-96.935488, 40.935694], [-96.938973, 40.936925], [-96.940712, 40.937895], [-96.942409, 40.939219], [-96.945637, 40.942974], [-96.948743, 40.944304], [-96.967211, 40.944509], [-96.974389, 40.944038], [-96.98176, 40.945473], [-96.98525, 40.945424], [-97.010494, 40.938153], [-97.043019, 40.934653], [-97.046781, 40.933163], [-97.066611, 40.917859], [-97.067484, 40.916837], [-97.068649, 40.91371], [-97.069356, 40.912865], [-97.072154, 40.911653], [-97.078587, 40.910367], [-97.080025, 40.909683], [-97.080992, 40.909029], [-97.086085, 40.903042], [-97.08733, 40.90206], [-97.090466, 40.901233], [-97.092153, 40.901227], [-97.098562, 40.903828], [-97.101595, 40.90418], [-97.104468, 40.903871], [-97.107134, 40.902453], [-97.112183, 40.897477], [-97.113192, 40.896853], [-97.116282, 40.895701], [-97.124721, 40.894413], [-97.55946, 40.894277], [-97.562775, 40.893727], [-97.565694, 40.892396], [-97.586901, 40.876017], [-97.589507, 40.874953], [-97.594734, 40.873841], [-97.596974, 40.873894], [-97.64914, 40.879538], [-97.665058, 40.882056], [-97.667745, 40.882251], [-97.863579, 40.880741], [-97.866979, 40.880492], [-97.984304, 40.863293], [-98.006367, 40.862229], [-98.015274, 40.862087], [-98.016974, 40.861632], [-98.019826, 40.859847], [-98.019018, 40.860718], [-98.01895, 40.861908], [-98.019833, 40.862909], [-98.021219, 40.863371], [-98.198701, 40.893781], [-98.202669, 40.894059], [-98.248518, 40.893672], [-98.252645, 40.894269], [-98.312525, 40.918292], [-98.331608, 40.926419], [-98.333592, 40.927728], [-98.334918, 40.929144], [-98.345826, 40.94407], [-98.347941, 40.945619], [-98.349874, 40.946391], [-98.612155, 41.003395], [-98.624704, 41.007845], [-98.654952, 41.019299], [-98.675226, 41.02411], [-98.680349, 41.024498], [-98.705687, 41.024218], [-98.708436, 41.024502], [-98.713989, 41.025638], [-98.718675, 41.025987], [-98.730606, 41.024602], [-98.744815, 41.024443], [-98.809768, 41.031173], [-98.892713, 41.025423], [-98.924085, 41.021859], [-98.927113, 41.021732], [-98.932314, 41.022338], [-98.982381, 41.033694], [-99.01702, 41.048437], [-99.047853, 41.06747], [-99.06253, 41.075493], [-99.064938, 41.077117], [-99.089001, 41.098383], [-99.090212, 41.099814], [-99.091008, 41.101498], [-99.098006, 41.124785], [-99.099504, 41.127341], [-99.101693, 41.129378], [-99.10421, 41.130806], [-99.148782, 41.151179], [-99.17064, 41.164509], [-99.180562, 41.171341], [-99.225514, 41.192919], [-99.226892, 41.193984], [-99.250048, 41.217838], [-99.251619, 41.218898], [-99.254351, 41.219974], [-99.257693, 41.220391], [-99.279824, 41.218334], [-99.283945, 41.218803], [-99.304793, 41.225987], [-99.324533, 41.235107], [-99.32761, 41.236793], [-99.361033, 41.26059], [-99.374847, 41.273262], [-99.377243, 41.275816], [-99.387019, 41.292549], [-99.40073, 41.304284], [-99.403745, 41.306291], [-99.435255, 41.319612], [-99.453178, 41.323295], [-99.456716, 41.324552], [-99.461628, 41.327492], [-99.483874, 41.343546], [-99.487566, 41.345398], [-99.491017, 41.34652], [-99.531909, 41.35686], [-99.548946, 41.362784], [-99.573197, 41.368588], [-99.575806, 41.369442], [-99.582096, 41.372521], [-99.586994, 41.375922], [-99.609073, 41.3982], [-99.611632, 41.40004], [-99.614046, 41.401002], [-99.624631, 41.404042], [-99.62992, 41.405281], [-99.65078, 41.405482], [-99.653011, 41.405698], [-99.655608, 41.406499], [-99.67899, 41.418489], [-99.701661, 41.432303], [-99.728283, 41.443295], [-99.731875, 41.445341], [-99.735103, 41.448325], [-99.75037, 41.467647], [-99.774017, 41.516225], [-99.822079, 41.579263], [-99.850879, 41.607913], [-99.88122, 41.63059], [-99.934972, 41.682704], [-99.947779, 41.691958], [-99.967274, 41.701341], [-99.971179, 41.70395], [-99.973574, 41.707034], [-99.977474, 41.71598], [-99.979231, 41.718689], [-99.981658, 41.721082], [-100.002189, 41.738072], [-100.004587, 41.739492], [-100.035158, 41.751238], [-100.039043, 41.753524], [-100.047294, 41.759277], [-100.048854, 41.761141], [-100.049797, 41.763745], [-100.050365, 41.778912], [-100.051245, 41.78144], [-100.054199, 41.786426], [-100.055931, 41.789014], [-100.058303, 41.791548], [-100.077376, 41.81075], [-100.08026, 41.813003], [-100.084309, 41.815063], [-100.095777, 41.819108], [-100.099007, 41.82075], [-100.107287, 41.827321], [-100.108909, 41.82821], [-100.120817, 41.832495], [-100.154196, 41.847598], [-100.175428, 41.859488], [-100.192883, 41.865439], [-100.195251, 41.866775], [-100.221103, 41.88537], [-100.246024, 41.89707], [-100.24998, 41.898329], [-100.275365, 41.903101], [-100.296668, 41.904518], [-100.300441, 41.905053], [-100.313702, 41.908883], [-100.315776, 41.909976], [-100.321414, 41.913868], [-100.326946, 41.915988], [-100.345282, 41.920297], [-100.363683, 41.921729], [-100.374729, 41.924323], [-100.426344, 41.946107], [-100.458951, 41.968794], [-100.461683, 41.970318], [-100.466107, 41.971881], [-100.479358, 41.974943], [-100.484698, 41.975554], [-100.497057, 41.975385], [-100.52105, 41.981016], [-100.526578, 41.981658], [-100.54925, 41.98045], [-100.562492, 41.977805], [-100.592282, 41.974648], [-100.59524, 41.974833], [-100.597457, 41.975409], [-100.606072, 41.979118], [-100.60817, 41.979516], [-100.614972, 41.979851], [-100.618394, 41.979508], [-100.633243, 41.975724], [-100.642851, 41.975413], [-100.64726, 41.97578], [-100.651766, 41.976956], [-100.680203, 41.988293], [-100.684581, 41.988512], [-100.696967, 41.987013], [-100.699864, 41.987368], [-100.702026, 41.98809], [-100.717244, 41.996884], [-100.720407, 41.999467], [-100.723142, 42.002577], [-100.728224, 42.014235], [-100.729305, 42.015622], [-100.731099, 42.017037], [-100.733698, 42.018214], [-100.743821, 42.021237], [-100.77543, 42.036188], [-100.780014, 42.037288], [-100.794686, 42.039519], [-100.812513, 42.040265], [-100.839078, 42.044739], [-100.856812, 42.046226], [-100.860522, 42.045823], [-100.875345, 42.04143], [-100.881624, 42.040892], [-100.904291, 42.043114], [-100.911587, 42.044187], [-100.919034, 42.04435], [-100.925695, 42.043659], [-100.930163, 42.043778], [-100.936981, 42.045063], [-100.94205, 42.046445], [-100.951826, 42.047134], [-100.95747, 42.04856], [-100.960394, 42.048807], [-100.990062, 42.046427], [-101.003742, 42.046253], [-101.020396, 42.04398], [-101.036098, 42.043492], [-101.048686, 42.040942], [-101.052171, 42.040643], [-101.070633, 42.043248], [-101.08862, 42.042701], [-101.120147, 42.047578], [-101.124674, 42.047897], [-101.175468, 42.042774], [-101.178645, 42.042041], [-101.184081, 42.039931], [-101.18817, 42.039202], [-101.221826, 42.041236], [-101.226564, 42.041113], [-101.240389, 42.038344], [-101.247807, 42.037925], [-101.250755, 42.037497], [-101.253744, 42.036516], [-101.259095, 42.034034], [-101.262597, 42.033301], [-101.265908, 42.033463], [-101.28768, 42.037942], [-101.292379, 42.03825], [-101.348696, 42.032432], [-101.352645, 42.033232], [-101.367805, 42.038709], [-101.371512, 42.039371], [-101.374881, 42.039544], [-101.39224, 42.038678], [-101.39695, 42.037467], [-101.413241, 42.032412], [-101.417346, 42.031777], [-101.42007, 42.031696], [-101.42388, 42.032034], [-101.457828, 42.038058], [-101.492641, 42.041445], [-101.525232, 42.041109], [-101.52813, 42.040781], [-101.531348, 42.040012], [-101.543093, 42.035798], [-101.547535, 42.034688], [-101.579154, 42.031437], [-101.601492, 42.025793], [-101.615581, 42.025055], [-101.618454, 42.024223], [-101.633724, 42.018225], [-101.673831, 42.007992], [-101.677002, 42.007614], [-101.69024, 42.007567], [-101.693248, 42.007061], [-101.695118, 42.00635], [-101.701879, 42.002781], [-101.705287, 42.00172], [-101.724496, 42.000605], [-101.738119, 41.999087], [-101.741804, 41.998926], [-101.798332, 42.006134], [-101.829812, 42.007002], [-101.8588, 42.012253], [-101.866485, 42.012717], [-101.876561, 42.016033], [-101.914676, 42.017919], [-101.918483, 42.01871], [-101.927923, 42.021774], [-101.931539, 42.022379], [-101.972659, 42.023864], [-101.995218, 42.021574], [-102.005763, 42.019278], [-102.014588, 42.019739], [-102.034396, 42.018206], [-102.066905, 42.014208], [-102.07033, 42.014165], [-102.074045, 42.015152], [-102.078578, 42.017984], [-102.081611, 42.019119], [-102.087553, 42.02021], [-102.099853, 42.021045], [-102.10257, 42.02151], [-102.118766, 42.028469], [-102.130727, 42.031302], [-102.146186, 42.03178], [-102.164681, 42.035088], [-102.166988, 42.03503], [-102.172014, 42.034277], [-102.17493, 42.034344], [-102.177179, 42.034827], [-102.196539, 42.040939], [-102.213257, 42.04241], [-102.225877, 42.04433], [-102.232747, 42.043592], [-102.235408, 42.043725], [-102.245677, 42.046973], [-102.258807, 42.049477], [-102.262463, 42.050453], [-102.266226, 42.051977], [-102.278266, 42.057862], [-102.283071, 42.05943], [-102.287641, 42.060038], [-102.308472, 42.06051], [-102.316436, 42.059631], [-102.319376, 42.059675], [-102.322936, 42.060633], [-102.328877, 42.063794], [-102.333852, 42.064878], [-102.338551, 42.064659], [-102.365674, 42.060697], [-102.383628, 42.055748], [-102.387703, 42.055127], [-102.44183, 42.055481], [-102.446702, 42.056184], [-102.470988, 42.061557], [-102.494182, 42.065041], [-102.497673, 42.064865], [-102.504391, 42.063231], [-102.506707, 42.062945], [-102.5319, 42.063938], [-102.53564, 42.064558], [-102.541387, 42.066701], [-102.555087, 42.068826], [-102.558552, 42.069112], [-102.589609, 42.069548], [-102.620759, 42.068093], [-102.625737, 42.068351], [-102.62861, 42.068915], [-102.6444, 42.073292], [-102.674226, 42.077362], [-102.682766, 42.079194], [-102.723727, 42.089717], [-102.726919, 42.091046], [-102.735654, 42.095835], [-102.739692, 42.096837], [-102.867746, 42.094681]]}}, {"type": "Feature", "properties": {"company": "Chicago, Burlington and Quincy Railroad", "line": "Chicago, Burlington and Quincy: Denver – Edgemont", "id": "cbq-denver-alliance-edgemont", "color": "#8E1B3C", "mode": "intercity_rail", "avg_speed_kmh": 55, "speed_source": "estimated, NOT sourced: a secondary branch of this era, taken from the kind of service the Feb 1952 Guide shows (Table 22) rather than from any timetable's running times", "geometry_source": "OpenStreetMap via Overpass, 2026-08-30", "geometry_quality": "Real trace from OpenStreetMap: a Dijkstra shortest path over every railway way (rail, abandoned, disused, razed, dismantled) in a corridor around the route, with ways tagged old_railway_operator=CB&Q costed at 1x and all other track at 3x, so the path stays on the Burlington's own alignment wherever OSM records it. Snapped to the report's own station list; every one of the 8 waypoints lies within 2.1 km of the drawn line. OSM lines followed: BNSF Angora Subdivision 115 mi; BNSF Butte Subdivision 110 mi; BNSF Brush Subdivision 98 mi; UP Julesburg Subdivision 24 mi; Buck Main 0 mi; [rail] 0 mi. TRACED LENGTH 346.6 mi against a DOCUMENTED 476 mi (-27%). No straight-line approximation: the whole route is on mapped track. MILEAGE NOTE, UNRESOLVED: the report gives 476 mi Denver - Edgemont from the Feb 1952 Table 22 milepost column and the trace comes out at 347 mi, 27%% short. The route itself checks out -- all eight waypoints (Denver, Fort Morgan, Sterling, Alliance, Hemingford, Marsland, Ardmore, Edgemont) lie within 2.1 km of the drawn line and it runs on the BNSF Brush, Angora and Butte Subdivisions, which are the ex-CB&Q alignment -- so this is a discrepancy to record, not a wrong railroad. The likeliest explanation is that the Guide's mileposts are measured over a different (longer) 1951 routing than today's surviving track, but that has NOT been established. Do not treat either figure as settled. ERA NOTE: much of the surviving alignment is today's BNSF, which is the CB&Q's own successor on this route, so the modern centreline is the historical one; where the line is abandoned the trace follows the recorded grade. Simplified to a 20 m Douglas-Peucker tolerance.", "segments": [{"start": 1890, "end": 1952, "headway_min": 720, "note": "the CB&Q reached Edgemont and Deadwood in 1890 (approximate -- the construction year, not a timetable). Feb 1952 Table 22, times legible. THE 1952 END IS THE LAST CONFIRMED YEAR, NOT A KNOWN END. No source consulted dates when passenger service actually stopped here; the Burlington's branch trains were swept away somewhere between about 1952 and 1968 and not one of those discontinuances has been dated. The end year is a withheld unknown, not an abandonment -- DO NOT extend this line to a rounder year without evidence. Equally, 1890 is the earliest year positively CONFIRMED, not the year the line opened: the branch is older than the map shows, and the confirmed start is deliberately late rather than guessed early. BUS TRAP HANDLED: Table 22 prints a parallel motor-coach service directly under the rail table (\"Bus Service -- Leaves Denver 130 pm, arrives Alliance 815 pm\"). The rail column is what is drawn. Headway is an estimate and is NOT sourced.", "sources": ["Segment-level: start year 1890 from branchline.uk (John Fowler, Passenger Stations & Stops) -- the CB&Q reached Edgemont and Deadwood in 1890 (approximate -- the construction year, not a timetable). End year 1952 from Table 22 of the Feb 1952 Official Guide -- Feb 1952 Table 22, times legible. The end is a FLOOR on service, not the year it stopped. Headway and avg_speed_kmh are estimates and are NOT sourced.", "Feb 1952 Official Guide of the Railways (schedules effective 30 September 1951 / 27 January 1952), Burlington Lines section; full OCR cached at research/sources/official_guide_1952.txt", "research/branches/chicago_burlington_and_quincy_railroad.txt (research pass 2026-08-30)"]}]}, "geometry": {"type": "LineString", "coordinates": [[-104.99874, 39.754897], [-104.994797, 39.758054], [-104.994306, 39.760449], [-104.995654, 39.762001], [-104.993437, 39.763468], [-104.991897, 39.766667], [-104.989682, 39.768769], [-104.937974, 39.808308], [-104.779956, 39.944392], [-104.760192, 39.963055], [-104.727872, 39.984228], [-104.725406, 39.986193], [-104.644568, 40.071526], [-104.641205, 40.074495], [-104.602606, 40.100728], [-104.59981, 40.102444], [-104.597268, 40.103516], [-104.57484, 40.109061], [-104.568961, 40.109698], [-104.564764, 40.109268], [-104.561979, 40.108634], [-104.540743, 40.101553], [-104.538669, 40.10118], [-104.53618, 40.101193], [-104.533406, 40.101815], [-104.531534, 40.102672], [-104.524446, 40.10759], [-104.521051, 40.10933], [-104.475306, 40.124921], [-104.4722, 40.12666], [-104.470754, 40.127854], [-104.466314, 40.13236], [-104.453733, 40.153242], [-104.450366, 40.158265], [-104.445936, 40.161891], [-104.441563, 40.163919], [-104.435937, 40.165057], [-104.424756, 40.165624], [-104.225178, 40.172807], [-104.219794, 40.173367], [-104.194522, 40.178654], [-104.182458, 40.182664], [-104.144799, 40.200123], [-104.113442, 40.211451], [-104.048998, 40.245437], [-104.047265, 40.246029], [-104.042117, 40.246923], [-104.021084, 40.249473], [-104.015536, 40.249617], [-103.939041, 40.241873], [-103.93433, 40.241715], [-103.625676, 40.253807], [-103.614133, 40.254493], [-103.611797, 40.255143], [-103.609538, 40.256319], [-103.508381, 40.33761], [-103.506605, 40.339315], [-103.504218, 40.34284], [-103.503076, 40.346757], [-103.503133, 40.372378], [-103.502673, 40.37483], [-103.501269, 40.377001], [-103.478159, 40.402723], [-103.474952, 40.404852], [-103.455703, 40.415338], [-103.426979, 40.434537], [-103.421936, 40.43853], [-103.41408, 40.446765], [-103.410936, 40.449027], [-103.405665, 40.452205], [-103.393462, 40.457721], [-103.348451, 40.484219], [-103.279649, 40.538559], [-103.264428, 40.546107], [-103.260134, 40.549092], [-103.258523, 40.550809], [-103.236095, 40.581205], [-103.178697, 40.659687], [-103.176489, 40.662957], [-103.175172, 40.666205], [-103.174593, 40.67396], [-103.168412, 40.847293], [-103.170276, 40.876936], [-103.169877, 40.879213], [-103.168809, 40.88188], [-103.15727, 40.901706], [-103.156761, 40.904566], [-103.157206, 40.912109], [-103.15659, 40.914964], [-103.152177, 40.921613], [-103.148456, 40.930228], [-103.147324, 40.931733], [-103.145688, 40.933083], [-103.142781, 40.934428], [-103.140056, 40.934945], [-103.137513, 40.934923], [-103.132218, 40.934153], [-103.128951, 40.934487], [-103.126843, 40.935174], [-103.124976, 40.936203], [-103.122694, 40.938485], [-103.049647, 41.084753], [-103.04781, 41.087162], [-103.036109, 41.098823], [-103.03441, 41.100137], [-103.02988, 41.102401], [-103.027724, 41.104264], [-103.026307, 41.10692], [-103.025615, 41.112731], [-103.02331, 41.116656], [-103.021405, 41.118331], [-103.018065, 41.120265], [-103.007141, 41.125051], [-103.005534, 41.12639], [-103.003025, 41.129587], [-103.000721, 41.131261], [-102.998046, 41.132256], [-102.993395, 41.133075], [-102.990164, 41.133993], [-102.9653, 41.143591], [-102.962921, 41.145251], [-102.961088, 41.148309], [-102.960855, 41.150981], [-102.964042, 41.162086], [-102.974402, 41.228391], [-102.9733, 41.395571], [-102.973619, 41.401069], [-102.975096, 41.404745], [-102.98427, 41.419583], [-102.988929, 41.425351], [-102.991033, 41.436545], [-102.992216, 41.438913], [-102.994954, 41.441655], [-103.007275, 41.450737], [-103.009409, 41.453102], [-103.011443, 41.456885], [-103.013049, 41.458692], [-103.020237, 41.462666], [-103.021814, 41.463836], [-103.02335, 41.465713], [-103.024271, 41.467922], [-103.026362, 41.474108], [-103.026443, 41.476523], [-103.024212, 41.484059], [-103.022979, 41.485717], [-103.018386, 41.490013], [-103.016879, 41.493002], [-103.016843, 41.513787], [-103.017893, 41.51729], [-103.022516, 41.525902], [-103.028047, 41.538151], [-103.036491, 41.56087], [-103.048636, 41.617482], [-103.049805, 41.621262], [-103.051871, 41.62441], [-103.054048, 41.626504], [-103.115058, 41.675704], [-103.11654, 41.677206], [-103.11758, 41.679116], [-103.11794, 41.681553], [-103.116643, 41.690194], [-103.117163, 41.693525], [-103.115572, 41.696376], [-103.114011, 41.704724], [-103.112842, 41.70717], [-103.108711, 41.713034], [-103.108015, 41.715266], [-103.107975, 41.717611], [-103.10916, 41.720919], [-103.121546, 41.743029], [-103.127338, 41.749647], [-103.127985, 41.751477], [-103.128044, 41.753332], [-103.12711, 41.755796], [-103.123069, 41.761346], [-103.122263, 41.767238], [-103.121406, 41.769641], [-103.119391, 41.77183], [-103.11483, 41.77468], [-103.112944, 41.777223], [-103.112339, 41.779704], [-103.113029, 41.788171], [-103.11193, 41.791319], [-103.106808, 41.79617], [-103.096172, 41.804722], [-103.094806, 41.80682], [-103.094376, 41.809758], [-103.095137, 41.812136], [-103.09673, 41.81418], [-103.10295, 41.818071], [-103.124263, 41.838905], [-103.126274, 41.842172], [-103.126706, 41.84589], [-103.126059, 41.84809], [-103.124984, 41.84993], [-103.107837, 41.872027], [-103.105141, 41.874743], [-103.08706, 41.885946], [-103.084969, 41.887944], [-103.075564, 41.899044], [-103.059633, 41.9127], [-103.011117, 41.946854], [-103.008118, 41.94849], [-103.001312, 41.951329], [-102.999687, 41.952464], [-102.99435, 41.95749], [-102.988151, 41.960175], [-102.984985, 41.962093], [-102.978577, 41.967565], [-102.961374, 41.984798], [-102.958906, 41.988149], [-102.955499, 41.996732], [-102.954014, 41.999154], [-102.913587, 42.045987], [-102.884332, 42.092687], [-102.881883, 42.094757], [-102.881666, 42.095627], [-102.882003, 42.09638], [-102.881473, 42.095757], [-102.982476, 42.219458], [-103.059057, 42.312796], [-103.062356, 42.316421], [-103.077922, 42.327038], [-103.090547, 42.331332], [-103.177603, 42.369582], [-103.180806, 42.371873], [-103.213522, 42.400959], [-103.215568, 42.403214], [-103.217918, 42.407288], [-103.219259, 42.408608], [-103.222102, 42.409848], [-103.226402, 42.410303], [-103.228957, 42.411178], [-103.239479, 42.41981], [-103.246393, 42.422621], [-103.253954, 42.426899], [-103.257568, 42.428052], [-103.260656, 42.428424], [-103.271554, 42.42737], [-103.273492, 42.42741], [-103.27597, 42.428103], [-103.279766, 42.430105], [-103.28277, 42.430645], [-103.284914, 42.430434], [-103.286412, 42.429964], [-103.291398, 42.426601], [-103.293139, 42.425924], [-103.295171, 42.425552], [-103.297376, 42.4255], [-103.299861, 42.42591], [-103.301954, 42.42691], [-103.303416, 42.428329], [-103.304185, 42.430132], [-103.304039, 42.432003], [-103.299838, 42.438166], [-103.298895, 42.440699], [-103.297227, 42.468842], [-103.295362, 42.47162], [-103.285962, 42.47937], [-103.283922, 42.483019], [-103.283702, 42.486159], [-103.287108, 42.493497], [-103.291179, 42.498977], [-103.292892, 42.500701], [-103.30383, 42.505903], [-103.312151, 42.511509], [-103.317208, 42.515938], [-103.319985, 42.517717], [-103.343565, 42.527768], [-103.351427, 42.532728], [-103.352833, 42.534028], [-103.35393, 42.535678], [-103.357162, 42.547505], [-103.355492, 42.554148], [-103.35662, 42.559528], [-103.354006, 42.569155], [-103.354227, 42.570885], [-103.356209, 42.574646], [-103.356545, 42.576204], [-103.355855, 42.578005], [-103.353901, 42.580285], [-103.35345, 42.582118], [-103.354524, 42.586642], [-103.359888, 42.593291], [-103.360164, 42.594557], [-103.359834, 42.595292], [-103.358754, 42.596004], [-103.357416, 42.596279], [-103.356387, 42.596149], [-103.355007, 42.595293], [-103.353234, 42.591588], [-103.352252, 42.590688], [-103.351146, 42.590381], [-103.349749, 42.590486], [-103.348313, 42.591618], [-103.34817, 42.592676], [-103.349646, 42.59721], [-103.350641, 42.598238], [-103.353668, 42.600261], [-103.354951, 42.601883], [-103.357725, 42.611589], [-103.355489, 42.61749], [-103.35369, 42.619025], [-103.348711, 42.620996], [-103.347379, 42.621848], [-103.346284, 42.62374], [-103.346598, 42.62574], [-103.347363, 42.626746], [-103.348561, 42.627537], [-103.35319, 42.628971], [-103.356433, 42.631055], [-103.357999, 42.633214], [-103.361545, 42.640909], [-103.377236, 42.657787], [-103.380199, 42.660259], [-103.387724, 42.664884], [-103.391749, 42.670966], [-103.415726, 42.691375], [-103.417452, 42.693323], [-103.418563, 42.695514], [-103.424832, 42.718885], [-103.438193, 42.741936], [-103.448621, 42.779471], [-103.450091, 42.782017], [-103.451418, 42.783214], [-103.459475, 42.788703], [-103.465786, 42.795741], [-103.472221, 42.801801], [-103.489537, 42.81132], [-103.572127, 42.873208], [-103.575101, 42.87568], [-103.576911, 42.87784], [-103.578796, 42.881788], [-103.579187, 42.88616], [-103.578571, 42.888822], [-103.575391, 42.89685], [-103.574716, 42.902548], [-103.575149, 42.904205], [-103.580361, 42.915945], [-103.583783, 42.921738], [-103.583983, 42.923946], [-103.582677, 42.933908], [-103.583758, 42.937365], [-103.584914, 42.93871], [-103.598377, 42.950333], [-103.609715, 42.966414], [-103.628653, 42.978423], [-103.653787, 43.001111], [-103.65586, 43.003957], [-103.662415, 43.035814], [-103.662266, 43.038344], [-103.658807, 43.056168], [-103.660607, 43.07083], [-103.658937, 43.096503], [-103.659276, 43.098582], [-103.660104, 43.100187], [-103.662499, 43.102487], [-103.76086, 43.17275], [-103.764229, 43.174392], [-103.767817, 43.17551], [-103.826405, 43.188815], [-103.846338, 43.196171], [-103.848345, 43.197305], [-103.850144, 43.19901], [-103.851133, 43.200704], [-103.852026, 43.204418], [-103.852866, 43.206023], [-103.863022, 43.217185], [-103.867379, 43.225921], [-103.868985, 43.231765], [-103.872565, 43.239832], [-103.872551, 43.249444], [-103.871622, 43.252963], [-103.863309, 43.266784], [-103.861232, 43.268947], [-103.857943, 43.270626], [-103.84254, 43.275594], [-103.829355, 43.284616], [-103.827213, 43.286962], [-103.825494, 43.289992], [-103.823197, 43.299237]]}}]}