{"type": "FeatureCollection", "metadata": {"note": "The Nancy Hanks II, the Central of Georgia Railway's Atlanta-Macon-Savannah streamliner and the best known train the road ever ran. She made her first trip on July 17 1947, covering the 293.7 miles in 5 hours 55 minutes southbound and 6 hours northbound as of the 1954 timetable -- close to a 50 mph average on a route that ran down through Barnesville, Forsyth and Macon and then east across the coastal plain by Gordon, Tennille and Millen. The equipment was American Car and Foundry streamlined stock in blue and grey, usually four or five cars: a baggage-coach, a grill lounge and two or three 56-seat coaches. The name goes back to a trotting mare, Nancy Hanks, herself named for Abraham Lincoln's mother, and to an earlier Central of Georgia steam flyer that carried the name briefly in 1892 and 1893 -- hence the II. She made her last run on April 30 1971, the day before Amtrak began, and Amtrak did not take the route: there has been no passenger train between Atlanta and Savannah since.", "sources": ["https://en.wikipedia.org/wiki/Nancy_Hanks_(train) -- Central of Georgia Railway, Atlanta-Savannah via Macon; first trip July 17 1947; 293.7 miles; 5 hours 55 minutes southbound and 6 hours northbound in 1954; last run April 30 1971; named for the racehorse, itself named for Lincoln's mother; an earlier Nancy Hanks ran in 1892-1893.", "https://www.american-rails.com/nancyhanks.html -- consist and route detail: ACF streamlined equipment in blue and grey, typically a baggage-coach, grill lounge and two or three 56-seat coaches; roughly a six-hour Atlanta-Savannah run through Barnesville.", "https://www.hmdb.org/m.asp?m=186700 -- 'Streamliner Nancy Hanks II' historical marker.", "Geometry: OpenStreetMap route relations 2195270 (Norfolk Southern Griffin District, the ex-Central of Georgia Atlanta-Macon line) and 2195277 (Norfolk Southern Savannah District, the ex-Central of Georgia Macon-Savannah main line), fetched via the OSM API 2026-08-24."], "not_yet_sourced": ["The 1892-1893 original Nancy Hanks is not drawn. It ran over much the same route, but its operator was the Central Railroad and Banking Company of Georgia -- the Central of Georgia Railway was not formed until 1895 -- so drawing it would need a separate company and colour, and no month-level dates for its brief run were found.", "Only the 1954 timing is sourced. The train's schedule in 1947 and in its final years is not, so the single avg_speed_kmh here stands for the whole 24-year run.", "The headway of 720 minutes assumes one train each way per day, which is how the sources describe the service; no timetable page was consulted to confirm it never ran more often.", "Intermediate stops beyond the towns used to anchor the trace (Atlanta, East Point, Jonesboro, Griffin, Barnesville, Forsyth, Macon, Gordon, Tennille, Millen, Savannah) are not established."]}, "features": [{"type": "Feature", "properties": {"company": "Central of Georgia Railway", "line": "Central of Georgia: Nancy Hanks II", "id": "cofg-nancy-hanks-ii", "color": "#4196FF", "mode": "intercity_rail", "avg_speed_kmh": 79.3, "speed_source": "computed from the documented schedule: 293.7 miles in 5 h 55 m southbound / 6 h 00 m northbound (1954 timetable), a 49.3 mph average -- sourced, not estimated", "geometry_quality": "Real-traced from OpenStreetMap: the ex-Central of Georgia route survives in full as Norfolk Southern's Griffin District (Atlanta-Macon) and Savannah District (Macon-Savannah), and the line is routed leg by leg over those two OSM route relations through Griffin, Barnesville, Macon, Gordon, Tennille and Millen. 3794 points, 288.5 miles against a documented 293.7 -- 1.8% under, the difference being terminal trackage at each end. The trace passes within 117 m of Atlanta, 45 m of East Point, 131 m of Jonesboro, 61 m of Barnesville, 109 m of Gordon, 227 m of Tennille and 334 m of Millen. No straight-line approximation was added. RESOLUTION CAVEAT: 40.9 miles (14%) of the drawn length sits in vertex-to-vertex hops longer than 1 km, with the longest at 2.1 km -- that is how coarsely OSM digitizes rural Georgia trackage, not an approximation introduced here. The corridor and the mileage are right; the fine curvature between those vertices is not resolved. Straight-line repair 2026-08-29: 1 ruled segment totalling 20 mi replaced with OpenStreetMap-traced rail geometry (see geometry_repairs for the OSM lines each one followed).", "segments": [{"start": 1947, "end": 1971, "headway_min": 720, "note": "Inaugurated July 17 1947 with American Car and Foundry streamlined equipment in blue and grey -- a baggage-coach, a grill lounge and two or three 56-seat coaches. Scheduled at 5 hours 55 minutes southbound and 6 hours northbound over 293.7 miles as of 1954, roughly a 50 mph average. The name was revived from a Central of Georgia steam flyer of 1892-93, which in turn took it from the trotting mare Nancy Hanks, named for Abraham Lincoln's mother. She ran for the last time on April 30 1971, the day before Amtrak began, and Amtrak did not pick up the route -- Atlanta and Savannah have had no passenger train since. Headway of one train each way per day."}], "geometry_repairs": [{"date": "2026-08-29", "from": [-81.31369, 32.3702], "to": [-81.16901, 32.10249], "chord_mi": 20.31, "traced_mi": 20.36, "snap_m": [0, 0], "bridged_mi": 0.0, "osm_lines": ["Savannah District (15.01 mi)", "Savannah Terminal (5.33 mi)", "St Augustine Creek Bridge (0.02 mi)"], "method": "Overpass rail graph, 8.0 km corridor, Dijkstra, simplified to 3.0 m"}]}, "geometry": {"type": "LineString", "coordinates": [[-84.39751, 33.75235], [-84.39764, 33.75196], [-84.39791, 33.75134], [-84.39813, 33.75084], [-84.39824, 33.75058], [-84.39852, 33.74994], [-84.39876, 33.74938], [-84.39889, 33.74908], [-84.3989, 33.74907], [-84.39909, 33.74865], [-84.39931, 33.74824], [-84.39971, 33.74764], [-84.40026, 33.74696], [-84.40083, 33.74635], [-84.40143, 33.74585], [-84.40195, 33.74547], [-84.40235, 33.74524], [-84.40278, 33.745], [-84.40329, 33.74476], [-84.40383, 33.74453], [-84.4044, 33.74432], [-84.40524, 33.74404], [-84.4057, 33.74389], [-84.40673, 33.74356], [-84.40813, 33.7431], [-84.40842, 33.743], [-84.40883, 33.74287], [-84.40915, 33.74274], [-84.40945, 33.74261], [-84.40971, 33.74248], [-84.40994, 33.74236], [-84.40997, 33.74234], [-84.41017, 33.74222], [-84.41037, 33.74208], [-84.41057, 33.74195], [-84.41079, 33.74177], [-84.41099, 33.7416], [-84.41112, 33.74148], [-84.41153, 33.74103], [-84.41164, 33.74089], [-84.41184, 33.74062], [-84.412, 33.74036], [-84.41214, 33.74012], [-84.4123, 33.73979], [-84.41243, 33.73944], [-84.41256, 33.739], [-84.4126, 33.73879], [-84.41264, 33.73853], [-84.41265, 33.73838], [-84.41266, 33.73811], [-84.41266, 33.73787], [-84.41267, 33.7372], [-84.41267, 33.73475], [-84.41273, 33.73417], [-84.41282, 33.73366], [-84.41298, 33.73313], [-84.41317, 33.73266], [-84.41341, 33.7322], [-84.41352, 33.73201], [-84.41392, 33.73144], [-84.41417, 33.73112], [-84.41491, 33.73018], [-84.41546, 33.72948], [-84.41637, 33.72832], [-84.41662, 33.72799], [-84.41679, 33.72777], [-84.41701, 33.7275], [-84.41724, 33.72727], [-84.41777, 33.72678], [-84.41815, 33.72645], [-84.41932, 33.72542], [-84.41943, 33.72532], [-84.42009, 33.72474], [-84.42063, 33.72426], [-84.42074, 33.72416], [-84.42132, 33.72366], [-84.42167, 33.72335], [-84.42187, 33.72317], [-84.42218, 33.72289], [-84.42226, 33.7228], [-84.42247, 33.72259], [-84.42264, 33.7224], [-84.42293, 33.72204], [-84.42311, 33.72178], [-84.42334, 33.72142], [-84.42355, 33.72102], [-84.42366, 33.72078], [-84.42372, 33.72063], [-84.42391, 33.72008], [-84.42405, 33.71968], [-84.42417, 33.71933], [-84.4243, 33.71895], [-84.42445, 33.71856], [-84.42452, 33.71837], [-84.42463, 33.71804], [-84.42468, 33.71786], [-84.42483, 33.71744], [-84.42507, 33.71673], [-84.42525, 33.71619], [-84.42545, 33.71559], [-84.4257, 33.71483], [-84.42605, 33.71378], [-84.42629, 33.71306], [-84.4265, 33.71242], [-84.42669, 33.71188], [-84.42684, 33.71138], [-84.42695, 33.71103], [-84.42703, 33.71076], [-84.42709, 33.71044], [-84.42713, 33.71026], [-84.42719, 33.70985], [-84.42725, 33.70943], [-84.42731, 33.70903], [-84.42743, 33.70827], [-84.42754, 33.70749], [-84.42762, 33.70698], [-84.42774, 33.70617], [-84.42795, 33.70494], [-84.4281, 33.7041], [-84.42813, 33.70394], [-84.42814, 33.70387], [-84.42814, 33.70384], [-84.42834, 33.70259], [-84.42841, 33.70208], [-84.42847, 33.70166], [-84.42853, 33.70125], [-84.42857, 33.70099], [-84.42864, 33.70046], [-84.42871, 33.69997], [-84.42885, 33.69907], [-84.42899, 33.69814], [-84.42903, 33.69783], [-84.42907, 33.69758], [-84.42913, 33.69718], [-84.42919, 33.69676], [-84.42924, 33.69647], [-84.42933, 33.69602], [-84.42949, 33.69558], [-84.42963, 33.69527], [-84.42977, 33.69502], [-84.42988, 33.69483], [-84.43, 33.69464], [-84.43017, 33.69442], [-84.43038, 33.69418], [-84.43063, 33.69388], [-84.43096, 33.69359], [-84.43126, 33.69335], [-84.43159, 33.69312], [-84.4319, 33.69293], [-84.43264, 33.69256], [-84.43357, 33.6921], [-84.43399, 33.69188], [-84.43426, 33.69172], [-84.43469, 33.69145], [-84.43493, 33.69128], [-84.43542, 33.6909], [-84.43563, 33.69072], [-84.4359, 33.69046], [-84.43609, 33.69028], [-84.43629, 33.69006], [-84.43646, 33.68988], [-84.43881, 33.68681], [-84.43901, 33.68654], [-84.43908, 33.68646], [-84.43942, 33.68602], [-84.43962, 33.6857], [-84.43977, 33.68544], [-84.43993, 33.68514], [-84.44012, 33.68459], [-84.44018, 33.68435], [-84.44022, 33.68418], [-84.44026, 33.68396], [-84.44028, 33.68379], [-84.4403, 33.68354], [-84.4403, 33.68324], [-84.44027, 33.683], [-84.44027, 33.68296], [-84.44024, 33.68277], [-84.44018, 33.68243], [-84.44015, 33.68229], [-84.44007, 33.6819], [-84.44002, 33.68161], [-84.44001, 33.68154], [-84.43994, 33.6812], [-84.43988, 33.68089], [-84.43971, 33.68003], [-84.43956, 33.67926], [-84.43953, 33.67911], [-84.43848, 33.67376], [-84.4384, 33.6734], [-84.43835, 33.67312], [-84.43831, 33.67295], [-84.43825, 33.67268], [-84.43818, 33.67246], [-84.43807, 33.67219], [-84.43798, 33.67197], [-84.43785, 33.67172], [-84.43774, 33.67153], [-84.43763, 33.67136], [-84.43749, 33.67116], [-84.4373, 33.67091], [-84.43716, 33.67075], [-84.43698, 33.67056], [-84.43683, 33.67042], [-84.43679, 33.67038], [-84.43659, 33.67021], [-84.4364, 33.67006], [-84.43624, 33.66993], [-84.43604, 33.6698], [-84.43581, 33.66965], [-84.4356, 33.66953], [-84.4353, 33.66937], [-84.43506, 33.66926], [-84.43481, 33.66916], [-84.43455, 33.66907], [-84.43426, 33.66898], [-84.43361, 33.66877], [-84.42999, 33.66762], [-84.42857, 33.66717], [-84.42817, 33.66704], [-84.42498, 33.66603], [-84.42383, 33.66566], [-84.42259, 33.66527], [-84.42065, 33.66465], [-84.41988, 33.66441], [-84.41932, 33.66425], [-84.41877, 33.66409], [-84.41864, 33.66405], [-84.41861, 33.66404], [-84.41852, 33.66401], [-84.41834, 33.66396], [-84.4181, 33.66388], [-84.41777, 33.66375], [-84.41727, 33.66353], [-84.41629, 33.66301], [-84.41513, 33.66233], [-84.41417, 33.66178], [-84.41378, 33.66155], [-84.41287, 33.66101], [-84.41067, 33.65973], [-84.40907, 33.65881], [-84.40738, 33.65782], [-84.40704, 33.65763], [-84.40489, 33.65638], [-84.4046, 33.6562], [-84.40434, 33.65605], [-84.40368, 33.65567], [-84.40197, 33.65469], [-84.40129, 33.6543], [-84.40093, 33.65411], [-84.40049, 33.65391], [-84.40018, 33.6538], [-84.39975, 33.65367], [-84.39879, 33.65345], [-84.39852, 33.65339], [-84.398, 33.65327], [-84.39745, 33.65313], [-84.39701, 33.65299], [-84.39663, 33.65287], [-84.39627, 33.65274], [-84.39592, 33.65259], [-84.39543, 33.65236], [-84.39521, 33.65224], [-84.39467, 33.65193], [-84.39417, 33.65159], [-84.3937, 33.65123], [-84.39328, 33.65085], [-84.39299, 33.65058], [-84.39273, 33.6503], [-84.39239, 33.64989], [-84.39209, 33.64947], [-84.39182, 33.64907], [-84.39151, 33.64844], [-84.39129, 33.64788], [-84.39109, 33.64732], [-84.39068, 33.64606], [-84.3905, 33.64551], [-84.39044, 33.64528], [-84.39037, 33.64503], [-84.39028, 33.64463], [-84.39022, 33.6443], [-84.39017, 33.64372], [-84.39016, 33.6432], [-84.39017, 33.643], [-84.39025, 33.64189], [-84.39026, 33.64179], [-84.39033, 33.64073], [-84.39035, 33.64042], [-84.39038, 33.64005], [-84.39049, 33.63838], [-84.39053, 33.63787], [-84.39054, 33.63768], [-84.39058, 33.63711], [-84.39063, 33.63652], [-84.39064, 33.63615], [-84.39064, 33.63589], [-84.39062, 33.63564], [-84.39058, 33.63532], [-84.39049, 33.635], [-84.39046, 33.63485], [-84.39039, 33.63465], [-84.39015, 33.63409], [-84.38989, 33.63363], [-84.38966, 33.63333], [-84.38912, 33.63263], [-84.38869, 33.63208], [-84.38819, 33.63143], [-84.3881, 33.63132], [-84.38572, 33.62828], [-84.38556, 33.62808], [-84.38543, 33.62792], [-84.38422, 33.62635], [-84.38386, 33.62589], [-84.38295, 33.62477], [-84.38271, 33.62447], [-84.38252, 33.62425], [-84.38232, 33.62404], [-84.38205, 33.62378], [-84.38183, 33.62359], [-84.38162, 33.62343], [-84.38159, 33.6234], [-84.38143, 33.62329], [-84.38134, 33.62323], [-84.38108, 33.62307], [-84.38057, 33.62279], [-84.38029, 33.62265], [-84.37999, 33.62253], [-84.37968, 33.62243], [-84.37951, 33.62237], [-84.37929, 33.62231], [-84.379, 33.62224], [-84.37859, 33.62217], [-84.37828, 33.62213], [-84.37797, 33.6221], [-84.37757, 33.62208], [-84.37714, 33.62209], [-84.37634, 33.62212], [-84.37624, 33.62212], [-84.37575, 33.62214], [-84.37285, 33.62228], [-84.3724, 33.62229], [-84.37167, 33.6223], [-84.37112, 33.62228], [-84.37057, 33.62222], [-84.37012, 33.62216], [-84.36964, 33.62206], [-84.36911, 33.62193], [-84.36481, 33.62057], [-84.36452, 33.62047], [-84.36174, 33.61959], [-84.36059, 33.61923], [-84.35711, 33.61812], [-84.35626, 33.61785], [-84.35234, 33.6166], [-84.35026, 33.61594], [-84.34991, 33.61583], [-84.3493, 33.61563], [-84.34917, 33.61558], [-84.34809, 33.61523], [-84.3468, 33.61483], [-84.34613, 33.61461], [-84.34519, 33.6143], [-84.34439, 33.61406], [-84.34308, 33.61364], [-84.34107, 33.613], [-84.3405, 33.6128], [-84.34032, 33.61272], [-84.3399, 33.61254], [-84.33951, 33.61235], [-84.33913, 33.61215], [-84.3388, 33.61193], [-84.33845, 33.61171], [-84.33798, 33.61134], [-84.33749, 33.61091], [-84.33716, 33.61057], [-84.33709, 33.61049], [-84.33704, 33.61043], [-84.33677, 33.61013], [-84.33657, 33.60987], [-84.33635, 33.60956], [-84.33622, 33.60936], [-84.33603, 33.60909], [-84.33585, 33.60868], [-84.33513, 33.60706], [-84.33512, 33.60701], [-84.33509, 33.60696], [-84.33449, 33.60546], [-84.33407, 33.60441], [-84.33381, 33.60379], [-84.3335, 33.60304], [-84.3332, 33.60226], [-84.33306, 33.60191], [-84.33299, 33.60155], [-84.33292, 33.60118], [-84.33288, 33.60088], [-84.33284, 33.60065], [-84.33282, 33.60037], [-84.33283, 33.59985], [-84.33285, 33.5996], [-84.33288, 33.5993], [-84.33296, 33.59868], [-84.33304, 33.59832], [-84.33313, 33.59797], [-84.33324, 33.59762], [-84.3334, 33.59718], [-84.33369, 33.5965], [-84.33374, 33.59639], [-84.33376, 33.59634], [-84.33383, 33.59623], [-84.33412, 33.59572], [-84.33422, 33.59554], [-84.33445, 33.59518], [-84.3346, 33.59497], [-84.33553, 33.59366], [-84.33619, 33.59272], [-84.33658, 33.5921], [-84.33685, 33.59161], [-84.33705, 33.59115], [-84.33718, 33.59077], [-84.33752, 33.58956], [-84.33795, 33.58787], [-84.33824, 33.58679], [-84.33897, 33.5841], [-84.33918, 33.58326], [-84.33925, 33.58301], [-84.33956, 33.5819], [-84.34011, 33.5798], [-84.34039, 33.57875], [-84.34083, 33.57705], [-84.34107, 33.5762], [-84.34117, 33.5758], [-84.34176, 33.57362], [-84.34178, 33.57355], [-84.34181, 33.57344], [-84.34182, 33.5734], [-84.34199, 33.57273], [-84.34215, 33.57212], [-84.34226, 33.57165], [-84.34231, 33.57141], [-84.34231, 33.57137], [-84.34233, 33.57123], [-84.34235, 33.57107], [-84.34237, 33.57077], [-84.34237, 33.57026], [-84.34224, 33.56828], [-84.34221, 33.56775], [-84.34219, 33.56745], [-84.3422, 33.56709], [-84.34224, 33.56671], [-84.34225, 33.56656], [-84.34231, 33.56622], [-84.34235, 33.56603], [-84.34242, 33.56574], [-84.34254, 33.56527], [-84.34306, 33.56334], [-84.34342, 33.56204], [-84.34378, 33.56068], [-84.3442, 33.55903], [-84.34445, 33.5581], [-84.34457, 33.55755], [-84.34487, 33.55649], [-84.34494, 33.55622], [-84.3451, 33.55567], [-84.34521, 33.55527], [-84.34523, 33.55519], [-84.34536, 33.55465], [-84.34544, 33.55427], [-84.34551, 33.55385], [-84.34554, 33.55358], [-84.34557, 33.55326], [-84.34556, 33.55271], [-84.34551, 33.55218], [-84.34544, 33.55172], [-84.34514, 33.5503], [-84.34459, 33.54768], [-84.34408, 33.54528], [-84.34406, 33.54503], [-84.34405, 33.54472], [-84.34404, 33.5444], [-84.3441, 33.54394], [-84.34417, 33.54359], [-84.34422, 33.54345], [-84.34443, 33.54286], [-84.34457, 33.54259], [-84.34471, 33.54231], [-84.34494, 33.54196], [-84.34547, 33.54136], [-84.3458, 33.54103], [-84.3473, 33.53956], [-84.34754, 33.53934], [-84.34761, 33.53927], [-84.34887, 33.53804], [-84.34897, 33.53794], [-84.35047, 33.5365], [-84.35063, 33.53634], [-84.35087, 33.53612], [-84.35123, 33.53573], [-84.35161, 33.5352], [-84.35214, 33.53431], [-84.3535, 33.53197], [-84.3538, 33.5312], [-84.35389, 33.53099], [-84.35407, 33.53022], [-84.35411, 33.52996], [-84.35422, 33.52891], [-84.35424, 33.52796], [-84.35421, 33.52499], [-84.35421, 33.52139], [-84.35421, 33.52101], [-84.35422, 33.51898], [-84.35419, 33.51849], [-84.35415, 33.5182], [-84.35413, 33.51802], [-84.35407, 33.51778], [-84.35399, 33.51752], [-84.35386, 33.51717], [-84.35379, 33.51703], [-84.35371, 33.51689], [-84.35352, 33.51659], [-84.35332, 33.51628], [-84.35259, 33.51536], [-84.35196, 33.51454], [-84.35176, 33.51425], [-84.35149, 33.51367], [-84.35129, 33.51307], [-84.35083, 33.51155], [-84.35071, 33.51121], [-84.35038, 33.51053], [-84.35023, 33.51029], [-84.34987, 33.5098], [-84.34872, 33.50851], [-84.34732, 33.50696], [-84.34614, 33.50565], [-84.34582, 33.50526], [-84.34551, 33.50489], [-84.34501, 33.50417], [-84.34459, 33.50344], [-84.34429, 33.50284], [-84.34382, 33.50205], [-84.34275, 33.50003], [-84.34074, 33.49644], [-84.33877, 33.49284], [-84.33859, 33.49251], [-84.33821, 33.49182], [-84.33794, 33.49131], [-84.33775, 33.49095], [-84.33761, 33.4906], [-84.33751, 33.49019], [-84.33744, 33.48971], [-84.33742, 33.48922], [-84.33746, 33.48851], [-84.33781, 33.48524], [-84.33823, 33.4814], [-84.33826, 33.48099], [-84.33825, 33.48038], [-84.33817, 33.47978], [-84.33805, 33.47922], [-84.33754, 33.47733], [-84.33713, 33.47583], [-84.3363, 33.47298], [-84.33581, 33.47118], [-84.33566, 33.47062], [-84.33555, 33.47014], [-84.33546, 33.46955], [-84.33541, 33.46862], [-84.33538, 33.4682], [-84.33532, 33.46777], [-84.33519, 33.46702], [-84.33489, 33.4661], [-84.3345, 33.46531], [-84.33385, 33.46431], [-84.33339, 33.46379], [-84.33299, 33.46339], [-84.33229, 33.46279], [-84.331, 33.4618], [-84.33008, 33.46107], [-84.3298, 33.46085], [-84.32956, 33.46064], [-84.32926, 33.46039], [-84.32907, 33.46021], [-84.32881, 33.45992], [-84.32858, 33.45962], [-84.32835, 33.45931], [-84.32815, 33.45899], [-84.32796, 33.45867], [-84.32743, 33.45766], [-84.32688, 33.45648], [-84.32589, 33.45432], [-84.32432, 33.45099], [-84.32359, 33.44938], [-84.32336, 33.44889], [-84.3233, 33.44876], [-84.32328, 33.44871], [-84.3224, 33.44685], [-84.32208, 33.44616], [-84.32189, 33.44578], [-84.32167, 33.44528], [-84.32079, 33.44336], [-84.32055, 33.4429], [-84.31995, 33.44173], [-84.31991, 33.44164], [-84.31979, 33.44139], [-84.31976, 33.44133], [-84.31966, 33.44114], [-84.31951, 33.4409], [-84.31934, 33.44067], [-84.31906, 33.44029], [-84.3188, 33.44], [-84.3185, 33.43968], [-84.31811, 33.43931], [-84.31775, 33.43902], [-84.31741, 33.43873], [-84.31664, 33.43816], [-84.31588, 33.43756], [-84.31488, 33.4368], [-84.31412, 33.43621], [-84.3135, 33.43576], [-84.31302, 33.43545], [-84.31232, 33.43508], [-84.31162, 33.43477], [-84.31129, 33.43464], [-84.31089, 33.4345], [-84.31029, 33.43433], [-84.30968, 33.4342], [-84.30923, 33.43413], [-84.30432, 33.4335], [-84.30232, 33.43324], [-84.30192, 33.43319], [-84.30168, 33.43316], [-84.30092, 33.43307], [-84.29752, 33.43265], [-84.29474, 33.43228], [-84.29394, 33.43216], [-84.29335, 33.43203], [-84.29279, 33.43187], [-84.29218, 33.43167], [-84.29156, 33.43142], [-84.29103, 33.43117], [-84.29047, 33.43087], [-84.29002, 33.43059], [-84.28983, 33.43048], [-84.28911, 33.42998], [-84.28861, 33.42958], [-84.28834, 33.42935], [-84.28814, 33.42917], [-84.28775, 33.4288], [-84.28727, 33.42828], [-84.28664, 33.4275], [-84.28627, 33.42693], [-84.28605, 33.42652], [-84.28596, 33.42635], [-84.28585, 33.42612], [-84.28568, 33.42584], [-84.28534, 33.42496], [-84.28515, 33.42433], [-84.28502, 33.42374], [-84.28491, 33.42307], [-84.28487, 33.42252], [-84.28486, 33.42202], [-84.28488, 33.42158], [-84.28494, 33.42096], [-84.28563, 33.41624], [-84.28574, 33.41555], [-84.28579, 33.4152], [-84.28588, 33.41469], [-84.28603, 33.41414], [-84.28613, 33.41384], [-84.28626, 33.41351], [-84.2865, 33.41302], [-84.28684, 33.41238], [-84.28719, 33.41174], [-84.28722, 33.41169], [-84.28799, 33.41025], [-84.28831, 33.40963], [-84.2884, 33.40945], [-84.28918, 33.40798], [-84.28962, 33.40712], [-84.28975, 33.40687], [-84.28997, 33.40643], [-84.29095, 33.40453], [-84.29114, 33.404], [-84.29127, 33.40345], [-84.29136, 33.40306], [-84.29142, 33.40251], [-84.29144, 33.40182], [-84.29143, 33.4015], [-84.29137, 33.401], [-84.29125, 33.40044], [-84.29114, 33.40005], [-84.29109, 33.39992], [-84.29106, 33.3998], [-84.29104, 33.39976], [-84.29103, 33.39969], [-84.29102, 33.39966], [-84.29076, 33.39907], [-84.29053, 33.3986], [-84.29004, 33.39782], [-84.28899, 33.39632], [-84.28717, 33.39367], [-84.28527, 33.39092], [-84.28412, 33.38924], [-84.28374, 33.38865], [-84.28352, 33.38825], [-84.28332, 33.38776], [-84.28319, 33.38735], [-84.2831, 33.38694], [-84.2831, 33.3869], [-84.28309, 33.38684], [-84.28306, 33.38639], [-84.2831, 33.38575], [-84.28315, 33.3855], [-84.28322, 33.38513], [-84.28341, 33.3846], [-84.28363, 33.38414], [-84.28395, 33.38363], [-84.28401, 33.38355], [-84.28438, 33.38311], [-84.28473, 33.38278], [-84.28504, 33.38251], [-84.28522, 33.38238], [-84.28547, 33.38221], [-84.28595, 33.38193], [-84.28639, 33.38169], [-84.28964, 33.38008], [-84.29064, 33.37956], [-84.29124, 33.37917], [-84.29156, 33.37895], [-84.2918, 33.37876], [-84.29209, 33.37852], [-84.29233, 33.37828], [-84.29266, 33.37795], [-84.29274, 33.37785], [-84.29283, 33.37776], [-84.29294, 33.37763], [-84.29318, 33.37732], [-84.29347, 33.37692], [-84.29379, 33.37638], [-84.29397, 33.37603], [-84.29416, 33.37557], [-84.29419, 33.3755], [-84.29433, 33.37509], [-84.29444, 33.37467], [-84.29493, 33.37289], [-84.29528, 33.37157], [-84.29533, 33.3713], [-84.29534, 33.37123], [-84.29539, 33.37092], [-84.29541, 33.3706], [-84.29541, 33.37033], [-84.29539, 33.37005], [-84.29538, 33.36991], [-84.29536, 33.36978], [-84.29532, 33.36956], [-84.29527, 33.36935], [-84.29521, 33.36915], [-84.29506, 33.36877], [-84.29483, 33.36827], [-84.29448, 33.36773], [-84.29059, 33.36264], [-84.29019, 33.36206], [-84.28999, 33.36174], [-84.28976, 33.36135], [-84.28947, 33.36071], [-84.28929, 33.36018], [-84.28918, 33.35981], [-84.28909, 33.3594], [-84.28907, 33.35901], [-84.28901, 33.35832], [-84.28902, 33.35788], [-84.28906, 33.35745], [-84.28917, 33.35682], [-84.28934, 33.35617], [-84.28966, 33.35537], [-84.28986, 33.35497], [-84.29176, 33.35184], [-84.29246, 33.35068], [-84.29262, 33.35031], [-84.29271, 33.35005], [-84.29289, 33.34956], [-84.29294, 33.3493], [-84.29296, 33.34923], [-84.293, 33.34887], [-84.29301, 33.34845], [-84.29296, 33.34787], [-84.29286, 33.3474], [-84.29258, 33.34659], [-84.29117, 33.34316], [-84.29027, 33.34099], [-84.2881, 33.33578], [-84.28717, 33.33346], [-84.28591, 33.33036], [-84.28575, 33.32999], [-84.28385, 33.32534], [-84.28379, 33.32515], [-84.28367, 33.32471], [-84.28355, 33.3241], [-84.28348, 33.32345], [-84.28351, 33.32273], [-84.28353, 33.32237], [-84.28358, 33.32208], [-84.28366, 33.3217], [-84.28377, 33.32127], [-84.28394, 33.32079], [-84.28413, 33.32032], [-84.28449, 33.31966], [-84.28471, 33.31931], [-84.28556, 33.318], [-84.28627, 33.317], [-84.28686, 33.31612], [-84.28719, 33.31553], [-84.28733, 33.31532], [-84.28761, 33.31489], [-84.28813, 33.31399], [-84.2883, 33.31349], [-84.28842, 33.31293], [-84.28848, 33.31191], [-84.28848, 33.31154], [-84.28849, 33.31144], [-84.2885, 33.30951], [-84.28858, 33.30826], [-84.28858, 33.30555], [-84.28854, 33.30472], [-84.2885, 33.30435], [-84.28847, 33.3042], [-84.28837, 33.30383], [-84.28813, 33.30317], [-84.28785, 33.30251], [-84.28693, 33.30047], [-84.28679, 33.30009], [-84.28662, 33.29948], [-84.28658, 33.29919], [-84.28605, 33.2954], [-84.28587, 33.29409], [-84.2856, 33.29211], [-84.28549, 33.29134], [-84.28537, 33.29057], [-84.28525, 33.28971], [-84.28343, 33.28221], [-84.28279, 33.27961], [-84.28263, 33.27899], [-84.28244, 33.27826], [-84.28237, 33.27798], [-84.28232, 33.27775], [-84.28227, 33.27749], [-84.28225, 33.2774], [-84.2822, 33.27704], [-84.28217, 33.27668], [-84.28216, 33.27641], [-84.28217, 33.27605], [-84.28219, 33.27578], [-84.28223, 33.27542], [-84.28236, 33.2747], [-84.28256, 33.27403], [-84.28271, 33.27352], [-84.28275, 33.27341], [-84.28277, 33.27334], [-84.2828, 33.27327], [-84.28282, 33.27318], [-84.28304, 33.27243], [-84.28318, 33.27181], [-84.28324, 33.2713], [-84.28329, 33.27104], [-84.2833, 33.27077], [-84.28332, 33.27047], [-84.28332, 33.27017], [-84.2833, 33.26982], [-84.28326, 33.26948], [-84.28323, 33.26927], [-84.28318, 33.26907], [-84.28313, 33.26885], [-84.28306, 33.26863], [-84.28283, 33.26804], [-84.28257, 33.26745], [-84.28167, 33.26543], [-84.28145, 33.26495], [-84.28133, 33.26467], [-84.28125, 33.26451], [-84.28114, 33.26427], [-84.28095, 33.26383], [-84.27981, 33.26129], [-84.27944, 33.26054], [-84.27925, 33.2602], [-84.27908, 33.25993], [-84.2789, 33.25968], [-84.27864, 33.25935], [-84.27833, 33.25899], [-84.2782, 33.25887], [-84.27776, 33.25842], [-84.27706, 33.25774], [-84.27645, 33.25713], [-84.27613, 33.25682], [-84.27584, 33.25654], [-84.27475, 33.25548], [-84.27363, 33.25437], [-84.27338, 33.25413], [-84.27297, 33.25373], [-84.27268, 33.25345], [-84.27211, 33.2529], [-84.27135, 33.25218], [-84.27112, 33.25197], [-84.27088, 33.25178], [-84.27063, 33.25161], [-84.2704, 33.25146], [-84.27018, 33.25134], [-84.2699, 33.25119], [-84.26963, 33.25106], [-84.26937, 33.25097], [-84.26901, 33.25083], [-84.26873, 33.25075], [-84.2684, 33.25068], [-84.26817, 33.25062], [-84.26785, 33.25058], [-84.26761, 33.25055], [-84.2673, 33.25054], [-84.26693, 33.25053], [-84.26624, 33.25053], [-84.2654, 33.25051], [-84.26431, 33.25048], [-84.26384, 33.25047], [-84.26369, 33.25046], [-84.26305, 33.25045], [-84.26255, 33.25044], [-84.26175, 33.25042], [-84.26059, 33.2504], [-84.25877, 33.25036], [-84.25497, 33.25029], [-84.25399, 33.25027], [-84.25256, 33.25024], [-84.25217, 33.25022], [-84.25189, 33.25019], [-84.25158, 33.25015], [-84.25126, 33.2501], [-84.25094, 33.25003], [-84.25065, 33.24996], [-84.25035, 33.24986], [-84.25006, 33.24976], [-84.24984, 33.24966], [-84.24962, 33.24957], [-84.24932, 33.24942], [-84.24897, 33.24922], [-84.24862, 33.24898], [-84.24834, 33.24877], [-84.24815, 33.24861], [-84.24797, 33.24845], [-84.24785, 33.24833], [-84.24778, 33.24826], [-84.24767, 33.24814], [-84.24756, 33.24801], [-84.24722, 33.24757], [-84.24676, 33.24687], [-84.24647, 33.24641], [-84.24602, 33.24573], [-84.24573, 33.24531], [-84.2454, 33.24489], [-84.2452, 33.24467], [-84.24496, 33.24444], [-84.2447, 33.24421], [-84.24466, 33.24418], [-84.2444, 33.24398], [-84.24408, 33.24378], [-84.24383, 33.24362], [-84.24354, 33.24347], [-84.24316, 33.24329], [-84.24203, 33.2428], [-84.24174, 33.24268], [-84.24132, 33.2425], [-84.23995, 33.24193], [-84.2394, 33.24169], [-84.23715, 33.24072], [-84.23653, 33.24045], [-84.23581, 33.24014], [-84.23548, 33.24], [-84.23511, 33.23984], [-84.23473, 33.23965], [-84.23452, 33.23954], [-84.23432, 33.23943], [-84.23411, 33.2393], [-84.23372, 33.23906], [-84.23346, 33.23888], [-84.23315, 33.23864], [-84.23268, 33.23823], [-84.23239, 33.23795], [-84.23184, 33.23742], [-84.23021, 33.23585], [-84.23, 33.23565], [-84.22997, 33.23563], [-84.22935, 33.23504], [-84.22912, 33.23482], [-84.2277, 33.23344], [-84.22646, 33.23225], [-84.22508, 33.23092], [-84.22472, 33.23057], [-84.22448, 33.23032], [-84.2243, 33.23012], [-84.22415, 33.22993], [-84.22397, 33.2297], [-84.22386, 33.22954], [-84.22374, 33.22936], [-84.22364, 33.22921], [-84.22352, 33.22898], [-84.2234, 33.22874], [-84.2233, 33.22852], [-84.22324, 33.22839], [-84.22313, 33.22805], [-84.22303, 33.22771], [-84.22295, 33.22731], [-84.22291, 33.22703], [-84.22288, 33.22677], [-84.22287, 33.22646], [-84.22288, 33.22618], [-84.2229, 33.22588], [-84.22293, 33.22564], [-84.22298, 33.22532], [-84.22313, 33.22451], [-84.22334, 33.22341], [-84.22348, 33.22268], [-84.22361, 33.22195], [-84.2237, 33.22142], [-84.22394, 33.22015], [-84.22408, 33.2194], [-84.22412, 33.21904], [-84.22414, 33.21871], [-84.22414, 33.21848], [-84.22413, 33.21818], [-84.22409, 33.21785], [-84.22387, 33.21669], [-84.22376, 33.2161], [-84.22354, 33.21513], [-84.22174, 33.20932], [-84.22154, 33.20875], [-84.22145, 33.20847], [-84.22097, 33.20693], [-84.22057, 33.20614], [-84.22021, 33.20558], [-84.21861, 33.20345], [-84.21789, 33.20248], [-84.21766, 33.20213], [-84.21743, 33.20173], [-84.21724, 33.20132], [-84.21707, 33.2009], [-84.21695, 33.20056], [-84.2168, 33.19992], [-84.2167, 33.19936], [-84.21647, 33.197], [-84.21643, 33.19666], [-84.21636, 33.19637], [-84.21632, 33.19617], [-84.21604, 33.19542], [-84.21593, 33.19525], [-84.21561, 33.19474], [-84.21479, 33.1937], [-84.21438, 33.19318], [-84.21403, 33.19259], [-84.21384, 33.19211], [-84.21354, 33.19117], [-84.21341, 33.19071], [-84.21284, 33.18875], [-84.2128, 33.18858], [-84.21267, 33.1882], [-84.21252, 33.18785], [-84.21236, 33.18754], [-84.21214, 33.18717], [-84.21178, 33.18671], [-84.21143, 33.18634], [-84.21103, 33.18597], [-84.21099, 33.18593], [-84.20807, 33.18322], [-84.20763, 33.18276], [-84.20739, 33.18247], [-84.20716, 33.18214], [-84.2069, 33.18167], [-84.20676, 33.18136], [-84.20665, 33.18104], [-84.20653, 33.1806], [-84.20646, 33.18012], [-84.20645, 33.17954], [-84.20647, 33.17928], [-84.20647, 33.17921], [-84.20658, 33.17852], [-84.20687, 33.17695], [-84.20693, 33.17658], [-84.20695, 33.17631], [-84.20696, 33.17608], [-84.20696, 33.17585], [-84.20695, 33.17565], [-84.20693, 33.17536], [-84.20688, 33.17503], [-84.2061, 33.17164], [-84.20541, 33.16875], [-84.20493, 33.16668], [-84.20491, 33.16658], [-84.20483, 33.1659], [-84.20483, 33.16532], [-84.20491, 33.16471], [-84.20493, 33.16456], [-84.20508, 33.16384], [-84.20519, 33.16342], [-84.20525, 33.16325], [-84.20727, 33.15875], [-84.20745, 33.15828], [-84.20767, 33.15761], [-84.20772, 33.15738], [-84.20777, 33.15721], [-84.20779, 33.15714], [-84.20789, 33.15618], [-84.20787, 33.15543], [-84.20777, 33.15502], [-84.20773, 33.15486], [-84.20769, 33.15463], [-84.20765, 33.15452], [-84.20761, 33.15438], [-84.20755, 33.15424], [-84.20748, 33.15406], [-84.20741, 33.15393], [-84.20731, 33.15371], [-84.20701, 33.15318], [-84.20686, 33.15295], [-84.20671, 33.15271], [-84.20663, 33.15261], [-84.20651, 33.15245], [-84.20645, 33.15239], [-84.20621, 33.15214], [-84.20581, 33.15175], [-84.20537, 33.1514], [-84.20508, 33.15118], [-84.19979, 33.14767], [-84.19874, 33.14695], [-84.19817, 33.14654], [-84.19772, 33.14617], [-84.19726, 33.14577], [-84.19692, 33.14538], [-84.19668, 33.14506], [-84.19635, 33.1446], [-84.19607, 33.14412], [-84.19585, 33.14371], [-84.19563, 33.14324], [-84.19552, 33.1429], [-84.19482, 33.14047], [-84.19454, 33.13934], [-84.19436, 33.13882], [-84.19389, 33.13726], [-84.19346, 33.13568], [-84.19305, 33.13422], [-84.19261, 33.13259], [-84.1924, 33.13182], [-84.19236, 33.13155], [-84.19234, 33.1313], [-84.19233, 33.131], [-84.19234, 33.1306], [-84.19237, 33.13025], [-84.19245, 33.12992], [-84.19251, 33.12973], [-84.19258, 33.12949], [-84.19276, 33.12907], [-84.19305, 33.12853], [-84.19539, 33.1249], [-84.19566, 33.12439], [-84.1958, 33.12406], [-84.19587, 33.1239], [-84.1959, 33.12373], [-84.19598, 33.12347], [-84.19602, 33.12325], [-84.19606, 33.12299], [-84.19613, 33.12235], [-84.19615, 33.12205], [-84.19651, 33.11791], [-84.19664, 33.11658], [-84.1967, 33.11595], [-84.19678, 33.115], [-84.19722, 33.11043], [-84.19735, 33.10919], [-84.19738, 33.1089], [-84.19741, 33.10865], [-84.19745, 33.10803], [-84.19746, 33.10786], [-84.19748, 33.10739], [-84.19747, 33.10691], [-84.19738, 33.10611], [-84.19733, 33.1058], [-84.19729, 33.10541], [-84.19725, 33.10515], [-84.19704, 33.10319], [-84.19697, 33.1027], [-84.19688, 33.10183], [-84.1967, 33.10029], [-84.19655, 33.09939], [-84.19607, 33.09766], [-84.1958, 33.0967], [-84.19567, 33.09628], [-84.19539, 33.09534], [-84.19468, 33.09286], [-84.19454, 33.09238], [-84.19427, 33.09153], [-84.19419, 33.09125], [-84.19397, 33.09042], [-84.19368, 33.0893], [-84.19361, 33.08885], [-84.1936, 33.08872], [-84.19359, 33.08849], [-84.19359, 33.08822], [-84.19361, 33.08804], [-84.19365, 33.0876], [-84.19373, 33.08715], [-84.19379, 33.08696], [-84.19397, 33.08632], [-84.19455, 33.08477], [-84.1949, 33.08404], [-84.19499, 33.08388], [-84.19514, 33.0836], [-84.19533, 33.08327], [-84.19552, 33.08296], [-84.19569, 33.08268], [-84.19578, 33.08254], [-84.19654, 33.08149], [-84.19737, 33.08048], [-84.19767, 33.08012], [-84.19773, 33.08005], [-84.19839, 33.0792], [-84.19881, 33.07866], [-84.19906, 33.07824], [-84.19926, 33.07786], [-84.19937, 33.0776], [-84.19952, 33.07726], [-84.19967, 33.07681], [-84.19983, 33.0762], [-84.19989, 33.07589], [-84.19992, 33.07566], [-84.19999, 33.07527], [-84.20024, 33.07387], [-84.20046, 33.07261], [-84.20108, 33.06904], [-84.20113, 33.06879], [-84.20119, 33.06786], [-84.20116, 33.06743], [-84.20108, 33.06687], [-84.20089, 33.0662], [-84.2007, 33.06569], [-84.20034, 33.06505], [-84.20007, 33.06464], [-84.19965, 33.06413], [-84.199, 33.06351], [-84.19852, 33.06314], [-84.1976, 33.06238], [-84.19593, 33.06107], [-84.19454, 33.05997], [-84.1945, 33.05993], [-84.19394, 33.05956], [-84.1933, 33.0592], [-84.1926, 33.05886], [-84.19187, 33.05857], [-84.19071, 33.05827], [-84.18991, 33.0581], [-84.18755, 33.05761], [-84.18544, 33.05694], [-84.18347, 33.05629], [-84.18129, 33.05554], [-84.18089, 33.05541], [-84.17704, 33.05413], [-84.17554, 33.05364], [-84.1743, 33.05327], [-84.1735, 33.0531], [-84.17279, 33.05295], [-84.17161, 33.05268], [-84.16819, 33.05199], [-84.16793, 33.05194], [-84.16731, 33.05182], [-84.16663, 33.05176], [-84.16611, 33.05174], [-84.16558, 33.05176], [-84.16501, 33.05182], [-84.16319, 33.05217], [-84.16171, 33.05245], [-84.1602, 33.05273], [-84.15961, 33.05289], [-84.15898, 33.05313], [-84.15848, 33.05334], [-84.15845, 33.05336], [-84.15836, 33.05344], [-84.15797, 33.05366], [-84.15682, 33.05452], [-84.15671, 33.05461], [-84.15638, 33.05486], [-84.15592, 33.05521], [-84.15551, 33.05552], [-84.15534, 33.05566], [-84.15506, 33.05587], [-84.15484, 33.05605], [-84.15457, 33.05623], [-84.15434, 33.05637], [-84.15403, 33.05656], [-84.1537, 33.05674], [-84.15311, 33.05703], [-84.153, 33.05709], [-84.1514, 33.05788], [-84.15041, 33.05836], [-84.14904, 33.05905], [-84.14812, 33.0595], [-84.14779, 33.05967], [-84.14748, 33.05985], [-84.14728, 33.05998], [-84.14709, 33.06009], [-84.14695, 33.0602], [-84.14681, 33.06031], [-84.14658, 33.0605], [-84.14628, 33.06078], [-84.1459, 33.06123], [-84.14557, 33.06163], [-84.14535, 33.06204], [-84.14521, 33.06227], [-84.14508, 33.06247], [-84.14495, 33.06269], [-84.14461, 33.06314], [-84.14429, 33.06352], [-84.14408, 33.06372], [-84.1439, 33.06388], [-84.14376, 33.06397], [-84.14367, 33.06405], [-84.14344, 33.06422], [-84.14331, 33.06431], [-84.14291, 33.06457], [-84.14242, 33.06481], [-84.14201, 33.06498], [-84.14164, 33.0651], [-84.14112, 33.06523], [-84.14046, 33.06536], [-84.14006, 33.06539], [-84.13974, 33.06541], [-84.13898, 33.0654], [-84.13856, 33.06535], [-84.13817, 33.0653], [-84.1376, 33.06517], [-84.13733, 33.06509], [-84.1371, 33.06502], [-84.13667, 33.06486], [-84.13639, 33.06473], [-84.13596, 33.06449], [-84.13575, 33.06437], [-84.13567, 33.06432], [-84.13559, 33.06428], [-84.13539, 33.06414], [-84.13439, 33.06353], [-84.13407, 33.06336], [-84.13368, 33.06318], [-84.13313, 33.06295], [-84.13243, 33.06276], [-84.11882, 33.05986], [-84.11811, 33.05971], [-84.11709, 33.0595], [-84.11649, 33.05943], [-84.11572, 33.05942], [-84.11536, 33.05944], [-84.11509, 33.05946], [-84.11485, 33.05949], [-84.11475, 33.05951], [-84.11453, 33.05955], [-84.11429, 33.0596], [-84.1141, 33.05967], [-84.11378, 33.05977], [-84.11349, 33.05987], [-84.11302, 33.06006], [-84.1127, 33.06021], [-84.11242, 33.06035], [-84.11213, 33.06052], [-84.112, 33.06062], [-84.11168, 33.06086], [-84.11145, 33.06104], [-84.1113, 33.06118], [-84.11111, 33.06136], [-84.11096, 33.06152], [-84.11085, 33.06169], [-84.11066, 33.06197], [-84.1105, 33.06223], [-84.11039, 33.06242], [-84.11012, 33.06293], [-84.10993, 33.06353], [-84.10982, 33.06404], [-84.1098, 33.06437], [-84.10979, 33.06451], [-84.1098, 33.06523], [-84.10984, 33.06592], [-84.10984, 33.06635], [-84.1098, 33.06671], [-84.10975, 33.06717], [-84.10963, 33.06772], [-84.10952, 33.06808], [-84.10934, 33.06863], [-84.10915, 33.069], [-84.10904, 33.06924], [-84.10864, 33.06993], [-84.10822, 33.07053], [-84.10793, 33.07086], [-84.1077, 33.07109], [-84.10745, 33.07134], [-84.10718, 33.07159], [-84.10691, 33.0718], [-84.10664, 33.07201], [-84.10641, 33.07218], [-84.1062, 33.07232], [-84.10043, 33.07573], [-84.10013, 33.07591], [-84.09968, 33.07613], [-84.09956, 33.07618], [-84.09928, 33.07629], [-84.09896, 33.07638], [-84.09849, 33.07652], [-84.09814, 33.07658], [-84.09793, 33.07661], [-84.09766, 33.07666], [-84.09717, 33.0767], [-84.09686, 33.0767], [-84.09649, 33.07669], [-84.09611, 33.07667], [-84.09596, 33.07664], [-84.09569, 33.07659], [-84.09554, 33.07655], [-84.09527, 33.0765], [-84.09512, 33.07647], [-84.0949, 33.07639], [-84.09461, 33.07631], [-84.0936, 33.07602], [-84.09355, 33.076], [-84.09174, 33.0754], [-84.09106, 33.07517], [-84.09042, 33.07497], [-84.09011, 33.0749], [-84.08993, 33.07487], [-84.08966, 33.07483], [-84.08946, 33.0748], [-84.08909, 33.07476], [-84.08866, 33.07475], [-84.08836, 33.07476], [-84.08816, 33.07475], [-84.08787, 33.07477], [-84.0873, 33.07489], [-84.087, 33.07495], [-84.08672, 33.07503], [-84.08645, 33.07511], [-84.08636, 33.07514], [-84.08597, 33.07529], [-84.08367, 33.07623], [-84.08324, 33.0764], [-84.08277, 33.07656], [-84.08233, 33.07668], [-84.08194, 33.07675], [-84.08115, 33.07685], [-84.0807, 33.07689], [-84.08041, 33.07693], [-84.07941, 33.07706], [-84.07836, 33.07719], [-84.07761, 33.07726], [-84.07714, 33.07731], [-84.07635, 33.07738], [-84.07618, 33.07739], [-84.07576, 33.07737], [-84.07532, 33.07734], [-84.07493, 33.07729], [-84.07435, 33.07717], [-84.07398, 33.07706], [-84.07355, 33.0769], [-84.07298, 33.07665], [-84.07275, 33.07653], [-84.07242, 33.0763], [-84.07204, 33.07606], [-84.07159, 33.0757], [-84.07135, 33.07548], [-84.07068, 33.0748], [-84.06982, 33.07389], [-84.06947, 33.07353], [-84.06785, 33.07182], [-84.0663, 33.07021], [-84.06578, 33.06972], [-84.06561, 33.06954], [-84.06538, 33.06928], [-84.06509, 33.06898], [-84.06493, 33.06881], [-84.06481, 33.06866], [-84.06443, 33.06808], [-84.06402, 33.06724], [-84.06383, 33.06682], [-84.06364, 33.06639], [-84.06314, 33.06531], [-84.06295, 33.06487], [-84.06281, 33.06457], [-84.06249, 33.06388], [-84.06203, 33.06295], [-84.06164, 33.06215], [-84.06101, 33.06093], [-84.06031, 33.05978], [-84.05956, 33.05895], [-84.0589, 33.05834], [-84.05827, 33.05786], [-84.05785, 33.05758], [-84.05693, 33.05706], [-84.05651, 33.05687], [-84.05585, 33.05664], [-84.05503, 33.05636], [-84.05358, 33.05591], [-84.05053, 33.05496], [-84.05033, 33.05488], [-84.04909, 33.05453], [-84.04888, 33.05447], [-84.04831, 33.05433], [-84.04746, 33.05421], [-84.04619, 33.05412], [-84.0448, 33.05404], [-84.04405, 33.05398], [-84.04261, 33.05388], [-84.04201, 33.05382], [-84.04146, 33.05373], [-84.04094, 33.05361], [-84.03193, 33.05126], [-84.03112, 33.05095], [-84.03042, 33.0506], [-84.02771, 33.04924], [-84.0268, 33.04877], [-84.02626, 33.0485], [-84.02568, 33.04825], [-84.02534, 33.04812], [-84.02495, 33.048], [-84.0238, 33.04776], [-84.02283, 33.04767], [-84.02135, 33.04757], [-84.01822, 33.04733], [-84.01681, 33.04724], [-84.01589, 33.04717], [-84.01485, 33.04712], [-84.01437, 33.04711], [-84.01387, 33.04713], [-84.01317, 33.0472], [-84.01261, 33.04727], [-84.01208, 33.04739], [-84.01134, 33.04758], [-84.01062, 33.04783], [-84.01016, 33.04802], [-84.0096, 33.0483], [-84.00922, 33.04852], [-84.00876, 33.04878], [-84.00806, 33.04925], [-84.00717, 33.04983], [-84.00633, 33.05037], [-84.00526, 33.0511], [-84.00362, 33.05216], [-84.00227, 33.05302], [-84.00112, 33.05379], [-84.00006, 33.05432], [-83.99924, 33.05454], [-83.99837, 33.05467], [-83.99797, 33.05471], [-83.99744, 33.05471], [-83.99694, 33.05469], [-83.99643, 33.05462], [-83.99592, 33.05452], [-83.99398, 33.05398], [-83.99234, 33.05354], [-83.99152, 33.05339], [-83.99074, 33.05331], [-83.98941, 33.05336], [-83.98894, 33.05346], [-83.98814, 33.05369], [-83.9875, 33.05393], [-83.98713, 33.05413], [-83.98643, 33.05459], [-83.98592, 33.05499], [-83.98534, 33.05545], [-83.9839, 33.05662], [-83.98232, 33.05806], [-83.98051, 33.05953], [-83.98033, 33.05967], [-83.98016, 33.05981], [-83.9798, 33.06007], [-83.9795, 33.0603], [-83.97909, 33.06058], [-83.97846, 33.06092], [-83.97787, 33.06119], [-83.97742, 33.0614], [-83.97673, 33.06164], [-83.97458, 33.06211], [-83.97152, 33.06271], [-83.97069, 33.06285], [-83.96969, 33.063], [-83.969, 33.06305], [-83.96825, 33.06306], [-83.96711, 33.06295], [-83.96616, 33.06276], [-83.96542, 33.06256], [-83.96466, 33.06229], [-83.96392, 33.06197], [-83.96368, 33.06183], [-83.96308, 33.06146], [-83.96085, 33.05986], [-83.95881, 33.05834], [-83.95092, 33.05244], [-83.94891, 33.05097], [-83.94811, 33.05037], [-83.94767, 33.05], [-83.94727, 33.04964], [-83.9467, 33.04902], [-83.94617, 33.04816], [-83.94588, 33.04759], [-83.94571, 33.04697], [-83.94555, 33.04614], [-83.94478, 33.04198], [-83.94457, 33.04123], [-83.94411, 33.04029], [-83.94394, 33.04005], [-83.94361, 33.03968], [-83.94345, 33.0395], [-83.94283, 33.03898], [-83.94144, 33.03818], [-83.9408, 33.03792], [-83.93982, 33.03772], [-83.93843, 33.03753], [-83.93757, 33.03734], [-83.93715, 33.03722], [-83.93671, 33.03704], [-83.93605, 33.03674], [-83.93527, 33.03621], [-83.93376, 33.0351], [-83.93221, 33.03397], [-83.93218, 33.03395], [-83.92947, 33.03196], [-83.92736, 33.03042], [-83.92509, 33.02877], [-83.92213, 33.02663], [-83.92204, 33.02656], [-83.92197, 33.02649], [-83.92171, 33.02631], [-83.92148, 33.02614], [-83.92012, 33.02516], [-83.91973, 33.02487], [-83.91904, 33.02435], [-83.91854, 33.02394], [-83.91798, 33.02342], [-83.91753, 33.02293], [-83.91721, 33.02252], [-83.91695, 33.02214], [-83.91661, 33.02152], [-83.91515, 33.01835], [-83.915, 33.01805], [-83.91495, 33.01793], [-83.91485, 33.01772], [-83.91467, 33.01732], [-83.91401, 33.0159], [-83.91377, 33.01538], [-83.9135, 33.01488], [-83.91327, 33.01451], [-83.91302, 33.01416], [-83.91275, 33.01383], [-83.91239, 33.01346], [-83.91199, 33.01311], [-83.91163, 33.01283], [-83.91126, 33.01256], [-83.9105, 33.01203], [-83.91013, 33.01177], [-83.90976, 33.01149], [-83.90941, 33.0112], [-83.90908, 33.01089], [-83.90872, 33.01051], [-83.90851, 33.01027], [-83.90822, 33.00989], [-83.90793, 33.0095], [-83.90735, 33.0087], [-83.9062, 33.00712], [-83.902, 33.00134], [-83.90156, 33.00074], [-83.90111, 33.00014], [-83.90075, 32.99973], [-83.90037, 32.99932], [-83.89984, 32.99885], [-83.89944, 32.99849], [-83.8986, 32.99774], [-83.8964, 32.99577], [-83.89517, 32.9947], [-83.89463, 32.99425], [-83.89436, 32.99403], [-83.89407, 32.99382], [-83.89371, 32.99358], [-83.89333, 32.99334], [-83.8929, 32.99311], [-83.89246, 32.99289], [-83.89196, 32.99264], [-83.89037, 32.99183], [-83.88927, 32.99129], [-83.88924, 32.99127], [-83.88819, 32.99073], [-83.88782, 32.9905], [-83.88748, 32.99027], [-83.88717, 32.99004], [-83.88688, 32.98981], [-83.8867, 32.98967], [-83.88635, 32.98936], [-83.8843, 32.9876], [-83.88401, 32.98735], [-83.88354, 32.98695], [-83.87997, 32.98386], [-83.87749, 32.98173], [-83.87725, 32.98152], [-83.87522, 32.97977], [-83.87449, 32.97913], [-83.8738, 32.9785], [-83.87315, 32.97778], [-83.87279, 32.97726], [-83.87235, 32.9765], [-83.87187, 32.97556], [-83.8715, 32.97485], [-83.87138, 32.97457], [-83.8712, 32.97424], [-83.87096, 32.9738], [-83.87055, 32.97321], [-83.87016, 32.97271], [-83.86952, 32.97192], [-83.86902, 32.97118], [-83.86867, 32.97047], [-83.86841, 32.96964], [-83.86815, 32.96876], [-83.86764, 32.96714], [-83.86732, 32.96608], [-83.86697, 32.96496], [-83.86691, 32.96475], [-83.86674, 32.96423], [-83.86639, 32.96356], [-83.86589, 32.96297], [-83.86514, 32.96217], [-83.86447, 32.9615], [-83.86098, 32.95754], [-83.85959, 32.95596], [-83.85936, 32.95575], [-83.85904, 32.95548], [-83.85856, 32.95501], [-83.85808, 32.95466], [-83.8576, 32.95438], [-83.85718, 32.95418], [-83.85673, 32.954], [-83.85618, 32.95383], [-83.85562, 32.9537], [-83.85064, 32.95265], [-83.85019, 32.95252], [-83.85007, 32.95249], [-83.84957, 32.9523], [-83.84928, 32.95218], [-83.84862, 32.95183], [-83.84821, 32.95157], [-83.84798, 32.95139], [-83.84746, 32.95092], [-83.84702, 32.95041], [-83.8466, 32.94981], [-83.84631, 32.94916], [-83.84576, 32.94784], [-83.84541, 32.94707], [-83.845, 32.94646], [-83.84452, 32.94592], [-83.84415, 32.94559], [-83.84387, 32.94538], [-83.84357, 32.94517], [-83.84321, 32.94497], [-83.84284, 32.9448], [-83.84249, 32.94468], [-83.84214, 32.94459], [-83.84178, 32.94451], [-83.8414, 32.94445], [-83.8408, 32.94438], [-83.84019, 32.94435], [-83.83985, 32.94435], [-83.83952, 32.94437], [-83.83884, 32.94442], [-83.83832, 32.94449], [-83.8378, 32.94459], [-83.83728, 32.94471], [-83.83676, 32.94486], [-83.83645, 32.94496], [-83.83622, 32.94504], [-83.83569, 32.94526], [-83.83501, 32.94557], [-83.83378, 32.94614], [-83.83358, 32.94623], [-83.83331, 32.94636], [-83.82757, 32.94901], [-83.82475, 32.95031], [-83.8239, 32.9507], [-83.81986, 32.95257], [-83.8192, 32.95284], [-83.81856, 32.95308], [-83.81747, 32.9534], [-83.81686, 32.95355], [-83.81668, 32.95359], [-83.81583, 32.95372], [-83.81511, 32.9538], [-83.81447, 32.95384], [-83.81319, 32.95386], [-83.81272, 32.95384], [-83.81232, 32.95383], [-83.81174, 32.95378], [-83.81146, 32.95375], [-83.81079, 32.95365], [-83.81027, 32.95358], [-83.80923, 32.95332], [-83.80864, 32.95311], [-83.80798, 32.95282], [-83.80707, 32.95235], [-83.80601, 32.95163], [-83.80492, 32.9509], [-83.80394, 32.95025], [-83.80364, 32.95006], [-83.80202, 32.94895], [-83.80011, 32.94766], [-83.79973, 32.94741], [-83.79965, 32.94736], [-83.79867, 32.94669], [-83.79804, 32.94626], [-83.79739, 32.94582], [-83.79295, 32.94283], [-83.79236, 32.94243], [-83.79206, 32.94221], [-83.79177, 32.94197], [-83.79152, 32.94175], [-83.79125, 32.94146], [-83.79102, 32.94119], [-83.79063, 32.94065], [-83.7905, 32.94038], [-83.79036, 32.94006], [-83.79024, 32.93976], [-83.79013, 32.93936], [-83.79007, 32.9391], [-83.79002, 32.93875], [-83.79, 32.93838], [-83.78999, 32.9379], [-83.78998, 32.93755], [-83.78996, 32.93652], [-83.78995, 32.9358], [-83.78995, 32.93551], [-83.78994, 32.93515], [-83.78991, 32.93364], [-83.78989, 32.93209], [-83.78984, 32.93165], [-83.78975, 32.93097], [-83.7896, 32.93049], [-83.78942, 32.92998], [-83.78928, 32.92958], [-83.78909, 32.92918], [-83.78886, 32.92876], [-83.7886, 32.92837], [-83.78833, 32.928], [-83.78746, 32.92684], [-83.78735, 32.92671], [-83.78572, 32.92458], [-83.78338, 32.92154], [-83.78295, 32.92097], [-83.78102, 32.91846], [-83.78075, 32.91811], [-83.78054, 32.91784], [-83.78041, 32.91768], [-83.78016, 32.91738], [-83.77986, 32.91705], [-83.77958, 32.91678], [-83.77922, 32.91646], [-83.77901, 32.91629], [-83.77864, 32.91602], [-83.77808, 32.91565], [-83.77774, 32.91546], [-83.77733, 32.91524], [-83.77682, 32.91501], [-83.7763, 32.91479], [-83.77528, 32.91435], [-83.77476, 32.91412], [-83.77426, 32.91392], [-83.7703, 32.91218], [-83.76996, 32.91201], [-83.76963, 32.91183], [-83.76726, 32.91031], [-83.76616, 32.90962], [-83.76547, 32.9092], [-83.76403, 32.90833], [-83.76144, 32.9071], [-83.75567, 32.90454], [-83.74918, 32.90164], [-83.74783, 32.90104], [-83.74715, 32.9007], [-83.74615, 32.90015], [-83.74555, 32.89977], [-83.74451, 32.89906], [-83.74131, 32.89655], [-83.73318, 32.89019], [-83.73103, 32.88845], [-83.73062, 32.88813], [-83.73031, 32.88784], [-83.73004, 32.88759], [-83.72965, 32.88719], [-83.72908, 32.88655], [-83.72764, 32.88488], [-83.72757, 32.8848], [-83.72568, 32.88262], [-83.72525, 32.88214], [-83.72444, 32.88119], [-83.72425, 32.88096], [-83.72405, 32.88077], [-83.72381, 32.88056], [-83.72367, 32.88043], [-83.72354, 32.88033], [-83.72334, 32.88018], [-83.72315, 32.88004], [-83.72274, 32.8798], [-83.7223, 32.87958], [-83.72186, 32.87939], [-83.7211, 32.87913], [-83.72003, 32.87885], [-83.71912, 32.8786], [-83.71791, 32.87824], [-83.71724, 32.87799], [-83.71641, 32.87762], [-83.71617, 32.87752], [-83.71071, 32.8751], [-83.70953, 32.87456], [-83.70358, 32.87196], [-83.70118, 32.87087], [-83.70072, 32.87066], [-83.6998, 32.87011], [-83.6992, 32.86966], [-83.69839, 32.86882], [-83.69822, 32.86858], [-83.69806, 32.86836], [-83.69789, 32.86807], [-83.69718, 32.86654], [-83.69627, 32.86458], [-83.69587, 32.86378], [-83.6952, 32.86294], [-83.69473, 32.86253], [-83.69422, 32.86212], [-83.69337, 32.86155], [-83.69293, 32.86129], [-83.69066, 32.86009], [-83.68497, 32.85716], [-83.68444, 32.85686], [-83.68364, 32.85643], [-83.6829, 32.85606], [-83.68217, 32.85568], [-83.68171, 32.85539], [-83.68118, 32.85508], [-83.68072, 32.85479], [-83.68032, 32.8545], [-83.67991, 32.85418], [-83.67951, 32.85389], [-83.67694, 32.85186], [-83.67651, 32.85153], [-83.67148, 32.84765], [-83.67021, 32.84665], [-83.6696, 32.84617], [-83.66909, 32.8457], [-83.66847, 32.84506], [-83.66761, 32.84423], [-83.6667, 32.84348], [-83.66625, 32.84316], [-83.66573, 32.84286], [-83.66489, 32.84247], [-83.66401, 32.84223], [-83.66369, 32.84215], [-83.66336, 32.84209], [-83.66071, 32.84168], [-83.65593, 32.841], [-83.65575, 32.84097], [-83.65475, 32.84084], [-83.65424, 32.84075], [-83.65346, 32.84057], [-83.65304, 32.84044], [-83.65264, 32.84032], [-83.65158, 32.83995], [-83.65074, 32.83965], [-83.65053, 32.83957], [-83.64833, 32.83878], [-83.6476, 32.83852], [-83.64741, 32.83845], [-83.64679, 32.83824], [-83.646, 32.83796], [-83.64523, 32.83768], [-83.64477, 32.83745], [-83.64436, 32.83715], [-83.62168, 32.83568], [-83.62158, 32.83578], [-83.62149, 32.83583], [-83.62142, 32.8359], [-83.6212, 32.83603], [-83.62106, 32.8361], [-83.62077, 32.83624], [-83.62043, 32.8364], [-83.62005, 32.83659], [-83.61985, 32.83671], [-83.6197, 32.83683], [-83.61956, 32.83694], [-83.61923, 32.83728], [-83.61816, 32.83851], [-83.61808, 32.83859], [-83.61801, 32.83868], [-83.61792, 32.83876], [-83.61775, 32.83891], [-83.61748, 32.83911], [-83.6173, 32.83921], [-83.6171, 32.83932], [-83.61679, 32.83946], [-83.61623, 32.83963], [-83.6155, 32.8398], [-83.6144, 32.83989], [-83.61193, 32.83998], [-83.60734, 32.84007], [-83.60318, 32.84018], [-83.60235, 32.84029], [-83.60133, 32.84061], [-83.60029, 32.84108], [-83.59988, 32.84134], [-83.59967, 32.84147], [-83.59744, 32.84284], [-83.59687, 32.8432], [-83.59526, 32.84419], [-83.59361, 32.8452], [-83.59332, 32.84539], [-83.59244, 32.84592], [-83.59131, 32.84661], [-83.59099, 32.84682], [-83.58879, 32.84817], [-83.58748, 32.84882], [-83.58707, 32.84896], [-83.58664, 32.84908], [-83.58625, 32.84917], [-83.58591, 32.84924], [-83.58548, 32.84928], [-83.58506, 32.84932], [-83.58449, 32.84933], [-83.58399, 32.8493], [-83.58348, 32.84924], [-83.58299, 32.84915], [-83.58249, 32.84903], [-83.58205, 32.84889], [-83.5817, 32.84876], [-83.58137, 32.84862], [-83.58072, 32.84825], [-83.58012, 32.84788], [-83.57913, 32.84698], [-83.57895, 32.84679], [-83.57826, 32.84603], [-83.57752, 32.84532], [-83.577, 32.84494], [-83.57671, 32.84476], [-83.57641, 32.84459], [-83.5761, 32.84444], [-83.57576, 32.84429], [-83.57558, 32.84422], [-83.57546, 32.84417], [-83.57492, 32.84401], [-83.5744, 32.8439], [-83.57397, 32.84382], [-83.57347, 32.84377], [-83.57277, 32.84376], [-83.57243, 32.84378], [-83.5718, 32.84384], [-83.57084, 32.84406], [-83.56983, 32.8444], [-83.5691, 32.84481], [-83.56399, 32.8484], [-83.5629, 32.84921], [-83.56285, 32.84924], [-83.56212, 32.84976], [-83.56188, 32.84991], [-83.56166, 32.85007], [-83.55953, 32.85162], [-83.55574, 32.85436], [-83.55504, 32.85494], [-83.55472, 32.8553], [-83.55442, 32.85567], [-83.55411, 32.85606], [-83.55384, 32.85647], [-83.55335, 32.85737], [-83.5528, 32.85872], [-83.55249, 32.85945], [-83.55224, 32.85994], [-83.55194, 32.86032], [-83.55163, 32.86073], [-83.55118, 32.86125], [-83.55079, 32.86166], [-83.55038, 32.86206], [-83.54977, 32.86263], [-83.54955, 32.86282], [-83.54931, 32.863], [-83.54904, 32.86319], [-83.54876, 32.86336], [-83.54837, 32.86356], [-83.54797, 32.86376], [-83.54757, 32.86392], [-83.54714, 32.86406], [-83.54673, 32.86417], [-83.54629, 32.86426], [-83.54586, 32.86433], [-83.5454, 32.86437], [-83.54179, 32.86452], [-83.54083, 32.86454], [-83.54046, 32.86452], [-83.54018, 32.86452], [-83.53983, 32.86448], [-83.5395, 32.86444], [-83.53882, 32.86429], [-83.53818, 32.8641], [-83.53803, 32.86405], [-83.5375, 32.86381], [-83.53694, 32.8635], [-83.53631, 32.86314], [-83.53607, 32.86298], [-83.5358, 32.86283], [-83.53419, 32.86188], [-83.53358, 32.86164], [-83.53324, 32.86152], [-83.53305, 32.86146], [-83.53284, 32.8614], [-83.53255, 32.86133], [-83.53224, 32.86128], [-83.53199, 32.86123], [-83.53161, 32.86119], [-83.53123, 32.86116], [-83.53089, 32.86115], [-83.53055, 32.86116], [-83.53031, 32.86117], [-83.52995, 32.8612], [-83.52956, 32.86125], [-83.5293, 32.8613], [-83.52904, 32.86135], [-83.52858, 32.86146], [-83.52813, 32.8616], [-83.52752, 32.86185], [-83.52694, 32.86214], [-83.52633, 32.8625], [-83.52597, 32.86281], [-83.52556, 32.86319], [-83.5249, 32.86392], [-83.52456, 32.86452], [-83.5243, 32.86511], [-83.5238, 32.86625], [-83.52362, 32.86673], [-83.5234, 32.8672], [-83.52324, 32.8675], [-83.52306, 32.86779], [-83.52284, 32.86808], [-83.5226, 32.86837], [-83.5222, 32.86877], [-83.5218, 32.86913], [-83.52137, 32.86943], [-83.52094, 32.86968], [-83.52054, 32.86989], [-83.52012, 32.87008], [-83.51977, 32.8702], [-83.51939, 32.87032], [-83.51905, 32.87041], [-83.51872, 32.87047], [-83.51841, 32.87052], [-83.51794, 32.87059], [-83.51731, 32.87064], [-83.51704, 32.87066], [-83.51675, 32.87069], [-83.51626, 32.87074], [-83.51577, 32.87079], [-83.51451, 32.87087], [-83.51305, 32.87096], [-83.51081, 32.87106], [-83.50858, 32.87114], [-83.50803, 32.87118], [-83.50748, 32.87124], [-83.50695, 32.87131], [-83.50641, 32.8714], [-83.50611, 32.87146], [-83.50501, 32.87174], [-83.50366, 32.87214], [-83.50297, 32.87235], [-83.50135, 32.87281], [-83.50061, 32.87301], [-83.50017, 32.8731], [-83.49981, 32.87317], [-83.49944, 32.87321], [-83.49905, 32.87325], [-83.49878, 32.87327], [-83.49822, 32.87329], [-83.49753, 32.87328], [-83.49698, 32.87324], [-83.49627, 32.87315], [-83.49578, 32.87306], [-83.49524, 32.87295], [-83.49477, 32.87282], [-83.49431, 32.87266], [-83.49383, 32.87247], [-83.49329, 32.87224], [-83.49153, 32.87145], [-83.48898, 32.87031], [-83.48832, 32.87001], [-83.48784, 32.8698], [-83.48754, 32.86967], [-83.48735, 32.86958], [-83.48614, 32.86907], [-83.48521, 32.86878], [-83.48351, 32.86841], [-83.48274, 32.86831], [-83.48143, 32.86823], [-83.48042, 32.86824], [-83.47932, 32.86833], [-83.47723, 32.86864], [-83.47575, 32.86884], [-83.47297, 32.86927], [-83.47209, 32.8694], [-83.47183, 32.86946], [-83.47071, 32.86969], [-83.46978, 32.87001], [-83.46855, 32.87059], [-83.4671, 32.87152], [-83.46612, 32.87246], [-83.46541, 32.87336], [-83.46501, 32.87396], [-83.46348, 32.87616], [-83.46272, 32.87726], [-83.46212, 32.87785], [-83.46179, 32.87811], [-83.46145, 32.87837], [-83.46098, 32.87868], [-83.46044, 32.87896], [-83.4597, 32.87927], [-83.4589, 32.87958], [-83.45849, 32.87975], [-83.45821, 32.87988], [-83.45747, 32.88031], [-83.45697, 32.88067], [-83.45651, 32.88108], [-83.45617, 32.88144], [-83.45586, 32.88181], [-83.45564, 32.88212], [-83.45544, 32.88243], [-83.4551, 32.8831], [-83.45499, 32.88345], [-83.45489, 32.8838], [-83.45481, 32.88416], [-83.45476, 32.88451], [-83.45473, 32.88489], [-83.45473, 32.88526], [-83.45486, 32.88651], [-83.4549, 32.88688], [-83.4549, 32.88725], [-83.45487, 32.88773], [-83.45478, 32.88823], [-83.45465, 32.88868], [-83.45456, 32.88897], [-83.45449, 32.88913], [-83.45271, 32.89244], [-83.45233, 32.89313], [-83.45151, 32.8947], [-83.4509, 32.89604], [-83.45074, 32.89685], [-83.45071, 32.89811], [-83.45058, 32.89918], [-83.45031, 32.90013], [-83.45011, 32.90055], [-83.44972, 32.90115], [-83.44938, 32.90158], [-83.44902, 32.902], [-83.44872, 32.90227], [-83.44839, 32.90253], [-83.44746, 32.90313], [-83.44699, 32.90336], [-83.44649, 32.90357], [-83.44592, 32.90374], [-83.44533, 32.90389], [-83.44477, 32.90397], [-83.44417, 32.90402], [-83.44371, 32.90403], [-83.44323, 32.90399], [-83.44283, 32.90394], [-83.44243, 32.90386], [-83.43881, 32.90309], [-83.4382, 32.90302], [-83.43755, 32.90299], [-83.43697, 32.90299], [-83.43634, 32.90305], [-83.43493, 32.90334], [-83.43419, 32.90347], [-83.43341, 32.90358], [-83.4327, 32.90357], [-83.43199, 32.90353], [-83.42928, 32.90321], [-83.42764, 32.90303], [-83.42647, 32.9029], [-83.42576, 32.90284], [-83.42526, 32.90284], [-83.42488, 32.90286], [-83.42378, 32.90294], [-83.4232, 32.90299], [-83.42278, 32.90299], [-83.42239, 32.90297], [-83.4218, 32.90289], [-83.42133, 32.90279], [-83.42083, 32.90265], [-83.42048, 32.90253], [-83.42013, 32.90239], [-83.41915, 32.90193], [-83.41862, 32.90174], [-83.41805, 32.90156], [-83.41666, 32.90134], [-83.41526, 32.90116], [-83.41452, 32.90102], [-83.41358, 32.90079], [-83.41303, 32.9006], [-83.41214, 32.9002], [-83.41107, 32.89963], [-83.41015, 32.89898], [-83.40915, 32.89836], [-83.40854, 32.89802], [-83.40785, 32.89774], [-83.40723, 32.89749], [-83.40663, 32.8973], [-83.40626, 32.89719], [-83.40535, 32.89698], [-83.40376, 32.89661], [-83.40115, 32.89602], [-83.40017, 32.8958], [-83.40004, 32.89577], [-83.39895, 32.89558], [-83.39801, 32.89548], [-83.39749, 32.89545], [-83.39669, 32.89545], [-83.39612, 32.89547], [-83.39545, 32.89551], [-83.39481, 32.89558], [-83.39435, 32.89566], [-83.39387, 32.89575], [-83.39277, 32.896], [-83.39235, 32.8961], [-83.39169, 32.89625], [-83.39094, 32.89639], [-83.39024, 32.89644], [-83.38949, 32.89646], [-83.38885, 32.89645], [-83.38822, 32.89639], [-83.38773, 32.89632], [-83.38708, 32.89621], [-83.38667, 32.89611], [-83.38603, 32.89593], [-83.38524, 32.89564], [-83.37898, 32.89281], [-83.37874, 32.8927], [-83.37223, 32.88976], [-83.37198, 32.88965], [-83.37139, 32.88938], [-83.36846, 32.88807], [-83.36732, 32.88755], [-83.36508, 32.88661], [-83.3638, 32.88614], [-83.3629, 32.88581], [-83.36216, 32.88556], [-83.36134, 32.8853], [-83.36018, 32.88495], [-83.35939, 32.88473], [-83.35845, 32.88448], [-83.35745, 32.88422], [-83.35638, 32.88398], [-83.35535, 32.88375], [-83.35457, 32.8836], [-83.35389, 32.88347], [-83.35315, 32.88335], [-83.35216, 32.88319], [-83.35143, 32.88308], [-83.35063, 32.88298], [-83.34994, 32.88291], [-83.34913, 32.88282], [-83.34836, 32.88276], [-83.34757, 32.8827], [-83.34683, 32.88267], [-83.34672, 32.88266], [-83.34363, 32.88254], [-83.34307, 32.88252], [-83.34228, 32.88249], [-83.34152, 32.88246], [-83.34079, 32.88243], [-83.33963, 32.88238], [-83.33805, 32.88228], [-83.33744, 32.88226], [-83.33589, 32.88221], [-83.33396, 32.88212], [-83.3331, 32.88209], [-83.33282, 32.88208], [-83.3324, 32.88206], [-83.33179, 32.88204], [-83.33155, 32.88203], [-83.32968, 32.88195], [-83.32722, 32.88186], [-83.32609, 32.88181], [-83.32383, 32.88172], [-83.32357, 32.88171], [-83.32329, 32.8817], [-83.32222, 32.88166], [-83.31829, 32.88151], [-83.31741, 32.88147], [-83.31691, 32.88145], [-83.31189, 32.88126], [-83.30837, 32.88112], [-83.30725, 32.88107], [-83.30687, 32.88106], [-83.30504, 32.88095], [-83.3044, 32.88088], [-83.30348, 32.88072], [-83.3026, 32.88052], [-83.30127, 32.88015], [-83.3004, 32.87986], [-83.29942, 32.87945], [-83.29854, 32.87902], [-83.2975, 32.87842], [-83.29669, 32.87789], [-83.29608, 32.87744], [-83.29544, 32.87692], [-83.29443, 32.876], [-83.29346, 32.8751], [-83.29305, 32.87471], [-83.28975, 32.87166], [-83.28906, 32.87107], [-83.28807, 32.87027], [-83.2872, 32.86963], [-83.28604, 32.86884], [-83.28414, 32.8677], [-83.28354, 32.86737], [-83.28322, 32.86719], [-83.28225, 32.86669], [-83.27751, 32.86449], [-83.27616, 32.8639], [-83.27542, 32.86357], [-83.27116, 32.86162], [-83.26858, 32.86043], [-83.26786, 32.86012], [-83.26307, 32.85793], [-83.26296, 32.85788], [-83.25896, 32.85605], [-83.25784, 32.85556], [-83.25646, 32.85497], [-83.25571, 32.85471], [-83.25486, 32.85446], [-83.25366, 32.85423], [-83.2529, 32.85412], [-83.25205, 32.85406], [-83.25143, 32.85403], [-83.25124, 32.85403], [-83.25114, 32.85403], [-83.25104, 32.85403], [-83.24477, 32.85432], [-83.24419, 32.85435], [-83.23966, 32.85455], [-83.23797, 32.85462], [-83.23649, 32.8547], [-83.23627, 32.85471], [-83.2359, 32.85472], [-83.23553, 32.85472], [-83.23518, 32.85471], [-83.23483, 32.8547], [-83.23443, 32.85467], [-83.23406, 32.85464], [-83.23367, 32.85459], [-83.23329, 32.85453], [-83.23294, 32.85447], [-83.2326, 32.8544], [-83.23213, 32.8543], [-83.23169, 32.85418], [-83.23115, 32.85403], [-83.23065, 32.85385], [-83.22472, 32.85137], [-83.22373, 32.85094], [-83.22299, 32.85063], [-83.22285, 32.85057], [-83.21694, 32.84809], [-83.21532, 32.84741], [-83.21338, 32.84659], [-83.2126, 32.84629], [-83.21217, 32.84617], [-83.21175, 32.84606], [-83.21132, 32.84597], [-83.21073, 32.84587], [-83.21019, 32.84581], [-83.20918, 32.84574], [-83.20363, 32.84594], [-83.1993, 32.84607], [-83.19797, 32.84614], [-83.19393, 32.84627], [-83.19285, 32.84633], [-83.19111, 32.84639], [-83.19057, 32.84644], [-83.18896, 32.84659], [-83.1882, 32.84669], [-83.18665, 32.84692], [-83.18648, 32.84695], [-83.17522, 32.84861], [-83.1735, 32.84875], [-83.17149, 32.84878], [-83.16975, 32.84879], [-83.1689, 32.8488], [-83.16672, 32.84883], [-83.16373, 32.84886], [-83.16191, 32.84875], [-83.1607, 32.84863], [-83.15947, 32.84847], [-83.15907, 32.8484], [-83.15755, 32.8481], [-83.15241, 32.84685], [-83.15182, 32.84671], [-83.14432, 32.84487], [-83.14327, 32.8446], [-83.14191, 32.8442], [-83.14026, 32.84357], [-83.13859, 32.84279], [-83.13728, 32.84211], [-83.13627, 32.84158], [-83.13483, 32.84085], [-83.13364, 32.84032], [-83.1322, 32.83974], [-83.13102, 32.83935], [-83.12835, 32.83866], [-83.12821, 32.83863], [-83.12371, 32.83752], [-83.12341, 32.83745], [-83.12117, 32.83692], [-83.11478, 32.83534], [-83.1145, 32.83527], [-83.10404, 32.83271], [-83.08804, 32.8288], [-83.08644, 32.82841], [-83.08001, 32.82684], [-83.07805, 32.82635], [-83.07776, 32.82629], [-83.07204, 32.82489], [-83.07098, 32.82462], [-83.07021, 32.82443], [-83.06686, 32.82361], [-83.0664, 32.8235], [-83.06262, 32.82257], [-83.05866, 32.8216], [-83.05761, 32.82136], [-83.05673, 32.82119], [-83.05585, 32.82107], [-83.0551, 32.82102], [-83.054, 32.821], [-83.05326, 32.82106], [-83.05239, 32.82116], [-83.03965, 32.82295], [-83.03695, 32.82355], [-83.03318, 32.82438], [-83.03254, 32.82445], [-83.03193, 32.82451], [-83.03162, 32.82455], [-83.03129, 32.82458], [-83.031, 32.82458], [-83.03071, 32.82457], [-83.03013, 32.82448], [-83.0296, 32.82437], [-83.0286, 32.82405], [-83.02798, 32.82384], [-83.02747, 32.82368], [-83.02706, 32.82363], [-83.02593, 32.82351], [-83.02501, 32.82351], [-83.02422, 32.8235], [-83.02348, 32.82346], [-83.0228, 32.8234], [-83.02199, 32.82326], [-83.02035, 32.82279], [-83.01953, 32.82255], [-83.01826, 32.82215], [-83.01762, 32.82198], [-83.01691, 32.82184], [-83.01499, 32.82154], [-83.0132, 32.82128], [-83.01262, 32.8212], [-83.01203, 32.8211], [-83.01147, 32.82102], [-83.01083, 32.82096], [-83.0102, 32.82093], [-83.00957, 32.82093], [-83.00891, 32.82095], [-83.00825, 32.82102], [-83.00764, 32.8211], [-83.00717, 32.82119], [-83.00641, 32.82135], [-83.00575, 32.82154], [-83.00504, 32.82182], [-83.00383, 32.82237], [-83.00325, 32.8227], [-83.00269, 32.82307], [-83.00127, 32.82413], [-82.99704, 32.82748], [-82.99595, 32.82833], [-82.99284, 32.83077], [-82.99178, 32.8316], [-82.99095, 32.83224], [-82.98263, 32.83883], [-82.97815, 32.84236], [-82.97469, 32.8451], [-82.97441, 32.84533], [-82.97286, 32.84655], [-82.97149, 32.84764], [-82.97121, 32.84786], [-82.96954, 32.84915], [-82.96882, 32.84972], [-82.96767, 32.85064], [-82.9667, 32.85141], [-82.96566, 32.85222], [-82.96499, 32.85274], [-82.96431, 32.85328], [-82.96378, 32.85366], [-82.96257, 32.85445], [-82.96167, 32.85494], [-82.96051, 32.8555], [-82.95919, 32.85601], [-82.95786, 32.85641], [-82.95715, 32.85659], [-82.95641, 32.85675], [-82.95581, 32.85686], [-82.9552, 32.85695], [-82.95428, 32.85705], [-82.95348, 32.85712], [-82.95294, 32.85716], [-82.95209, 32.85723], [-82.9511, 32.8573], [-82.9505, 32.85735], [-82.94901, 32.85746], [-82.94812, 32.85754], [-82.94713, 32.85762], [-82.94669, 32.85765], [-82.94573, 32.85766], [-82.94491, 32.85764], [-82.94415, 32.85756], [-82.94309, 32.85738], [-82.93678, 32.856], [-82.93608, 32.85588], [-82.93533, 32.85583], [-82.93462, 32.85583], [-82.93381, 32.85592], [-82.93304, 32.85605], [-82.93206, 32.85631], [-82.93134, 32.85659], [-82.93053, 32.85699], [-82.92993, 32.85737], [-82.9292, 32.85794], [-82.92814, 32.85883], [-82.92759, 32.85922], [-82.92693, 32.85961], [-82.92654, 32.85983], [-82.92616, 32.86001], [-82.92538, 32.86033], [-82.92464, 32.86057], [-82.92404, 32.86073], [-82.92346, 32.86085], [-82.92273, 32.86096], [-82.92219, 32.86099], [-82.92188, 32.861], [-82.92172, 32.86101], [-82.9214, 32.86101], [-82.921, 32.861], [-82.91962, 32.86088], [-82.91802, 32.86071], [-82.91209, 32.86008], [-82.9084, 32.85963], [-82.90814, 32.8596], [-82.90694, 32.85946], [-82.90612, 32.85938], [-82.90604, 32.85938], [-82.90525, 32.85937], [-82.90452, 32.85942], [-82.90376, 32.85951], [-82.90304, 32.85966], [-82.90226, 32.85987], [-82.90144, 32.86015], [-82.9007, 32.86045], [-82.89987, 32.86092], [-82.89913, 32.86138], [-82.89514, 32.86429], [-82.89445, 32.86493], [-82.89388, 32.86552], [-82.89377, 32.86567], [-82.89333, 32.86619], [-82.89293, 32.86679], [-82.89246, 32.86752], [-82.89036, 32.871], [-82.89025, 32.87119], [-82.89015, 32.87139], [-82.88908, 32.87319], [-82.88813, 32.87481], [-82.88574, 32.87885], [-82.88317, 32.88316], [-82.88312, 32.88325], [-82.88273, 32.88383], [-82.88232, 32.88431], [-82.88177, 32.8848], [-82.88128, 32.88515], [-82.8807, 32.88548], [-82.87502, 32.88799], [-82.87442, 32.88834], [-82.87386, 32.8888], [-82.87332, 32.88929], [-82.87306, 32.88961], [-82.87222, 32.89086], [-82.87188, 32.89131], [-82.87152, 32.89171], [-82.87099, 32.89218], [-82.87048, 32.89252], [-82.86978, 32.89291], [-82.86919, 32.89315], [-82.86861, 32.8934], [-82.86357, 32.89559], [-82.86201, 32.89623], [-82.86125, 32.89651], [-82.86068, 32.89666], [-82.85997, 32.89676], [-82.85922, 32.8968], [-82.85851, 32.89675], [-82.85777, 32.89662], [-82.857, 32.89641], [-82.8566, 32.89628], [-82.85625, 32.89614], [-82.85543, 32.89585], [-82.85469, 32.89564], [-82.8539, 32.89547], [-82.85333, 32.8954], [-82.85263, 32.89535], [-82.85214, 32.89536], [-82.8519, 32.89536], [-82.85137, 32.89539], [-82.85081, 32.89547], [-82.85005, 32.89563], [-82.84943, 32.89581], [-82.84893, 32.89598], [-82.84838, 32.89622], [-82.84805, 32.89636], [-82.84783, 32.89649], [-82.84723, 32.89684], [-82.84652, 32.89739], [-82.84583, 32.89795], [-82.84526, 32.89862], [-82.84481, 32.8994], [-82.84456, 32.90007], [-82.84443, 32.90086], [-82.84441, 32.90154], [-82.84446, 32.90206], [-82.84458, 32.90265], [-82.84459, 32.90268], [-82.84494, 32.90355], [-82.84516, 32.90423], [-82.84525, 32.90491], [-82.84522, 32.90561], [-82.84514, 32.90626], [-82.8449, 32.90695], [-82.84458, 32.9076], [-82.84416, 32.90836], [-82.84347, 32.90951], [-82.84284, 32.91077], [-82.84223, 32.91214], [-82.84184, 32.91336], [-82.84156, 32.91435], [-82.84127, 32.91581], [-82.84115, 32.91657], [-82.84108, 32.91748], [-82.84097, 32.91887], [-82.84085, 32.9195], [-82.84072, 32.91992], [-82.84066, 32.92009], [-82.84033, 32.92072], [-82.84001, 32.92122], [-82.83966, 32.92166], [-82.83951, 32.92182], [-82.83912, 32.92217], [-82.83868, 32.9225], [-82.83827, 32.92278], [-82.83784, 32.92303], [-82.83723, 32.92333], [-82.83148, 32.92617], [-82.82787, 32.92796], [-82.82702, 32.92838], [-82.81985, 32.93196], [-82.81458, 32.93458], [-82.81423, 32.93476], [-82.81408, 32.93483], [-82.81337, 32.9352], [-82.813, 32.93538], [-82.81199, 32.93587], [-82.81119, 32.93626], [-82.81024, 32.93673], [-82.80956, 32.93708], [-82.80932, 32.9372], [-82.80555, 32.93906], [-82.80308, 32.9403], [-82.80121, 32.94124], [-82.79979, 32.94193], [-82.79879, 32.94242], [-82.79805, 32.94279], [-82.79555, 32.944], [-82.79449, 32.94451], [-82.79347, 32.94494], [-82.79278, 32.94518], [-82.79239, 32.94529], [-82.79149, 32.94554], [-82.79042, 32.94577], [-82.7895, 32.94592], [-82.78949, 32.94592], [-82.78838, 32.94604], [-82.78754, 32.94609], [-82.78662, 32.9461], [-82.78186, 32.94608], [-82.77406, 32.94603], [-82.76996, 32.94602], [-82.76966, 32.94602], [-82.76948, 32.94602], [-82.76456, 32.94599], [-82.76426, 32.94599], [-82.764, 32.94599], [-82.75678, 32.94596], [-82.75655, 32.94596], [-82.75617, 32.94596], [-82.75602, 32.94596], [-82.75597, 32.94596], [-82.75, 32.94592], [-82.74715, 32.94593], [-82.74341, 32.94593], [-82.74304, 32.94594], [-82.74258, 32.94595], [-82.74203, 32.94602], [-82.7416, 32.94614], [-82.74117, 32.94631], [-82.74068, 32.94649], [-82.73992, 32.94685], [-82.7392, 32.94725], [-82.73845, 32.94777], [-82.73824, 32.94793], [-82.73803, 32.94814], [-82.73724, 32.94907], [-82.73714, 32.94918], [-82.73652, 32.94982], [-82.73613, 32.95014], [-82.73565, 32.95048], [-82.73504, 32.95081], [-82.73438, 32.95112], [-82.73388, 32.9513], [-82.73336, 32.95143], [-82.73305, 32.95149], [-82.73272, 32.95154], [-82.73239, 32.95157], [-82.7321, 32.95158], [-82.73177, 32.9516], [-82.73147, 32.95159], [-82.73098, 32.95157], [-82.73029, 32.95154], [-82.72941, 32.9515], [-82.72376, 32.95127], [-82.71677, 32.95093], [-82.7157, 32.95092], [-82.71495, 32.95092], [-82.71445, 32.95095], [-82.71395, 32.95097], [-82.71274, 32.95104], [-82.71116, 32.95123], [-82.71046, 32.95133], [-82.70948, 32.95151], [-82.70743, 32.95196], [-82.70469, 32.95289], [-82.70424, 32.95309], [-82.69864, 32.95555], [-82.69304, 32.95802], [-82.69157, 32.95866], [-82.68555, 32.96131], [-82.68379, 32.96209], [-82.67891, 32.96425], [-82.66812, 32.96902], [-82.66779, 32.96916], [-82.66769, 32.96921], [-82.65291, 32.97574], [-82.65153, 32.97634], [-82.65028, 32.9769], [-82.64701, 32.97834], [-82.63758, 32.98249], [-82.63567, 32.98331], [-82.63302, 32.98448], [-82.63143, 32.98518], [-82.63094, 32.9854], [-82.62938, 32.9861], [-82.62738, 32.98694], [-82.627, 32.98705], [-82.62663, 32.98715], [-82.62618, 32.98723], [-82.62575, 32.9873], [-82.62477, 32.98736], [-82.62365, 32.98725], [-82.62298, 32.98709], [-82.62251, 32.98693], [-82.62194, 32.98672], [-82.62143, 32.98649], [-82.62041, 32.98584], [-82.6189, 32.98481], [-82.61835, 32.98445], [-82.61248, 32.9805], [-82.61112, 32.97956], [-82.61066, 32.97927], [-82.60867, 32.97794], [-82.60862, 32.97791], [-82.6069, 32.97672], [-82.6068, 32.97666], [-82.60364, 32.97453], [-82.59468, 32.96855], [-82.59082, 32.96599], [-82.58877, 32.96456], [-82.58555, 32.96237], [-82.58285, 32.96064], [-82.58266, 32.96051], [-82.58089, 32.95948], [-82.57859, 32.95822], [-82.57795, 32.95791], [-82.57566, 32.95683], [-82.57555, 32.95679], [-82.57364, 32.95597], [-82.57232, 32.95544], [-82.57093, 32.95494], [-82.56869, 32.95419], [-82.56739, 32.95378], [-82.56645, 32.95352], [-82.56551, 32.95327], [-82.56454, 32.95303], [-82.56352, 32.95279], [-82.56231, 32.95252], [-82.56177, 32.9524], [-82.56024, 32.95208], [-82.55793, 32.95161], [-82.5559, 32.95117], [-82.55537, 32.95106], [-82.55473, 32.95092], [-82.54886, 32.94969], [-82.5401, 32.94785], [-82.53981, 32.94779], [-82.5322, 32.94618], [-82.5307, 32.94585], [-82.52898, 32.94543], [-82.52773, 32.94504], [-82.52753, 32.94498], [-82.52604, 32.94444], [-82.52489, 32.94396], [-82.52371, 32.94344], [-82.52254, 32.94287], [-82.52076, 32.94188], [-82.51926, 32.94092], [-82.51802, 32.94001], [-82.51736, 32.93949], [-82.51653, 32.93876], [-82.51639, 32.93863], [-82.51537, 32.93769], [-82.51445, 32.93676], [-82.51331, 32.93546], [-82.51237, 32.93422], [-82.51101, 32.93216], [-82.51056, 32.93136], [-82.50844, 32.92744], [-82.50838, 32.92733], [-82.50467, 32.92052], [-82.5046, 32.92039], [-82.50369, 32.91872], [-82.50363, 32.91861], [-82.5012, 32.91415], [-82.50053, 32.91292], [-82.4948, 32.90244], [-82.49426, 32.90156], [-82.49387, 32.90097], [-82.49346, 32.90039], [-82.49303, 32.89983], [-82.49257, 32.89928], [-82.4921, 32.89873], [-82.49161, 32.8982], [-82.49109, 32.89768], [-82.49056, 32.89717], [-82.48949, 32.89618], [-82.4894, 32.89608], [-82.48257, 32.88978], [-82.4797, 32.88713], [-82.47893, 32.88642], [-82.47848, 32.88596], [-82.47816, 32.88561], [-82.47775, 32.88514], [-82.47749, 32.88481], [-82.47718, 32.88439], [-82.4769, 32.88395], [-82.47658, 32.88344], [-82.4762, 32.88273], [-82.47564, 32.88139], [-82.4755, 32.88108], [-82.47504, 32.88012], [-82.4747, 32.87951], [-82.47436, 32.87899], [-82.47411, 32.87863], [-82.47391, 32.87834], [-82.47343, 32.87776], [-82.47312, 32.87738], [-82.47276, 32.87699], [-82.47201, 32.87628], [-82.47117, 32.87558], [-82.46939, 32.87424], [-82.46873, 32.87379], [-82.46805, 32.87335], [-82.46745, 32.87299], [-82.46677, 32.87262], [-82.46634, 32.87239], [-82.46593, 32.8722], [-82.46542, 32.87196], [-82.46473, 32.87166], [-82.46379, 32.8713], [-82.46274, 32.87094], [-82.46143, 32.87052], [-82.45894, 32.86974], [-82.45408, 32.86822], [-82.45144, 32.8674], [-82.44316, 32.8648], [-82.44037, 32.86393], [-82.44008, 32.86384], [-82.43844, 32.86333], [-82.43781, 32.86315], [-82.43717, 32.86297], [-82.43652, 32.86281], [-82.43587, 32.86266], [-82.43522, 32.86252], [-82.43457, 32.8624], [-82.43391, 32.86228], [-82.43325, 32.86218], [-82.43258, 32.86209], [-82.43191, 32.86201], [-82.43124, 32.86194], [-82.43101, 32.86192], [-82.43056, 32.86188], [-82.42988, 32.86183], [-82.42921, 32.8618], [-82.42854, 32.86178], [-82.42787, 32.86177], [-82.42672, 32.86177], [-82.42638, 32.86177], [-82.42605, 32.86178], [-82.41406, 32.86194], [-82.4127, 32.86196], [-82.4093, 32.86201], [-82.40479, 32.86207], [-82.40465, 32.86207], [-82.39732, 32.86218], [-82.39669, 32.86218], [-82.3965, 32.86219], [-82.39191, 32.86225], [-82.39078, 32.86226], [-82.38711, 32.86231], [-82.37974, 32.86242], [-82.37928, 32.86242], [-82.37463, 32.86249], [-82.36892, 32.86256], [-82.3687, 32.86257], [-82.35747, 32.86273], [-82.3481, 32.86286], [-82.34756, 32.86286], [-82.34498, 32.86288], [-82.34353, 32.86289], [-82.34331, 32.86289], [-82.34267, 32.86286], [-82.34203, 32.86281], [-82.34143, 32.86274], [-82.34093, 32.86268], [-82.34038, 32.86259], [-82.33975, 32.86248], [-82.33905, 32.86231], [-82.33855, 32.86218], [-82.33763, 32.86192], [-82.33671, 32.8616], [-82.33567, 32.86119], [-82.33438, 32.86064], [-82.33367, 32.86031], [-82.32727, 32.85764], [-82.32446, 32.85642], [-82.31963, 32.85431], [-82.3173, 32.8533], [-82.30944, 32.84996], [-82.29773, 32.8449], [-82.29371, 32.84319], [-82.28227, 32.83827], [-82.2781, 32.83648], [-82.26979, 32.83291], [-82.26962, 32.83284], [-82.26309, 32.83004], [-82.26117, 32.82921], [-82.26045, 32.82887], [-82.26017, 32.82874], [-82.25989, 32.8286], [-82.25965, 32.82846], [-82.25918, 32.82817], [-82.25105, 32.8231], [-82.24891, 32.82177], [-82.24741, 32.82084], [-82.24626, 32.82012], [-82.2455, 32.8197], [-82.2449, 32.8194], [-82.24472, 32.81931], [-82.24438, 32.81916], [-82.24355, 32.81884], [-82.24312, 32.81868], [-82.24238, 32.81844], [-82.24181, 32.81828], [-82.24103, 32.81809], [-82.24049, 32.81798], [-82.24011, 32.81791], [-82.23972, 32.81785], [-82.23932, 32.8178], [-82.23882, 32.81774], [-82.23823, 32.81769], [-82.23795, 32.81767], [-82.23665, 32.81763], [-82.23652, 32.81763], [-82.23497, 32.81758], [-82.23349, 32.81753], [-82.22303, 32.81718], [-82.21583, 32.81694], [-82.20898, 32.81671], [-82.20834, 32.81668], [-82.20755, 32.81662], [-82.20681, 32.81656], [-82.20617, 32.81649], [-82.20558, 32.81641], [-82.20179, 32.8158], [-82.20156, 32.81576], [-82.2006, 32.81561], [-82.20028, 32.81556], [-82.19986, 32.81549], [-82.19957, 32.81547], [-82.19912, 32.81546], [-82.19868, 32.81545], [-82.19821, 32.81547], [-82.19781, 32.81549], [-82.19725, 32.81558], [-82.19667, 32.81571], [-82.19624, 32.81583], [-82.19495, 32.81629], [-82.19333, 32.81713], [-82.19301, 32.81729], [-82.19245, 32.81757], [-82.19141, 32.81805], [-82.19105, 32.81821], [-82.19065, 32.81837], [-82.1901, 32.81856], [-82.18973, 32.81866], [-82.18922, 32.81879], [-82.18862, 32.8189], [-82.18801, 32.81898], [-82.18742, 32.81903], [-82.1869, 32.81903], [-82.18622, 32.81902], [-82.18557, 32.81895], [-82.18248, 32.81857], [-82.18007, 32.81827], [-82.17926, 32.81818], [-82.17844, 32.81813], [-82.17762, 32.81812], [-82.1768, 32.81814], [-82.16558, 32.81873], [-82.1496, 32.81957], [-82.14899, 32.8196], [-82.14815, 32.81964], [-82.13164, 32.8205], [-82.13082, 32.82054], [-82.12925, 32.82063], [-82.12065, 32.82107], [-82.11359, 32.82144], [-82.10968, 32.82164], [-82.10802, 32.82171], [-82.10636, 32.82175], [-82.1047, 32.82176], [-82.10304, 32.82176], [-82.10138, 32.82173], [-82.09972, 32.82167], [-82.09807, 32.8216], [-82.09641, 32.82149], [-82.0916, 32.82113], [-82.09129, 32.8211], [-82.09034, 32.82103], [-82.0901, 32.82101], [-82.07957, 32.82018], [-82.07462, 32.81979], [-82.07439, 32.81977], [-82.06229, 32.81882], [-82.0455, 32.81749], [-82.0447, 32.81741], [-82.04318, 32.81723], [-82.04179, 32.81699], [-82.04109, 32.81685], [-82.04039, 32.8167], [-82.03901, 32.81638], [-82.03669, 32.8157], [-82.03648, 32.81564], [-82.0297, 32.81366], [-82.02956, 32.81362], [-82.02872, 32.81338], [-82.0143, 32.80917], [-82.01395, 32.80907], [-82.01257, 32.80867], [-82.00965, 32.80782], [-82.00234, 32.80569], [-81.99597, 32.80384], [-81.98567, 32.80084], [-81.97966, 32.79909], [-81.97648, 32.79816], [-81.97581, 32.79799], [-81.97512, 32.79785], [-81.97443, 32.79773], [-81.97373, 32.79765], [-81.97304, 32.79759], [-81.97234, 32.79756], [-81.97164, 32.79756], [-81.97094, 32.79759], [-81.97051, 32.79762], [-81.96882, 32.79783], [-81.96309, 32.79866], [-81.9618, 32.79884], [-81.96121, 32.79892], [-81.95899, 32.79925], [-81.95775, 32.79943], [-81.95745, 32.79947], [-81.95169, 32.80031], [-81.95009, 32.80053], [-81.94895, 32.80069], [-81.94674, 32.801], [-81.94349, 32.80147], [-81.94151, 32.80175], [-81.9413, 32.80179], [-81.93793, 32.80226], [-81.93715, 32.80235], [-81.93653, 32.80239], [-81.93621, 32.80241], [-81.9359, 32.80242], [-81.93559, 32.80243], [-81.93528, 32.80243], [-81.93466, 32.80241], [-81.93391, 32.80237], [-81.93354, 32.80233], [-81.93316, 32.80229], [-81.93279, 32.80225], [-81.93242, 32.80219], [-81.93206, 32.80213], [-81.93169, 32.80206], [-81.93133, 32.80199], [-81.93084, 32.80187], [-81.93045, 32.80177], [-81.92994, 32.80162], [-81.92945, 32.80147], [-81.92921, 32.80138], [-81.92897, 32.8013], [-81.92847, 32.80111], [-81.92803, 32.80092], [-81.92771, 32.80079], [-81.92733, 32.80061], [-81.92407, 32.79896], [-81.91944, 32.7966], [-81.91838, 32.79606], [-81.91766, 32.79562], [-81.91666, 32.79492], [-81.9158, 32.79419], [-81.91502, 32.7934], [-81.91466, 32.79303], [-81.91431, 32.79259], [-81.914, 32.79216], [-81.91354, 32.79145], [-81.91276, 32.79005], [-81.91, 32.78503], [-81.90963, 32.78441], [-81.90936, 32.78399], [-81.90901, 32.78346], [-81.90897, 32.78341], [-81.90889, 32.78329], [-81.90847, 32.7827], [-81.908, 32.7821], [-81.90758, 32.7816], [-81.90724, 32.78121], [-81.90687, 32.78082], [-81.90669, 32.78063], [-81.9065, 32.78044], [-81.90613, 32.78006], [-81.9058, 32.77975], [-81.90547, 32.77945], [-81.90513, 32.77915], [-81.90478, 32.77885], [-81.90337, 32.7777], [-81.90047, 32.77533], [-81.90005, 32.77496], [-81.89965, 32.77457], [-81.89927, 32.77417], [-81.89891, 32.77375], [-81.89857, 32.77331], [-81.89825, 32.77285], [-81.89796, 32.77239], [-81.89769, 32.77192], [-81.89758, 32.77171], [-81.89621, 32.76922], [-81.8903, 32.75842], [-81.88997, 32.75783], [-81.88899, 32.75604], [-81.88711, 32.75263], [-81.88499, 32.74873], [-81.88459, 32.74806], [-81.88434, 32.74764], [-81.88404, 32.74719], [-81.88388, 32.74695], [-81.88349, 32.74643], [-81.88293, 32.74581], [-81.88265, 32.74554], [-81.88223, 32.74511], [-81.88151, 32.74454], [-81.88007, 32.74353], [-81.87892, 32.74279], [-81.8778, 32.74194], [-81.87702, 32.74119], [-81.87642, 32.74052], [-81.87579, 32.73962], [-81.87539, 32.7389], [-81.87501, 32.73804], [-81.87481, 32.73739], [-81.87464, 32.73687], [-81.87456, 32.73637], [-81.87451, 32.73578], [-81.87438, 32.73434], [-81.87402, 32.73088], [-81.87397, 32.73058], [-81.87387, 32.73007], [-81.87373, 32.72952], [-81.87319, 32.72754], [-81.8731, 32.72713], [-81.87307, 32.72701], [-81.87304, 32.72687], [-81.87303, 32.72675], [-81.87299, 32.72657], [-81.87297, 32.72645], [-81.87295, 32.72622], [-81.87295, 32.7258], [-81.87299, 32.72539], [-81.87306, 32.72502], [-81.87315, 32.72473], [-81.8733, 32.72432], [-81.87354, 32.72378], [-81.8741, 32.72287], [-81.87438, 32.72243], [-81.87472, 32.72192], [-81.87497, 32.72145], [-81.87521, 32.72088], [-81.8753, 32.72058], [-81.87541, 32.7201], [-81.87544, 32.71971], [-81.87546, 32.71938], [-81.8754, 32.71829], [-81.87528, 32.71699], [-81.87505, 32.71294], [-81.87462, 32.70728], [-81.87455, 32.70678], [-81.87442, 32.70619], [-81.87415, 32.70528], [-81.87388, 32.70466], [-81.87365, 32.70419], [-81.87343, 32.70383], [-81.8733, 32.70363], [-81.873, 32.70319], [-81.87269, 32.70276], [-81.87248, 32.70252], [-81.87202, 32.70198], [-81.8715, 32.70142], [-81.87084, 32.70083], [-81.87003, 32.70009], [-81.86174, 32.69258], [-81.86113, 32.69203], [-81.85113, 32.68296], [-81.84919, 32.6812], [-81.84087, 32.67364], [-81.84045, 32.67325], [-81.84037, 32.67318], [-81.83981, 32.67267], [-81.83929, 32.6722], [-81.83734, 32.67044], [-81.83694, 32.67008], [-81.83674, 32.66991], [-81.83646, 32.66965], [-81.83463, 32.66798], [-81.83273, 32.66626], [-81.83249, 32.66604], [-81.83186, 32.66548], [-81.83095, 32.6647], [-81.83038, 32.66425], [-81.82971, 32.66374], [-81.82925, 32.66342], [-81.82847, 32.66288], [-81.82755, 32.6623], [-81.82728, 32.66212], [-81.82555, 32.66115], [-81.82495, 32.66082], [-81.82363, 32.66011], [-81.82253, 32.65951], [-81.81888, 32.65751], [-81.81316, 32.65438], [-81.8129, 32.65424], [-81.81275, 32.65415], [-81.8116, 32.65352], [-81.81142, 32.65342], [-81.81093, 32.65316], [-81.79853, 32.64639], [-81.7972, 32.64565], [-81.79682, 32.64544], [-81.79616, 32.64506], [-81.79571, 32.64481], [-81.79546, 32.64467], [-81.79478, 32.64421], [-81.79468, 32.64414], [-81.79346, 32.64316], [-81.7926, 32.64231], [-81.79189, 32.64148], [-81.79132, 32.64069], [-81.79079, 32.63989], [-81.79042, 32.63922], [-81.78959, 32.63738], [-81.78931, 32.63675], [-81.78906, 32.63626], [-81.78878, 32.63582], [-81.78846, 32.6354], [-81.7881, 32.63501], [-81.78757, 32.63455], [-81.78697, 32.63415], [-81.78628, 32.63377], [-81.78581, 32.63359], [-81.78475, 32.63325], [-81.78454, 32.6332], [-81.78327, 32.63276], [-81.78274, 32.63254], [-81.78235, 32.63237], [-81.78188, 32.63214], [-81.78134, 32.63182], [-81.78082, 32.63151], [-81.77706, 32.62878], [-81.77244, 32.62541], [-81.77128, 32.62458], [-81.76971, 32.6233], [-81.76818, 32.62203], [-81.76572, 32.61971], [-81.76556, 32.61956], [-81.76056, 32.61494], [-81.74889, 32.60405], [-81.7446, 32.60011], [-81.74191, 32.5976], [-81.74162, 32.59734], [-81.73842, 32.5944], [-81.73714, 32.5932], [-81.73604, 32.59216], [-81.73547, 32.59162], [-81.73446, 32.59069], [-81.73228, 32.58864], [-81.73115, 32.5876], [-81.7299, 32.5866], [-81.72824, 32.58533], [-81.72665, 32.5842], [-81.72569, 32.5836], [-81.72492, 32.58311], [-81.72341, 32.58221], [-81.72321, 32.58209], [-81.72311, 32.58204], [-81.72204, 32.58142], [-81.72195, 32.58136], [-81.72065, 32.58063], [-81.71927, 32.57985], [-81.71785, 32.57901], [-81.71735, 32.57871], [-81.71551, 32.57766], [-81.71528, 32.57754], [-81.71473, 32.57721], [-81.71309, 32.57627], [-81.71203, 32.57567], [-81.71129, 32.57524], [-81.71096, 32.57505], [-81.70347, 32.57074], [-81.70267, 32.57028], [-81.69718, 32.56708], [-81.69679, 32.56685], [-81.69082, 32.56345], [-81.68864, 32.56237], [-81.68687, 32.56157], [-81.68478, 32.5607], [-81.68374, 32.56031], [-81.68355, 32.56025], [-81.68139, 32.55952], [-81.67961, 32.55898], [-81.67846, 32.55869], [-81.67471, 32.55774], [-81.67453, 32.5577], [-81.67405, 32.55758], [-81.66548, 32.55545], [-81.65839, 32.55368], [-81.64909, 32.55134], [-81.64472, 32.55024], [-81.63252, 32.54716], [-81.62175, 32.54449], [-81.61631, 32.54317], [-81.60655, 32.5407], [-81.60539, 32.54041], [-81.6053, 32.54039], [-81.59942, 32.53891], [-81.59816, 32.53859], [-81.58326, 32.53485], [-81.58009, 32.53409], [-81.57884, 32.53386], [-81.57858, 32.53381], [-81.57639, 32.53342], [-81.57467, 32.53321], [-81.56672, 32.53274], [-81.56658, 32.53274], [-81.56267, 32.53255], [-81.56178, 32.53251], [-81.56049, 32.53245], [-81.55949, 32.5324], [-81.55873, 32.53231], [-81.55819, 32.53223], [-81.55769, 32.53215], [-81.55711, 32.53203], [-81.55667, 32.53192], [-81.55613, 32.53179], [-81.55561, 32.53163], [-81.55478, 32.53135], [-81.55399, 32.53105], [-81.54985, 32.52916], [-81.54956, 32.52902], [-81.54943, 32.52896], [-81.54806, 32.52832], [-81.53989, 32.52456], [-81.53894, 32.52411], [-81.53504, 32.5223], [-81.53296, 32.52132], [-81.53095, 32.5204], [-81.52957, 32.51978], [-81.52103, 32.51576], [-81.52002, 32.5153], [-81.5189, 32.5148], [-81.51691, 32.51387], [-81.5157, 32.51329], [-81.51355, 32.51234], [-81.51288, 32.51202], [-81.50911, 32.51028], [-81.50815, 32.50991], [-81.50756, 32.50969], [-81.50686, 32.50952], [-81.50575, 32.50923], [-81.50501, 32.50908], [-81.50435, 32.50898], [-81.50312, 32.50885], [-81.50238, 32.50877], [-81.50194, 32.50874], [-81.50095, 32.50873], [-81.49952, 32.50877], [-81.49787, 32.50888], [-81.4946, 32.50909], [-81.48735, 32.50955], [-81.47136, 32.51054], [-81.4603, 32.51123], [-81.45344, 32.51166], [-81.45145, 32.51178], [-81.44965, 32.51189], [-81.44843, 32.51194], [-81.44745, 32.51192], [-81.44679, 32.51188], [-81.44624, 32.51182], [-81.44552, 32.51175], [-81.44477, 32.51164], [-81.44398, 32.51151], [-81.44319, 32.51132], [-81.44247, 32.51111], [-81.44147, 32.5108], [-81.44071, 32.51052], [-81.44016, 32.51032], [-81.43948, 32.51002], [-81.43863, 32.50962], [-81.43796, 32.50927], [-81.43759, 32.50904], [-81.43722, 32.5088], [-81.43664, 32.50841], [-81.43615, 32.50805], [-81.43571, 32.50773], [-81.43517, 32.5073], [-81.4342, 32.50638], [-81.43345, 32.50558], [-81.43301, 32.50506], [-81.43292, 32.50496], [-81.42739, 32.49839], [-81.41994, 32.48953], [-81.41989, 32.48947], [-81.41978, 32.48934], [-81.41636, 32.48525], [-81.41614, 32.48498], [-81.41501, 32.48366], [-81.41485, 32.48348], [-81.41481, 32.48343], [-81.40996, 32.47763], [-81.40921, 32.47674], [-81.40013, 32.46594], [-81.39778, 32.46313], [-81.39182, 32.45607], [-81.39136, 32.45551], [-81.39012, 32.45402], [-81.38069, 32.44277], [-81.38041, 32.44245], [-81.37695, 32.4383], [-81.37027, 32.43034], [-81.36647, 32.42579], [-81.36402, 32.42306], [-81.36356, 32.42259], [-81.36009, 32.41895], [-81.35522, 32.41383], [-81.34925, 32.40758], [-81.34883, 32.40714], [-81.34225, 32.40023], [-81.33841, 32.3962], [-81.33481, 32.39243], [-81.33473, 32.39234], [-81.33294, 32.39047], [-81.32876, 32.38607], [-81.32742, 32.38467], [-81.32151, 32.37847], [-81.32131, 32.37826], [-81.31741, 32.37419], [-81.31407, 32.37061], [-81.3136923, 32.3702005], [-81.310516, 32.366822], [-81.309959, 32.366135], [-81.30895, 32.364617], [-81.1904095, 32.1401703], [-81.1900868, 32.1396638], [-81.1763141, 32.11359], [-81.1753407, 32.1119163], [-81.1735075, 32.1077701], [-81.1718592, 32.1055447], [-81.1708038, 32.1042235], [-81.1698915, 32.1032724], [-81.1690089, 32.1024867], [-81.16796, 32.1016], [-81.16685, 32.10067], [-81.16567, 32.09969], [-81.1645, 32.09871], [-81.16324, 32.09766], [-81.16216, 32.09675], [-81.16184, 32.09648], [-81.16169, 32.09635], [-81.16157, 32.09622], [-81.16145, 32.09607], [-81.16127, 32.09582], [-81.1606, 32.09487], [-81.16053, 32.09476], [-81.16035, 32.09442], [-81.16019, 32.09413], [-81.16008, 32.09399], [-81.15996, 32.09384], [-81.15976, 32.09365], [-81.15939, 32.09334], [-81.15872, 32.09278], [-81.1576, 32.09185], [-81.1574, 32.09169], [-81.15722, 32.09157], [-81.15703, 32.09146], [-81.1568, 32.09134], [-81.15662, 32.09125], [-81.1564, 32.09117], [-81.15609, 32.09105], [-81.15598, 32.09102], [-81.15547, 32.09085], [-81.15533, 32.09081], [-81.15521, 32.09078], [-81.15449, 32.09059], [-81.15412, 32.09049], [-81.15406, 32.09048], [-81.15353, 32.09033], [-81.15149, 32.08981], [-81.14098, 32.08706], [-81.13989, 32.08678], [-81.13903, 32.08656], [-81.13768, 32.0862], [-81.13689, 32.08604], [-81.13646, 32.08593], [-81.13562, 32.08571], [-81.13394, 32.08527], [-81.13147, 32.08462], [-81.1302, 32.08429], [-81.12948, 32.0841], [-81.12907, 32.08399], [-81.12755, 32.0836], [-81.12592, 32.08317], [-81.12516, 32.08297], [-81.12103, 32.08189], [-81.11873, 32.0813], [-81.11667, 32.08075], [-81.11511, 32.08035], [-81.11493, 32.08031], [-81.11456, 32.08024], [-81.11391, 32.08007], [-81.11321, 32.07989], [-81.11297, 32.07981], [-81.11271, 32.07973], [-81.11249, 32.07969], [-81.11235, 32.07968], [-81.11216, 32.07967], [-81.11207, 32.07967], [-81.11198, 32.07967], [-81.11169, 32.07969], [-81.11147, 32.07972], [-81.1114, 32.07973], [-81.11108, 32.07976], [-81.11088, 32.07981], [-81.1107, 32.07986], [-81.11031, 32.08001], [-81.11002, 32.08015], [-81.10972, 32.0803]]}}]}