{"type": "FeatureCollection", "metadata": {"note": "Yes - Chambersburg, Pennsylvania had passenger rail, and a lot of it. Steam trains from November 1837 to 1961 (124 years) and four electric interurban routes radiating from the square between 1905 and 1932. The trunk was the Cumberland Valley Railroad, Harrisburg-Carlisle-Shippensburg-Chambersburg (opened 1837) and on south through Greencastle to Hagerstown (1841/1860), controlled by the Pennsylvania Railroad from 1859 and bought outright on 2 June 1919. Local passenger service ended in 1952; the last passenger train through Chambersburg was the overnight New York-Harrisburg-Hagerstown-Roanoke run the PRR worked with the Norfolk and Western, removed in 1961. The Chambersburg-Waynesboro branch (Mont Alto Rail Road, 1872) lost its passengers on 28 June 1933. RULE 5 NOTE: the Chambersburg-Hagerstown line is deliberately NOT drawn between 1841 and 1860. The Franklin Railroad that built it sold its locomotives around 1841 and was worked by horses through the 1840s and 1850s, so those years are animal haulage and out of scope; the line reappears when it was rebuilt for locomotives in 1860. RULE 1 NOTE: nothing here is drawn past the end of its passenger service. The Waynesboro Branch carried freight to 1972-76 and the Chambersburg main line still does today as Norfolk Southern's Lurgan District, but those years are not drawn. The Western Maryland's Lurgan Branch, which crosses Franklin County a few miles west of Chambersburg through Marion, is not included: it did not serve Chambersburg and its passenger history was not researched here.", "sources": ["https://en.wikipedia.org/wiki/Cumberland_Valley_Railroad", "https://jbritton.pennsyrr.com/index.php?option=com_content&view=article&id=800&catid=19 (PRR Philadelphia Division - Cumberland Valley Branch track segment history)", "https://explorepahistory.com/hmarker.php?markerId=1-A-1B5 (PHMC Cumberland Valley Railroad historical marker, Chambersburg)", "https://en.wikipedia.org/wiki/Mont_Alto_Railroad", "https://jbritton.pennsyrr.com/index.php/tpm/hobo-s-guide-to-the-pennsy/latest-track-segment-articles/802-track-segment-philadelphia-division-waynesboro-branch (PRR Waynesboro Branch track segment history)", "https://en.wikipedia.org/wiki/Chambersburg,_Greencastle_and_Waynesboro_Street_Railway", "https://en.wikipedia.org/wiki/Chambersburg_and_Gettysburg_Electric_Railway", "https://en.wikipedia.org/wiki/Chambersburg_and_Shippensburg_Railway", "https://en.wikipedia.org/wiki/Chambersburg,_Pennsylvania", "https://railfanguides.us/md/hagerstown/index.htm (Hagerstown railfan guide - source of the conflicting 10 June 1962 date for the end of the N&W Hagerstown-Roanoke sleeper trains)"], "geometry_sources": ["OpenStreetMap via Overpass (maps.mail.ru mirror), railway=rail/abandoned/disused/razed ways in bbox 39.55,-78.10,40.35,-76.80, routed with a corridor-constrained Dijkstra and Douglas-Peucker simplified at 10 m", "OpenStreetMap highway ways in bbox 39.68,-77.82,40.10,-77.40, used to approximate the three interurban routes along the roads they ran beside (US 11, US 30, PA 16) - see each feature's geometry_quality"], "not_yet_sourced": ["Every headway_min in this file is an estimate. No Cumberland Valley or PRR public timetable was consulted; the numbers say roughly how frequent the service felt, not what was scheduled.", "The exact end date of the last New York-Roanoke train: 1961 (PHMC marker, pennsyrr.com) vs 10 June 1962 for the N&W's own Hagerstown-Roanoke trains (railfanguides.us).", "When horse power actually began on the Franklin Railroad: 1841 (pennsyrr.com) vs 1844 (secondary account).", "Whether the Chambersburg and Shippensburg Railway quit in 1926 or 1928 - the Wikipedia article contradicts itself.", "Whether Chambersburg had a purely local street railway distinct from the three interurbans; the interurban cars used the town streets, but no separate city system was researched.", "Whether the Western Maryland's Lurgan Branch through Marion carried passengers, and if so between which points and in which years."], "pulled": "2026-08-26"}, "features": [{"type": "Feature", "properties": {"company": "Cumberland Valley Railroad", "line": "Cumberland Valley: Harrisburg \u2013 Chambersburg", "id": "cvrr-harrisburg-chambersburg", "color": "#1B7A5A", "mode": "intercity_rail", "avg_speed_kmh": 50, "speed_source": "estimated: 1830s-1910s main-line steam on a level valley route; the PHMC marker claims trains regularly exceeded 90 mph on parts of this line in the early 1900s, but no timetable was checked, so this average is unsourced.", "segments": [{"start": 1837, "end": 1859, "headway_min": 480, "note": "The Cumberland Valley Railroad opened from White Hill (opposite Harrisburg) to Carlisle in August 1837 and through to Chambersburg in November 1837, giving Chambersburg its first passenger trains. It ran one of the industry's first sleeping cars from 1838, and until the PRR main line was finished in 1854 the fastest Pittsburgh-Philadelphia trip was by stage to Chambersburg and train from there. Frequency estimated, unsourced.", "sources": ["Segment-level: the note above names what was checked for this segment's dates; the headway is an estimate and is not sourced.", "https://en.wikipedia.org/wiki/Cumberland_Valley_Railroad", "https://jbritton.pennsyrr.com/index.php?option=com_content&view=article&id=800&catid=19 (PRR Philadelphia Division - Cumberland Valley Branch track segment history)", "https://explorepahistory.com/hmarker.php?markerId=1-A-1B5 (PHMC Cumberland Valley Railroad historical marker, Chambersburg)"]}, {"start": 1859, "end": 1919, "headway_min": 150, "note": "The Pennsylvania Railroad gained control of the CVRR in 1859, but the Cumberland Valley kept its own name, management and trains for another sixty years, so the line is drawn in CVRR colours through this era. Confederate raiders burned CVRR structures at Chambersburg and the bridge at Scotland in 1862-63. Frequency estimated, unsourced.", "sources": ["Segment-level: the note above names what was checked for this segment's dates; the headway is an estimate and is not sourced.", "https://en.wikipedia.org/wiki/Cumberland_Valley_Railroad", "https://jbritton.pennsyrr.com/index.php?option=com_content&view=article&id=800&catid=19 (PRR Philadelphia Division - Cumberland Valley Branch track segment history)", "https://explorepahistory.com/hmarker.php?markerId=1-A-1B5 (PHMC Cumberland Valley Railroad historical marker, Chambersburg)"]}]}, "geometry": {"type": "LineString", "coordinates": [[-76.878706, 40.258217], [-76.879879, 40.256992], [-76.888876, 40.248894], [-76.888976, 40.248299], [-76.888584, 40.247759], [-76.887502, 40.247461], [-76.886072, 40.247374], [-76.885025, 40.246986], [-76.88498, 40.246806], [-76.887739, 40.243422], [-76.888631, 40.242603], [-76.890048, 40.241903], [-76.906553, 40.23696], [-76.908728, 40.235943], [-76.912063, 40.233804], [-76.922905, 40.231748], [-76.923992, 40.231625], [-76.924902, 40.23179], [-76.923926, 40.231587], [-76.932467, 40.22973], [-76.936118, 40.229524], [-76.942733, 40.228119], [-76.945858, 40.22692], [-76.998178, 40.215959], [-77.003916, 40.215394], [-77.01607, 40.211951], [-77.017736, 40.211746], [-77.019512, 40.211755], [-77.021221, 40.211996], [-77.022636, 40.212397], [-77.024351, 40.213105], [-77.037102, 40.219894], [-77.038976, 40.220506], [-77.088188, 40.227608], [-77.090968, 40.227824], [-77.094598, 40.227896], [-77.100731, 40.227432], [-77.106547, 40.226337], [-77.146843, 40.215882], [-77.15224, 40.213903], [-77.169792, 40.206019], [-77.170935, 40.205695], [-77.173222, 40.205537], [-77.187086, 40.206632], [-77.190087, 40.20657], [-77.191768, 40.206322], [-77.202222, 40.203469], [-77.204653, 40.203023], [-77.209564, 40.202961], [-77.269878, 40.198879], [-77.27425, 40.198381], [-77.310815, 40.188473], [-77.321964, 40.185021], [-77.323693, 40.18424], [-77.338303, 40.175495], [-77.3398, 40.174799], [-77.341628, 40.174196], [-77.357561, 40.170681], [-77.36359, 40.169523], [-77.36638, 40.169195], [-77.372193, 40.168861], [-77.372531, 40.168656], [-77.373275, 40.168707], [-77.393683, 40.167276], [-77.398675, 40.166705], [-77.412287, 40.163947], [-77.414438, 40.163402], [-77.417757, 40.162274], [-77.419145, 40.161658], [-77.422898, 40.159558], [-77.424863, 40.158107], [-77.426602, 40.156568], [-77.45925, 40.122726], [-77.461918, 40.120296], [-77.466851, 40.116559], [-77.474537, 40.11121], [-77.478757, 40.107816], [-77.480582, 40.105995], [-77.487019, 40.098451], [-77.487537, 40.097651], [-77.508915, 40.077698], [-77.511383, 40.074716], [-77.511767, 40.073727], [-77.512057, 40.073736], [-77.513234, 40.07219], [-77.515787, 40.068211], [-77.520964, 40.057038], [-77.521915, 40.05411], [-77.521939, 40.053362], [-77.520208, 40.047638], [-77.518837, 40.047847], [-77.515477, 40.047892], [-77.513225, 40.048314], [-77.513139, 40.04812], [-77.514824, 40.047096], [-77.517013, 40.044865], [-77.518299, 40.042947], [-77.519957, 40.039374], [-77.521204, 40.037467], [-77.54384, 40.009456], [-77.558684, 39.994248], [-77.56365, 39.989437], [-77.56879, 39.985518], [-77.571865, 39.983554], [-77.615021, 39.959004], [-77.620378, 39.956416], [-77.641975, 39.947354], [-77.64563, 39.945507], [-77.648328, 39.943735], [-77.650718, 39.941733], [-77.653052, 39.939198], [-77.655117, 39.936094], [-77.663402, 39.937932]]}}, {"type": "Feature", "properties": {"company": "Pennsylvania Railroad", "line": "Pennsylvania Railroad: Cumberland Valley (Harrisburg \u2013 Chambersburg)", "id": "prr-cv-branch-harrisburg-chambersburg", "color": "#7B241C", "mode": "intercity_rail", "avg_speed_kmh": 50, "speed_source": "estimated: 1920s-1950s branch-line steam and later diesel; unsourced.", "geometry_quality": "Real-traced from OpenStreetMap over the surviving Cumberland Valley alignment: NS Shippensburg Secondary (Harrisburg-Carlisle, in service), the Cumberland Valley Rail Trail on the abandoned main (Newville-Shippensburg) and the NS Lurgan District into Chambersburg. 84.8 km / 52.7 mi traced against a documented 52 mi Harrisburg-Chambersburg. 6.2 km of that (7%) is straight-line where the right of way is erased and untagged: 3.30 km near 40.193,-77.293 and 1.48 km near 40.200,-77.251 (both between Carlisle and Newville, where the ROW has been ploughed back into farmland), 0.65 km through Shippensburg and 0.74 km at the Chambersburg end. Drawn on the modern alignment throughout, which is the historical one; no realignment of the era is known to be misrepresented.", "segments": [{"start": 1919, "end": 1952, "headway_min": 180, "note": "The Pennsylvania Railroad bought the Cumberland Valley Railroad outright on 2 June 1919 and the route became the PRR's Cumberland Valley Branch; the trains from here on were PRR trains, hence the PRR colour. Regular (commuter/local) passenger service over the branch ended in 1952. Frequency estimated, unsourced.", "sources": ["Segment-level: the note above names what was checked for this segment's dates; the headway is an estimate and is not sourced.", "https://en.wikipedia.org/wiki/Cumberland_Valley_Railroad", "https://jbritton.pennsyrr.com/index.php?option=com_content&view=article&id=800&catid=19 (PRR Philadelphia Division - Cumberland Valley Branch track segment history)", "https://explorepahistory.com/hmarker.php?markerId=1-A-1B5 (PHMC Cumberland Valley Railroad historical marker, Chambersburg)"]}, {"start": 1952, "end": 1961, "headway_min": 1440, "note": "After local service ended in 1952 the only passenger train left through Chambersburg was the overnight New York-Harrisburg-Hagerstown-Roanoke run the PRR worked with the Norfolk and Western; it was removed in 1961, ending 124 years of passenger trains in the Cumberland Valley. One train each way per night - the 1440-minute headway is that, not an estimate of a clock-face service. SOURCE CONFLICT: the PHMC marker and pennsyrr.com both say 1961, but a Hagerstown railfan source dates the end of the N&W Hagerstown-Roanoke sleeper trains to 10 June 1962; 1961 is drawn here as the better-attested date for the PRR portion.", "sources": ["Segment-level: the note above names what was checked for this segment's dates; the headway is an estimate and is not sourced.", "https://en.wikipedia.org/wiki/Cumberland_Valley_Railroad", "https://jbritton.pennsyrr.com/index.php?option=com_content&view=article&id=800&catid=19 (PRR Philadelphia Division - Cumberland Valley Branch track segment history)", "https://explorepahistory.com/hmarker.php?markerId=1-A-1B5 (PHMC Cumberland Valley Railroad historical marker, Chambersburg)"]}]}, "geometry": {"type": "LineString", "coordinates": [[-76.878706, 40.258217], [-76.879879, 40.256992], [-76.888876, 40.248894], [-76.888976, 40.248299], [-76.888584, 40.247759], [-76.887502, 40.247461], [-76.886072, 40.247374], [-76.885025, 40.246986], [-76.88498, 40.246806], [-76.887739, 40.243422], [-76.888631, 40.242603], [-76.890048, 40.241903], [-76.906553, 40.23696], [-76.908728, 40.235943], [-76.912063, 40.233804], [-76.922905, 40.231748], [-76.923992, 40.231625], [-76.924902, 40.23179], [-76.923926, 40.231587], [-76.932467, 40.22973], [-76.936118, 40.229524], [-76.942733, 40.228119], [-76.945858, 40.22692], [-76.998178, 40.215959], [-77.003916, 40.215394], [-77.01607, 40.211951], [-77.017736, 40.211746], [-77.019512, 40.211755], [-77.021221, 40.211996], [-77.022636, 40.212397], [-77.024351, 40.213105], [-77.037102, 40.219894], [-77.038976, 40.220506], [-77.088188, 40.227608], [-77.090968, 40.227824], [-77.094598, 40.227896], [-77.100731, 40.227432], [-77.106547, 40.226337], [-77.146843, 40.215882], [-77.15224, 40.213903], [-77.169792, 40.206019], [-77.170935, 40.205695], [-77.173222, 40.205537], [-77.187086, 40.206632], [-77.190087, 40.20657], [-77.191768, 40.206322], [-77.202222, 40.203469], [-77.204653, 40.203023], [-77.209564, 40.202961], [-77.269878, 40.198879], [-77.27425, 40.198381], [-77.310815, 40.188473], [-77.321964, 40.185021], [-77.323693, 40.18424], [-77.338303, 40.175495], [-77.3398, 40.174799], [-77.341628, 40.174196], [-77.357561, 40.170681], [-77.36359, 40.169523], [-77.36638, 40.169195], [-77.372193, 40.168861], [-77.372531, 40.168656], [-77.373275, 40.168707], [-77.393683, 40.167276], [-77.398675, 40.166705], [-77.412287, 40.163947], [-77.414438, 40.163402], [-77.417757, 40.162274], [-77.419145, 40.161658], [-77.422898, 40.159558], [-77.424863, 40.158107], [-77.426602, 40.156568], [-77.45925, 40.122726], [-77.461918, 40.120296], [-77.466851, 40.116559], [-77.474537, 40.11121], [-77.478757, 40.107816], [-77.480582, 40.105995], [-77.487019, 40.098451], [-77.487537, 40.097651], [-77.508915, 40.077698], [-77.511383, 40.074716], [-77.511767, 40.073727], [-77.512057, 40.073736], [-77.513234, 40.07219], [-77.515787, 40.068211], [-77.520964, 40.057038], [-77.521915, 40.05411], [-77.521939, 40.053362], [-77.520208, 40.047638], [-77.518837, 40.047847], [-77.515477, 40.047892], [-77.513225, 40.048314], [-77.513139, 40.04812], [-77.514824, 40.047096], [-77.517013, 40.044865], [-77.518299, 40.042947], [-77.519957, 40.039374], [-77.521204, 40.037467], [-77.54384, 40.009456], [-77.558684, 39.994248], [-77.56365, 39.989437], [-77.56879, 39.985518], [-77.571865, 39.983554], [-77.615021, 39.959004], [-77.620378, 39.956416], [-77.641975, 39.947354], [-77.64563, 39.945507], [-77.648328, 39.943735], [-77.650718, 39.941733], [-77.653052, 39.939198], [-77.655117, 39.936094], [-77.663402, 39.937932]]}}, {"type": "Feature", "properties": {"company": "Franklin Railroad", "line": "Franklin Railroad: Chambersburg \u2013 Greencastle", "id": "franklin-rr-chambersburg-greencastle", "color": "#8E6E53", "mode": "intercity_rail", "avg_speed_kmh": 25, "speed_source": "estimated: 1830s strap-rail road with light locomotives; unsourced.", "geometry_quality": "Real-traced from OpenStreetMap over the in-service NS line Chambersburg-Marion-Greencastle, 17.6 km / 11.0 mi, no straight-line legs. NOTE: this draws the 1837-41 strap-rail Franklin Railroad on the alignment as rebuilt in 1860 and since realigned - the corridor is right, the exact 1837 alignment is not traced.", "segments": [{"start": 1837, "end": 1841, "headway_min": 720, "note": "The Franklin Railroad opened south from Chambersburg to Greencastle in 1837 - oak stringers topped with iron bar, worked by the company's own steam locomotives. Those locomotives were sold about 1841 when the Cumberland Valley took over working the road, and the Franklin was then run by HORSE POWER through the 1840s and 1850s; under this map's rule 5 the horse years are not drawn, which is why this feature stops in 1841 and the Chambersburg-Hagerstown line does not reappear until the 1860 rebuild. Frequency estimated, unsourced. SOURCE CONFLICT on when the horses came: pennsyrr.com puts the horse era at 1841-1860, another account has locomotives replaced by horse teams in 1844; the earlier, shorter drawn span is used here.", "sources": ["Segment-level: the note above names what was checked for this segment's dates; the headway is an estimate and is not sourced.", "https://en.wikipedia.org/wiki/Cumberland_Valley_Railroad", "https://jbritton.pennsyrr.com/index.php?option=com_content&view=article&id=800&catid=19 (PRR Philadelphia Division - Cumberland Valley Branch track segment history)", "https://explorepahistory.com/hmarker.php?markerId=1-A-1B5 (PHMC Cumberland Valley Railroad historical marker, Chambersburg)"]}]}, "geometry": {"type": "LineString", "coordinates": [[-77.663402, 39.937932], [-77.663701, 39.937236], [-77.663823, 39.935647], [-77.665836, 39.925962], [-77.665597, 39.924813], [-77.66505, 39.92387], [-77.662744, 39.921125], [-77.662605, 39.921152], [-77.680978, 39.883935], [-77.687466, 39.872519], [-77.691214, 39.865262], [-77.707215, 39.833276], [-77.720984, 39.804892], [-77.723187, 39.801187], [-77.728102, 39.794262], [-77.730164, 39.790381]]}}, {"type": "Feature", "properties": {"company": "Cumberland Valley Railroad", "line": "Cumberland Valley: Chambersburg \u2013 Hagerstown", "id": "cvrr-chambersburg-hagerstown", "color": "#1B7A5A", "mode": "intercity_rail", "avg_speed_kmh": 45, "speed_source": "estimated: 19th-century main-line steam over level valley floor; unsourced.", "geometry_quality": "Real-traced from OpenStreetMap end to end over the in-service NS Lurgan District/Subdivision (Chambersburg-Marion-Greencastle-State Line-Hagerstown) with no straight-line legs anywhere. 35.3 km / 22.0 mi traced against the documented 22 mi Franklin Railroad distance Chambersburg-Hagerstown. This is the modern alignment; the 1837-41 Franklin Railroad was a strap-rail road on much the same route, rebuilt in 1860, so the earliest years are drawn on a later rebuild of their own corridor. Straight-line repair 2026-08-29: 1 ruled segment totalling 12 mi replaced with OpenStreetMap-traced rail geometry (see geometry_repairs for the OSM lines each one followed).", "segments": [{"start": 1860, "end": 1919, "headway_min": 180, "note": "The Franklin Railroad's track was rebuilt with heavy rail in 1860 and the Cumberland Valley Railroad worked it with locomotives again, ending the horse-power era; the Franklin was merged into the CVRR in 1865. Chambersburg-Greencastle-Hagerstown, 22 miles. From 1889 CVRR trains ran on beyond Hagerstown into the Shenandoah Valley to Winchester, Virginia. Frequency estimated, unsourced.", "sources": ["Segment-level: the note above names what was checked for this segment's dates; the headway is an estimate and is not sourced.", "https://en.wikipedia.org/wiki/Cumberland_Valley_Railroad", "https://jbritton.pennsyrr.com/index.php?option=com_content&view=article&id=800&catid=19 (PRR Philadelphia Division - Cumberland Valley Branch track segment history)", "https://explorepahistory.com/hmarker.php?markerId=1-A-1B5 (PHMC Cumberland Valley Railroad historical marker, Chambersburg)"]}], "geometry_repairs": [{"date": "2026-08-29", "from": [-77.662744, 39.921125], "to": [-77.741995, 39.762977], "chord_mi": 11.71, "traced_mi": 13.39, "snap_m": [0, 0], "bridged_mi": 0.0, "osm_lines": ["Lurgan District (9.93 mi)", "(rail) (1.22 mi)", "Chambersburg Industrial Track (1.12 mi)", "Lurgan Subdivision (1.08 mi)", "CSX Transportation (0.04 mi)"], "method": "Overpass rail graph, 8.0 km corridor, Dijkstra, simplified to 3.0 m"}]}, "geometry": {"type": "LineString", "coordinates": [[-77.663402, 39.937932], [-77.663701, 39.937236], [-77.663823, 39.935647], [-77.665836, 39.925962], [-77.665597, 39.924813], [-77.66505, 39.92387], [-77.6627443, 39.9211248], [-77.6579357, 39.915294], [-77.6568416, 39.9140671], [-77.6554572, 39.9122889], [-77.652322, 39.9084914], [-77.6532293, 39.9095299], [-77.6536545, 39.9099445], [-77.6541815, 39.9102712], [-77.6545711, 39.9103957], [-77.6550315, 39.9104587], [-77.655406, 39.9104577], [-77.6561145, 39.9102763], [-77.6586501, 39.9090342], [-77.659398, 39.908762], [-77.6608553, 39.9087084], [-77.6657145, 39.9086622], [-77.6664257, 39.9087614], [-77.6669776, 39.9090116], [-77.6673103, 39.9092487], [-77.6676779, 39.9097917], [-77.6677637, 39.9101353], [-77.6676238, 39.910785], [-77.6666238, 39.9128058], [-77.666383, 39.9133973], [-77.6736993, 39.8986743], [-77.6777489, 39.8903627], [-77.6809781, 39.8839348], [-77.6874657, 39.8725188], [-77.6892913, 39.8690591], [-77.6912136, 39.8652622], [-77.6954952, 39.8565793], [-77.7072154, 39.8332759], [-77.7125982, 39.8222636], [-77.7209838, 39.804892], [-77.722048, 39.8029247], [-77.7231873, 39.8011871], [-77.7275196, 39.7951725], [-77.7286175, 39.7933922], [-77.7291985, 39.7923294], [-77.7328525, 39.7847504], [-77.7351434, 39.7798782], [-77.7357872, 39.7783045], [-77.7378466, 39.7740443], [-77.7391406, 39.7712159], [-77.7403195, 39.7680551], [-77.7419947, 39.7629772], [-77.742305, 39.761703], [-77.742272, 39.760913], [-77.741064, 39.759175], [-77.740942, 39.758153], [-77.744253, 39.748123], [-77.744941, 39.747242], [-77.74709, 39.746178], [-77.747794, 39.745136], [-77.751341, 39.734573], [-77.753125, 39.727053], [-77.756852, 39.707629], [-77.756902, 39.704742], [-77.756443, 39.702553], [-77.755007, 39.69941], [-77.752793, 39.696534], [-77.750295, 39.69451], [-77.744791, 39.690961], [-77.742876, 39.689236], [-77.741361, 39.6874], [-77.740288, 39.685597], [-77.739479, 39.683621], [-77.738224, 39.676439], [-77.736942, 39.673108], [-77.73525, 39.670555], [-77.722395, 39.652842], [-77.721958, 39.65111], [-77.722628, 39.649206], [-77.726823, 39.643962]]}}, {"type": "Feature", "properties": {"company": "Pennsylvania Railroad", "line": "Pennsylvania Railroad: Cumberland Valley (Chambersburg \u2013 Hagerstown)", "id": "prr-cv-branch-chambersburg-hagerstown", "color": "#7B241C", "mode": "intercity_rail", "avg_speed_kmh": 50, "speed_source": "estimated: 1920s-1950s steam and diesel; unsourced.", "geometry_quality": "Real-traced from OpenStreetMap end to end over the in-service NS Lurgan District/Subdivision (Chambersburg-Marion-Greencastle-State Line-Hagerstown) with no straight-line legs anywhere. 35.3 km / 22.0 mi traced against the documented 22 mi Franklin Railroad distance Chambersburg-Hagerstown. This is the modern alignment; the 1837-41 Franklin Railroad was a strap-rail road on much the same route, rebuilt in 1860, so the earliest years are drawn on a later rebuild of their own corridor. Straight-line repair 2026-08-29: 1 ruled segment totalling 12 mi replaced with OpenStreetMap-traced rail geometry (see geometry_repairs for the OSM lines each one followed).", "segments": [{"start": 1919, "end": 1952, "headway_min": 180, "note": "PRR bought the Cumberland Valley outright on 2 June 1919; south of Chambersburg the branch carried PRR locals to Greencastle and Hagerstown plus the through New York-Roanoke cars handed to the Norfolk and Western at Hagerstown. Regular service ended in 1952. Frequency estimated, unsourced.", "sources": ["Segment-level: the note above names what was checked for this segment's dates; the headway is an estimate and is not sourced.", "https://en.wikipedia.org/wiki/Cumberland_Valley_Railroad", "https://jbritton.pennsyrr.com/index.php?option=com_content&view=article&id=800&catid=19 (PRR Philadelphia Division - Cumberland Valley Branch track segment history)", "https://explorepahistory.com/hmarker.php?markerId=1-A-1B5 (PHMC Cumberland Valley Railroad historical marker, Chambersburg)"]}, {"start": 1952, "end": 1961, "headway_min": 1440, "note": "Only the overnight New York-Roanoke train remained after 1952; the PRR removed it in 1961. One train each way per night. See the note on the Harrisburg-Chambersburg feature for the 1961/1962 source conflict.", "sources": ["Segment-level: the note above names what was checked for this segment's dates; the headway is an estimate and is not sourced.", "https://en.wikipedia.org/wiki/Cumberland_Valley_Railroad", "https://jbritton.pennsyrr.com/index.php?option=com_content&view=article&id=800&catid=19 (PRR Philadelphia Division - Cumberland Valley Branch track segment history)", "https://explorepahistory.com/hmarker.php?markerId=1-A-1B5 (PHMC Cumberland Valley Railroad historical marker, Chambersburg)"]}], "geometry_repairs": [{"date": "2026-08-29", "from": [-77.662744, 39.921125], "to": [-77.741995, 39.762977], "chord_mi": 11.71, "traced_mi": 13.39, "snap_m": [0, 0], "bridged_mi": 0.0, "osm_lines": ["Lurgan District (9.93 mi)", "(rail) (1.22 mi)", "Chambersburg Industrial Track (1.12 mi)", "Lurgan Subdivision (1.08 mi)", "CSX Transportation (0.04 mi)"], "method": "Overpass rail graph, 8.0 km corridor, Dijkstra, simplified to 3.0 m"}]}, "geometry": {"type": "LineString", "coordinates": [[-77.663402, 39.937932], [-77.663701, 39.937236], [-77.663823, 39.935647], [-77.665836, 39.925962], [-77.665597, 39.924813], [-77.66505, 39.92387], [-77.6627443, 39.9211248], [-77.6579357, 39.915294], [-77.6568416, 39.9140671], [-77.6554572, 39.9122889], [-77.652322, 39.9084914], [-77.6532293, 39.9095299], [-77.6536545, 39.9099445], [-77.6541815, 39.9102712], [-77.6545711, 39.9103957], [-77.6550315, 39.9104587], [-77.655406, 39.9104577], [-77.6561145, 39.9102763], [-77.6586501, 39.9090342], [-77.659398, 39.908762], [-77.6608553, 39.9087084], [-77.6657145, 39.9086622], [-77.6664257, 39.9087614], [-77.6669776, 39.9090116], [-77.6673103, 39.9092487], [-77.6676779, 39.9097917], [-77.6677637, 39.9101353], [-77.6676238, 39.910785], [-77.6666238, 39.9128058], [-77.666383, 39.9133973], [-77.6736993, 39.8986743], [-77.6777489, 39.8903627], [-77.6809781, 39.8839348], [-77.6874657, 39.8725188], [-77.6892913, 39.8690591], [-77.6912136, 39.8652622], [-77.6954952, 39.8565793], [-77.7072154, 39.8332759], [-77.7125982, 39.8222636], [-77.7209838, 39.804892], [-77.722048, 39.8029247], [-77.7231873, 39.8011871], [-77.7275196, 39.7951725], [-77.7286175, 39.7933922], [-77.7291985, 39.7923294], [-77.7328525, 39.7847504], [-77.7351434, 39.7798782], [-77.7357872, 39.7783045], [-77.7378466, 39.7740443], [-77.7391406, 39.7712159], [-77.7403195, 39.7680551], [-77.7419947, 39.7629772], [-77.742305, 39.761703], [-77.742272, 39.760913], [-77.741064, 39.759175], [-77.740942, 39.758153], [-77.744253, 39.748123], [-77.744941, 39.747242], [-77.74709, 39.746178], [-77.747794, 39.745136], [-77.751341, 39.734573], [-77.753125, 39.727053], [-77.756852, 39.707629], [-77.756902, 39.704742], [-77.756443, 39.702553], [-77.755007, 39.69941], [-77.752793, 39.696534], [-77.750295, 39.69451], [-77.744791, 39.690961], [-77.742876, 39.689236], [-77.741361, 39.6874], [-77.740288, 39.685597], [-77.739479, 39.683621], [-77.738224, 39.676439], [-77.736942, 39.673108], [-77.73525, 39.670555], [-77.722395, 39.652842], [-77.721958, 39.65111], [-77.722628, 39.649206], [-77.726823, 39.643962]]}}, {"type": "Feature", "properties": {"company": "Mont Alto Rail Road", "line": "Mont Alto Rail Road: Chambersburg \u2013 Mont Alto", "id": "mont-alto-rr-chambersburg-mont-alto", "color": "#A9601F", "mode": "intercity_rail", "avg_speed_kmh": 30, "speed_source": "estimated: narrow valley branch serving iron works and a picnic park; unsourced.", "geometry_quality": "Partly approximated. 18.6 km real-traced from OpenStreetMap over the abandoned ex-PRR Waynesboro Branch ROW (Chambersburg-Fayetteville-Pond Bank), including 2.65 km of straight-line bridging where the ROW is untagged; the final 3.5 km Pond Bank-Mont Alto is a STRAIGHT LINE because OpenStreetMap carries no trace of it. Total 22.1 km / 13.8 mi.", "segments": [{"start": 1872, "end": 1879, "headway_min": 360, "note": "The Mont Alto Rail Road opened from Chambersburg east through Fayetteville and south to Mont Alto in October 1872, built to reach the Mont Alto iron works. From 1875 it also carried picnickers to Mont Alto Park, which the iron company opened on its own ground - excursion traffic that lasted until 1913. Frequency estimated, unsourced.", "sources": ["Segment-level: the note above names what was checked for this segment's dates; the headway is an estimate and is not sourced.", "https://en.wikipedia.org/wiki/Mont_Alto_Railroad", "https://jbritton.pennsyrr.com/index.php/tpm/hobo-s-guide-to-the-pennsy/latest-track-segment-articles/802-track-segment-philadelphia-division-waynesboro-branch (PRR Waynesboro Branch track segment history)"]}]}, "geometry": {"type": "LineString", "coordinates": [[-77.663402, 39.937932], [-77.654729, 39.936766], [-77.653052, 39.939198], [-77.650262, 39.942159], [-77.646768, 39.944802], [-77.642815, 39.946979], [-77.618823, 39.957113], [-77.615021, 39.959004], [-77.606881, 39.96362], [-77.606306, 39.963544], [-77.605178, 39.963704], [-77.604131, 39.963562], [-77.599828, 39.962463], [-77.590931, 39.951743], [-77.59068, 39.950702], [-77.589563, 39.949077], [-77.589512, 39.946349], [-77.589129, 39.944957], [-77.585144, 39.936336], [-77.584476, 39.935166], [-77.583269, 39.933602], [-77.578982, 39.928919], [-77.57706, 39.925539], [-77.576747, 39.924562], [-77.575344, 39.915121], [-77.574661, 39.913795], [-77.573351, 39.912428], [-77.571483, 39.911184], [-77.56977, 39.9087], [-77.567702, 39.906297], [-77.565863, 39.90439], [-77.56413, 39.903076], [-77.562772, 39.902338], [-77.560996, 39.901649], [-77.556317, 39.900624], [-77.553559, 39.899806], [-77.552494, 39.899245], [-77.5517, 39.898508], [-77.55122, 39.897531], [-77.551115, 39.896697], [-77.552766, 39.885446], [-77.552536, 39.884035], [-77.550969, 39.880909], [-77.550321, 39.88014], [-77.549361, 39.879579], [-77.548254, 39.879178], [-77.546729, 39.879066], [-77.542801, 39.879114], [-77.541736, 39.87897], [-77.540775, 39.878537], [-77.540002, 39.877815], [-77.539614, 39.877117], [-77.539464, 39.875997], [-77.539955, 39.874249], [-77.5578, 39.8459]]}}, {"type": "Feature", "properties": {"company": "Cumberland Valley Railroad", "line": "Cumberland Valley: Waynesboro Branch", "id": "cvrr-waynesboro-branch", "color": "#1B7A5A", "mode": "intercity_rail", "avg_speed_kmh": 30, "speed_source": "estimated: rural branch-line steam over grades into South Mountain; unsourced.", "geometry_quality": "Partly approximated. 18.6 km is real-traced from OpenStreetMap over the abandoned ex-PRR Waynesboro Branch right of way east of Chambersburg through Fayetteville to Pond Bank (2.65 km of that is straight-line bridging where the ROW is untagged, the largest being 1.41 km near 39.957,-77.595 and 0.75 km at the Chambersburg end). Beyond Pond Bank OpenStreetMap has no trace of the line at all, so 3.5 km Pond Bank-Mont Alto and 10.25 km Mont Alto-Waynesboro are drawn as STRAIGHT LINES - 13.75 km, 43% of the feature. Total drawn 32.4 km / 20.1 mi against a documented 18.3 mi, so the straight legs run slightly long.", "segments": [{"start": 1879, "end": 1919, "headway_min": 300, "note": "The Mont Alto Rail Road extended south from Ledy, near Mont Alto, to Waynesboro in April 1879 and was then leased to the Cumberland Valley Railroad, which is why the feature carries CVRR colours from here; the Mont Alto company kept its own locomotives until 1894. Chambersburg-Fayetteville-Mont Alto-Waynesboro, about 18 miles. Frequency estimated, unsourced.", "sources": ["Segment-level: the note above names what was checked for this segment's dates; the headway is an estimate and is not sourced.", "https://en.wikipedia.org/wiki/Mont_Alto_Railroad", "https://jbritton.pennsyrr.com/index.php/tpm/hobo-s-guide-to-the-pennsy/latest-track-segment-articles/802-track-segment-philadelphia-division-waynesboro-branch (PRR Waynesboro Branch track segment history)"]}]}, "geometry": {"type": "LineString", "coordinates": [[-77.663402, 39.937932], [-77.654729, 39.936766], [-77.653052, 39.939198], [-77.650262, 39.942159], [-77.646768, 39.944802], [-77.642815, 39.946979], [-77.618823, 39.957113], [-77.615021, 39.959004], [-77.606881, 39.96362], [-77.606306, 39.963544], [-77.605178, 39.963704], [-77.604131, 39.963562], [-77.599828, 39.962463], [-77.590931, 39.951743], [-77.59068, 39.950702], [-77.589563, 39.949077], [-77.589512, 39.946349], [-77.589129, 39.944957], [-77.585144, 39.936336], [-77.584476, 39.935166], [-77.583269, 39.933602], [-77.578982, 39.928919], [-77.57706, 39.925539], [-77.576747, 39.924562], [-77.575344, 39.915121], [-77.574661, 39.913795], [-77.573351, 39.912428], [-77.571483, 39.911184], [-77.56977, 39.9087], [-77.567702, 39.906297], [-77.565863, 39.90439], [-77.56413, 39.903076], [-77.562772, 39.902338], [-77.560996, 39.901649], [-77.556317, 39.900624], [-77.553559, 39.899806], [-77.552494, 39.899245], [-77.5517, 39.898508], [-77.55122, 39.897531], [-77.551115, 39.896697], [-77.552766, 39.885446], [-77.552536, 39.884035], [-77.550969, 39.880909], [-77.550321, 39.88014], [-77.549361, 39.879579], [-77.548254, 39.879178], [-77.546729, 39.879066], [-77.542801, 39.879114], [-77.541736, 39.87897], [-77.540775, 39.878537], [-77.540002, 39.877815], [-77.539614, 39.877117], [-77.539464, 39.875997], [-77.539955, 39.874249], [-77.5578, 39.8459], [-77.5786, 39.7551]]}}, {"type": "Feature", "properties": {"company": "Pennsylvania Railroad", "line": "Pennsylvania Railroad: Waynesboro Branch", "id": "prr-waynesboro-branch", "color": "#7B241C", "mode": "intercity_rail", "avg_speed_kmh": 30, "speed_source": "estimated: 1920s-30s rural branch mixed and local trains; unsourced.", "geometry_quality": "Partly approximated. 18.6 km is real-traced from OpenStreetMap over the abandoned ex-PRR Waynesboro Branch right of way east of Chambersburg through Fayetteville to Pond Bank (2.65 km of that is straight-line bridging where the ROW is untagged, the largest being 1.41 km near 39.957,-77.595 and 0.75 km at the Chambersburg end). Beyond Pond Bank OpenStreetMap has no trace of the line at all, so 3.5 km Pond Bank-Mont Alto and 10.25 km Mont Alto-Waynesboro are drawn as STRAIGHT LINES - 13.75 km, 43% of the feature. Total drawn 32.4 km / 20.1 mi against a documented 18.3 mi, so the straight legs run slightly long.", "segments": [{"start": 1919, "end": 1933, "headway_min": 360, "note": "With the CVRR purchase of 2 June 1919 the line became the PRR's Waynesboro Branch, and the Ledy-Mont Alto Park stub the Mont Alto Park Track. Passenger service on the Waynesboro Branch and the park track ended on 28 June 1933. Freight lasted much longer - Penn Central abandoned Chambersburg-Waynesboro in 1972, it was briefly revived in 1975 and given up for good in 1976 - but none of that is drawn. Frequency estimated, unsourced.", "sources": ["Segment-level: the note above names what was checked for this segment's dates; the headway is an estimate and is not sourced.", "https://en.wikipedia.org/wiki/Mont_Alto_Railroad", "https://jbritton.pennsyrr.com/index.php/tpm/hobo-s-guide-to-the-pennsy/latest-track-segment-articles/802-track-segment-philadelphia-division-waynesboro-branch (PRR Waynesboro Branch track segment history)"]}]}, "geometry": {"type": "LineString", "coordinates": [[-77.663402, 39.937932], [-77.654729, 39.936766], [-77.653052, 39.939198], [-77.650262, 39.942159], [-77.646768, 39.944802], [-77.642815, 39.946979], [-77.618823, 39.957113], [-77.615021, 39.959004], [-77.606881, 39.96362], [-77.606306, 39.963544], [-77.605178, 39.963704], [-77.604131, 39.963562], [-77.599828, 39.962463], [-77.590931, 39.951743], [-77.59068, 39.950702], [-77.589563, 39.949077], [-77.589512, 39.946349], [-77.589129, 39.944957], [-77.585144, 39.936336], [-77.584476, 39.935166], [-77.583269, 39.933602], [-77.578982, 39.928919], [-77.57706, 39.925539], [-77.576747, 39.924562], [-77.575344, 39.915121], [-77.574661, 39.913795], [-77.573351, 39.912428], [-77.571483, 39.911184], [-77.56977, 39.9087], [-77.567702, 39.906297], [-77.565863, 39.90439], [-77.56413, 39.903076], [-77.562772, 39.902338], [-77.560996, 39.901649], [-77.556317, 39.900624], [-77.553559, 39.899806], [-77.552494, 39.899245], [-77.5517, 39.898508], [-77.55122, 39.897531], [-77.551115, 39.896697], [-77.552766, 39.885446], [-77.552536, 39.884035], [-77.550969, 39.880909], [-77.550321, 39.88014], [-77.549361, 39.879579], [-77.548254, 39.879178], [-77.546729, 39.879066], [-77.542801, 39.879114], [-77.541736, 39.87897], [-77.540775, 39.878537], [-77.540002, 39.877815], [-77.539614, 39.877117], [-77.539464, 39.875997], [-77.539955, 39.874249], [-77.5578, 39.8459], [-77.5786, 39.7551]]}}, {"type": "Feature", "properties": {"company": "Chambersburg and Gettysburg Electric Railway", "line": "Chambersburg & Gettysburg Electric: Chambersburg \u2013 Caledonia Park", "id": "cg-electric-chambersburg-caledonia", "color": "#7F5A83", "mode": "interurban", "avg_speed_kmh": 25, "speed_source": "estimated: 5 ft 2.5 in gauge single-truck interurban cars on a hilly turnpike alignment; unsourced.", "geometry_quality": "APPROXIMATED, not a traced rail alignment. Nothing of this trolley survives in OpenStreetMap, so the route is drawn along the modern highway the cars ran beside/on (US 30, the Lincoln Highway / Lincoln Way East), which is where the sources put them but is not the surveyed alignment - side-of-road private right of way would have run tens of metres off this line, and street trackage in town centres would have used a specific street pair not reconstructed here. 15.9 km / 9.9 mi drawn; no independent mileage was found to check it against.", "segments": [{"start": 1905, "end": 1926, "headway_min": 60, "note": "An electric interurban east from Chambersburg through Fayetteville to Caledonia State Park. Construction began in 1903 but disputes with the Pennsylvania Railroad over crossings held the opening to 1905; the planned extension over the mountain to Gettysburg was never built because of the grades, so despite the company name the cars never reached Gettysburg. It ran until 21 December 1926. Frequency estimated, unsourced.", "sources": ["Segment-level: the note above names what was checked for this segment's dates; the headway is an estimate and is not sourced.", "https://en.wikipedia.org/wiki/Chambersburg_and_Gettysburg_Electric_Railway"]}]}, "geometry": {"type": "LineString", "coordinates": [[-77.661195, 39.937541], [-77.656641, 39.936834], [-77.640221, 39.930226], [-77.627838, 39.927126], [-77.620002, 39.92568], [-77.602761, 39.922882], [-77.585606, 39.919072], [-77.582752, 39.918082], [-77.578993, 39.916215], [-77.577344, 39.915593], [-77.553642, 39.908431], [-77.550714, 39.90774], [-77.547824, 39.907403], [-77.498548, 39.905039], [-77.49686, 39.905098], [-77.482228, 39.906607]]}}, {"type": "Feature", "properties": {"company": "Chambersburg, Greencastle and Waynesboro Street Railway", "line": "Chambersburg, Greencastle & Waynesboro: Chambersburg \u2013 Rouzerville", "id": "cgw-chambersburg-rouzerville", "color": "#0F8B8D", "mode": "interurban", "avg_speed_kmh": 25, "speed_source": "estimated: broad-gauge interurban cars, part street running and part side-of-road; unsourced.", "geometry_quality": "APPROXIMATED, not a traced rail alignment. Nothing of this trolley survives in OpenStreetMap, so the route is drawn along the modern highway the cars ran beside/on (US 11 (Molly Pitcher Highway) Chambersburg-Marion-Greencastle and PA 16 Greencastle-Shady Grove-Waynesboro-Rouzerville), which is where the sources put them but is not the surveyed alignment - side-of-road private right of way would have run tens of metres off this line, and street trackage in town centres would have used a specific street pair not reconstructed here. 40.0 km / 24.9 mi drawn; 85% of it follows those two routes, the remainder being connectors through town centres. No independent route mileage was found to check it against.", "segments": [{"start": 1908, "end": 1928, "headway_min": 60, "note": "The system started at Greencastle in December 1903, reached Shady Grove by 1906 and Chambersburg in 1908 - the year drawn here, because that is when Chambersburg got the cars. From Chambersburg they ran south by Marion to Greencastle, east to Shady Grove (where a Union Station met the standard-gauge Hagerstown and Frederick Railway - no interchange was possible, the two used different gauges) and on through Waynesboro to Rouzerville. Most of the system stopped on 31 July 1928. Frequency estimated, unsourced.", "sources": ["Segment-level: the note above names what was checked for this segment's dates; the headway is an estimate and is not sourced.", "https://en.wikipedia.org/wiki/Chambersburg,_Greencastle_and_Waynesboro_Street_Railway"]}, {"start": 1928, "end": 1932, "headway_min": 90, "note": "After the July 1928 cutback the Rouzerville-Chambersburg cars were all that was left; they ran until 13 January 1932, a victim of the Depression and the automobile. Frequency estimated, unsourced.", "sources": ["Segment-level: the note above names what was checked for this segment's dates; the headway is an estimate and is not sourced.", "https://en.wikipedia.org/wiki/Chambersburg,_Greencastle_and_Waynesboro_Street_Railway"]}]}, "geometry": {"type": "LineString", "coordinates": [[-77.661195, 39.937541], [-77.663598, 39.926899], [-77.66416, 39.925213], [-77.667302, 39.916997], [-77.672077, 39.9057], [-77.678465, 39.889859], [-77.680823, 39.884771], [-77.683817, 39.879413], [-77.686825, 39.874546], [-77.687943, 39.873062], [-77.688995, 39.872014], [-77.693806, 39.86816], [-77.696092, 39.866638], [-77.696176, 39.866272], [-77.698185, 39.864624], [-77.691395, 39.85742], [-77.698737, 39.865207], [-77.70252, 39.863031], [-77.705754, 39.86045], [-77.70734, 39.858892], [-77.708446, 39.857127], [-77.708898, 39.855856], [-77.709954, 39.850722], [-77.715869, 39.827816], [-77.718507, 39.818283], [-77.720078, 39.81405], [-77.723004, 39.802696], [-77.72385, 39.80108], [-77.731175, 39.791113], [-77.711698, 39.786296], [-77.685877, 39.781639], [-77.678999, 39.779896], [-77.670696, 39.778172], [-77.664648, 39.776681], [-77.658811, 39.783378], [-77.664648, 39.776681], [-77.657108, 39.773065], [-77.649655, 39.771266], [-77.647084, 39.770876], [-77.644967, 39.770749], [-77.633571, 39.770686], [-77.632118, 39.770562], [-77.604109, 39.763483], [-77.601948, 39.763109], [-77.594864, 39.76238], [-77.592247, 39.761841], [-77.58664, 39.759929], [-77.580847, 39.7575], [-77.571952, 39.752388], [-77.566083, 39.750158], [-77.564444, 39.749396], [-77.561957, 39.747946], [-77.559711, 39.746168], [-77.558782, 39.74568], [-77.546304, 39.742221], [-77.536182, 39.739748], [-77.531921, 39.738419], [-77.529895, 39.738219]]}}, {"type": "Feature", "properties": {"company": "Chambersburg, Greencastle and Waynesboro Street Railway", "line": "Chambersburg, Greencastle & Waynesboro: Rouzerville \u2013 Pen Mar", "id": "cgw-rouzerville-pen-mar", "color": "#0F8B8D", "mode": "interurban", "avg_speed_kmh": 18, "speed_source": "estimated: steep, sharply curved mountain climb to the resort; unsourced.", "geometry_quality": "APPROXIMATED, not a traced rail alignment. Nothing of this trolley survives in OpenStreetMap, so the route is drawn along the modern highway the cars ran beside/on (PA 16 east of Rouzerville), which is where the sources put them but is not the surveyed alignment - side-of-road private right of way would have run tens of metres off this line, and street trackage in town centres would have used a specific street pair not reconstructed here. 3.1 km / 2.0 mi drawn. The real trolley took its own graded alignment up the mountain, which the modern road only loosely follows.", "segments": [{"start": 1908, "end": 1928, "headway_min": 120, "note": "The climb from Rouzerville up South Mountain to Pen Mar and Blue Ridge Summit - steep grades and sharp curves - served the Pen Mar resort. It went with the rest of the system on 31 July 1928, four years before the Chambersburg-Rouzerville cars. Frequency estimated, unsourced.", "sources": ["Segment-level: the note above names what was checked for this segment's dates; the headway is an estimate and is not sourced.", "https://en.wikipedia.org/wiki/Chambersburg,_Greencastle_and_Waynesboro_Street_Railway"]}]}, "geometry": {"type": "LineString", "coordinates": [[-77.529895, 39.738219], [-77.524073, 39.738207], [-77.525608, 39.734078], [-77.525564, 39.733778], [-77.52483, 39.733322], [-77.521946, 39.730583], [-77.520174, 39.729936], [-77.515266, 39.728757], [-77.514267, 39.72838], [-77.509324, 39.724053], [-77.507367, 39.722702], [-77.506952, 39.721871]]}}, {"type": "Feature", "properties": {"company": "Chambersburg and Shippensburg Railway", "line": "Chambersburg & Shippensburg Railway: Chambersburg \u2013 Shippensburg", "id": "cs-railway-chambersburg-shippensburg", "color": "#B5179E", "mode": "interurban", "avg_speed_kmh": 25, "speed_source": "estimated: broad-gauge interurban on the Molly Pitcher Highway; unsourced.", "geometry_quality": "APPROXIMATED, not a traced rail alignment. Nothing of this trolley survives in OpenStreetMap, so the route is drawn along the modern highway the cars ran beside/on (US 11, the Molly Pitcher Highway), which is where the sources put them but is not the surveyed alignment - side-of-road private right of way would have run tens of metres off this line, and street trackage in town centres would have used a specific street pair not reconstructed here. 17.9 km / 11.1 mi drawn, against a road distance Chambersburg-Shippensburg of about 11 mi.", "segments": [{"start": 1914, "end": 1926, "headway_min": 60, "note": "A broad-gauge (5 ft 2.5 in) electric interurban north from Chambersburg to Shippensburg, built in 1914 and running parallel to the Cumberland Valley Railroad's own main line. It was abandoned with much of the neighbouring Chambersburg, Greencastle and Waynesboro system. Frequency estimated, unsourced. SOURCE CONFLICT: the Wikipedia article's text gives 31 July 1926 for abandonment while its own infobox says 1914-1928; the earlier date is drawn.", "sources": ["Segment-level: the note above names what was checked for this segment's dates; the headway is an estimate and is not sourced.", "https://en.wikipedia.org/wiki/Chambersburg_and_Shippensburg_Railway"]}]}, "geometry": {"type": "LineString", "coordinates": [[-77.661195, 39.937541], [-77.66047, 39.94102], [-77.652299, 39.948201], [-77.65195, 39.948285], [-77.650615, 39.947908], [-77.647463, 39.950757], [-77.648458, 39.951396], [-77.64851, 39.951651], [-77.645961, 39.954593], [-77.629913, 39.975179], [-77.61769, 39.985665], [-77.615721, 39.986997], [-77.612058, 39.988985], [-77.609683, 39.990625], [-77.601865, 39.996902], [-77.5981, 40.000996], [-77.586442, 40.009595], [-77.564489, 40.023394], [-77.529235, 40.046531], [-77.524072, 40.049202], [-77.519612, 40.050955]]}}]}