{
 "type": "FeatureCollection",
 "metadata": {
  "note": "The Colorado and Southern's Denver - Cheyenne - Wendover - Orin Junction line: the missing middle of the Burlington system's Texas-to-Montana passenger route. The map already had the two ends - data/fort_worth_denver.geojson (Texas Zephyr, Dallas/Fort Worth - Amarillo - Denver, to 1967) and data/cbq_big_horn_basin_line.geojson (Orin Junction - Casper - Wind River Canyon - Billings, to 1967) - but nothing joined them, so the corridor stopped dead at Denver in one direction and Orin Junction in the other. This layer closes it. Two railroads built it: the Colorado Central ran north from Longmont to the Union Pacific at Hazard, west of Cheyenne, in November 1877, and the Cheyenne and Northern ran 125 miles from Cheyenne to Wendover in 1887; the Union Pacific held both, combined them in the Union Pacific, Denver and Gulf in 1890, and lost them in the 1893 receivership to the Colorado and Southern of 1898, which the Burlington bought in 1908. The through train was the Shoshone, CB&Q/C&S trains 29 and 30, Denver - Billings, 667 miles, gone on September 1 1967 - the same year the Texas Zephyr quit at the other end of the system. Pre-1898 features carry the Union Pacific colour (#F2A900) because the UP owned and ran both predecessors; from 1898 everything is Colorado and Southern in the Burlington colour (#8E1B3C) already used by data/fort_worth_denver.geojson and the CB&Q layers.",
  "sources": [
   "https://en.wikipedia.org/wiki/Shoshone_(train)",
   "https://en.wikipedia.org/wiki/Cheyenne_and_Northern_Railway",
   "https://en.wikipedia.org/wiki/Colorado_and_Southern_Railway",
   "https://utahrails.net/up/colorado-central-timeline.php",
   "https://history.fcgov.com/contexts/railroad",
   "https://coloradoencyclopedia.org/article/city-and-county-broomfield",
   "https://www.wyohistory.org/encyclopedia/burlington-route-wyomings-second-transcontinental-railroad",
   "https://denversrailroads.com/CS.htm",
   "https://www.american-rails.com/colorado.html"
  ],
  "geometry_sources": [
   "Traced from OpenStreetMap route relations pulled whole from the OSM API: 1421774 BNSF Front Range Subdivision (Denver - Boulder - Longmont - Loveland - Fort Collins - Cheyenne - Chugwater - Wheatland - Wendover) and 7451875 BNSF Canyon Subdivision (Wendover - Orin Junction). Node-id graph, Dijkstra between the terminal towns, Douglas-Peucker at 15 m. Both are the ex-Colorado and Southern alignment, still BNSF freight track."
  ],
  "not_yet_sourced": [
   "The year the Union Pacific extended the old Cheyenne and Northern from Wendover to Orin Junction is not pinned down: Wikipedia says only that the UP took the line over in 1887 and 'extended the line slightly to Orin to connect to the Wyoming Central line', and the Wyoming Central reached Casper in 1888. Those 34 miles are therefore drawn only from 1898, with the Colorado and Southern feature - under-drawing them by about a decade rather than inventing a date.",
   "Denver - Longmont before 1898 is not drawn at all here. The through route ran west via Golden until the Denver, Marshall and Boulder line through Broomfield opened in 1886 (standard-gauged 1889), and the Golden routing is a separate corridor that belongs in a Denver-area layer.",
   "No Shoshone timetable was found, so every avg_speed_kmh and every pre-1908 headway_min in this file is an estimate. The train's start date is unknown too - Wikipedia describes its 1946 consist and its 1967 end but not its first run - which is why no named-train feature is drawn for it; the line features carry the service instead.",
   "Whether Denver - Cheyenne carried other passenger service between 1967 and Amtrak's Pioneer in 1977 has not been checked."
  ],
  "passenger_only_rule": "All four features end in 1967 with the Shoshone, not with the railroad: BNSF still runs freight over the whole line. The 1977-1997 Amtrak Pioneer used the Denver - Cheyenne portion and is already drawn in data/amtrak_pioneer.geojson, so it is not repeated here."
 },
 "features": [
  {
   "type": "Feature",
   "properties": {
    "company": "Colorado Central Railroad (Union Pacific)",
    "line": "Colorado Central: Longmont – Cheyenne",
    "id": "cc-longmont-cheyenne",
    "color": "#F2A900",
    "mode": "intercity_rail",
    "avg_speed_kmh": 40,
    "speed_source": "Estimated. No period timetable was consulted for this line; 40 km/h is a plain guess for 1870s-90s Front Range running.",
    "segments": [
     {
      "start": 1877,
      "end": 1879,
      "headway_min": 720,
      "note": "Built by the Colorado Central with Union Pacific backing after construction started in July 1877: the 65-mile connection from Longmont north through Loveland and Fort Collins to Hazard, on the Union Pacific main line just west of Cheyenne, opened for traffic on November 7 1877. It was the first railroad into Fort Collins. Contemporaries complained almost at once about the line’s location and shoddy construction. headway_min is an unsourced estimate.",
      "sources": [
       "Segment-level: the July 1877 start, the November 7 1877 opening, the 65-mile figure and the complaints about construction quality are from the UtahRails Colorado Central standard-gauge timeline; the first-railroad-into-Fort-Collins point is from the Fort Collins History Connection. headway_min and avg_speed_kmh are estimates.",
       "https://utahrails.net/up/colorado-central-timeline.php",
       "https://history.fcgov.com/contexts/railroad"
      ]
     },
     {
      "start": 1879,
      "end": 1898,
      "headway_min": 720,
      "note": "Leased to the Union Pacific on March 1 1879 for fifty years, and folded into the Union Pacific, Denver and Gulf Railway when the UP created that subsidiary on March 18 1890 to combine the Colorado Central with the Cheyenne and Northern. The UPD&G went into receivership in the 1893 panic and the property was reorganised into the Colorado and Southern in 1898, where this feature ends and the C&S-coloured one begins.",
      "sources": [
       "Segment-level: the March 1 1879 fifty-year lease is from the UtahRails timeline; the March 18 1890 UPD&G formation, the 1893 receivership and the 1898 C&S reorganisation are from the Wikipedia Cheyenne and Northern article. headway_min is an estimate.",
       "https://utahrails.net/up/colorado-central-timeline.php",
       "https://en.wikipedia.org/wiki/Cheyenne_and_Northern_Railway"
      ]
     }
    ],
    "geometry_source": "Traced from OpenStreetMap route relations pulled whole from the OSM API: 1421774 BNSF Front Range Subdivision (Denver - Boulder - Longmont - Loveland - Fort Collins - Cheyenne - Chugwater - Wheatland - Wendover) and 7451875 BNSF Canyon Subdivision (Wendover - Orin Junction). Node-id graph, Dijkstra between the terminal towns, Douglas-Peucker at 15 m. Both are the ex-Colorado and Southern alignment, still BNSF freight track.",
    "geometry_quality": "Traced from the BNSF Front Range Subdivision relation (OSM 1421774), cut at Longmont: 75.3 traced miles against the documented 65 miles Longmont - Hazard plus roughly 8 miles Hazard - Cheyenne. Drawn on the present-day alignment. Denver - Longmont is deliberately NOT drawn for this era: until 1886 the through route from Denver ran west via Golden, and the direct line through Broomfield that this layer’s C&S feature uses did not exist yet."
   },
   "geometry": {
    "type": "LineString",
    "coordinates": [
     [
      -105.0965,
      40.16307
     ],
     [
      -105.09643,
      40.17236
     ],
     [
      -105.09588,
      40.17331
     ],
     [
      -105.09355,
      40.1754
     ],
     [
      -105.09304,
      40.17716
     ],
     [
      -105.09309,
      40.23201
     ],
     [
      -105.09265,
      40.23302
     ],
     [
      -105.09195,
      40.23375
     ],
     [
      -105.08362,
      40.23902
     ],
     [
      -105.08237,
      40.24082
     ],
     [
      -105.07595,
      40.26161
     ],
     [
      -105.07579,
      40.26583
     ],
     [
      -105.0752,
      40.26892
     ],
     [
      -105.07498,
      40.28023
     ],
     [
      -105.07412,
      40.28385
     ],
     [
      -105.07377,
      40.28909
     ],
     [
      -105.07377,
      40.29137
     ],
     [
      -105.07424,
      40.29337
     ],
     [
      -105.07495,
      40.29512
     ],
     [
      -105.07682,
      40.29788
     ],
     [
      -105.07771,
      40.30084
     ],
     [
      -105.08212,
      40.36634
     ],
     [
      -105.08293,
      40.36802
     ],
     [
      -105.08538,
      40.37018
     ],
     [
      -105.08579,
      40.37135
     ],
     [
      -105.08527,
      40.37294
     ],
     [
      -105.08307,
      40.37479
     ],
     [
      -105.0824,
      40.37608
     ],
     [
      -105.08272,
      40.37868
     ],
     [
      -105.08276,
      40.38375
     ],
     [
      -105.08239,
      40.38509
     ],
     [
      -105.07687,
      40.39146
     ],
     [
      -105.07646,
      40.39237
     ],
     [
      -105.07592,
      40.40758
     ],
     [
      -105.0823,
      40.43192
     ],
     [
      -105.08448,
      40.43729
     ],
     [
      -105.0881,
      40.45073
     ],
     [
      -105.08875,
      40.45207
     ],
     [
      -105.09375,
      40.4589
     ],
     [
      -105.0945,
      40.46054
     ],
     [
      -105.09572,
      40.47873
     ],
     [
      -105.09561,
      40.47999
     ],
     [
      -105.09366,
      40.48743
     ],
     [
      -105.09098,
      40.49444
     ],
     [
      -105.08165,
      40.51018
     ],
     [
      -105.0812,
      40.51142
     ],
     [
      -105.07984,
      40.55891
     ],
     [
      -105.07899,
      40.56545
     ],
     [
      -105.07884,
      40.59131
     ],
     [
      -105.07844,
      40.59206
     ],
     [
      -105.07773,
      40.5926
     ],
     [
      -105.07238,
      40.59527
     ],
     [
      -105.07085,
      40.59566
     ],
     [
      -105.03967,
      40.59612
     ],
     [
      -105.02482,
      40.59603
     ],
     [
      -105.01227,
      40.60181
     ],
     [
      -105.01089,
      40.60308
     ],
     [
      -105.01067,
      40.60399
     ],
     [
      -105.01049,
      40.61651
     ],
     [
      -105.00962,
      40.6965
     ],
     [
      -105.00398,
      40.73203
     ],
     [
      -105.00342,
      40.7523
     ],
     [
      -105.00312,
      40.75525
     ],
     [
      -105.00195,
      40.75856
     ],
     [
      -105.001,
      40.76017
     ],
     [
      -104.9894,
      40.77471
     ],
     [
      -104.98765,
      40.77758
     ],
     [
      -104.97182,
      40.82632
     ],
     [
      -104.97141,
      40.82821
     ],
     [
      -104.97134,
      40.83063
     ],
     [
      -104.97173,
      40.83297
     ],
     [
      -104.97654,
      40.84637
     ],
     [
      -104.97721,
      40.84989
     ],
     [
      -104.97752,
      40.88784
     ],
     [
      -104.97434,
      40.90241
     ],
     [
      -104.97172,
      40.90722
     ],
     [
      -104.92253,
      40.98652
     ],
     [
      -104.92151,
      40.98797
     ],
     [
      -104.91898,
      40.99003
     ],
     [
      -104.91162,
      40.99317
     ],
     [
      -104.91059,
      40.99391
     ],
     [
      -104.90955,
      40.99479
     ],
     [
      -104.90829,
      40.99652
     ],
     [
      -104.90781,
      40.99773
     ],
     [
      -104.90625,
      41.00918
     ],
     [
      -104.90637,
      41.0106
     ],
     [
      -104.91098,
      41.02382
     ],
     [
      -104.9137,
      41.03652
     ],
     [
      -104.91456,
      41.03825
     ],
     [
      -104.91606,
      41.04006
     ],
     [
      -104.92095,
      41.04377
     ],
     [
      -104.92139,
      41.04497
     ],
     [
      -104.92094,
      41.04637
     ],
     [
      -104.9199,
      41.04726
     ],
     [
      -104.91819,
      41.04771
     ],
     [
      -104.90923,
      41.04653
     ],
     [
      -104.90514,
      41.04697
     ],
     [
      -104.8805,
      41.05569
     ],
     [
      -104.87827,
      41.05726
     ],
     [
      -104.85083,
      41.08261
     ],
     [
      -104.8388,
      41.09702
     ],
     [
      -104.83772,
      41.09907
     ],
     [
      -104.83627,
      41.11359
     ],
     [
      -104.83626,
      41.11896
     ],
     [
      -104.83668,
      41.12134
     ],
     [
      -104.83828,
      41.1251
     ],
     [
      -104.83829,
      41.12727
     ],
     [
      -104.83781,
      41.12856
     ],
     [
      -104.83709,
      41.12946
     ],
     [
      -104.8312,
      41.13473
     ],
     [
      -104.83078,
      41.13563
     ],
     [
      -104.83094,
      41.13646
     ]
    ]
   }
  },
  {
   "type": "Feature",
   "properties": {
    "company": "Cheyenne and Northern Railway (Union Pacific)",
    "line": "Cheyenne and Northern: Cheyenne – Wendover",
    "id": "cn-cheyenne-wendover",
    "color": "#F2A900",
    "mode": "intercity_rail",
    "avg_speed_kmh": 40,
    "speed_source": "Estimated. No period timetable was consulted; 40 km/h is a guess for 1880s-90s Wyoming running.",
    "segments": [
     {
      "start": 1887,
      "end": 1898,
      "headway_min": 720,
      "note": "Incorporated in March 1886 by local investors including Governor Francis E. Warren to build from Cheyenne toward northern Wyoming and Montana; about 125 miles of track were laid north through Chugwater and Wheatland before construction stopped at Wendover on the North Platte in 1887. The Union Pacific took the line over that same year, extended it a short distance to Orin to meet the Wyoming Central, and formally put it into the Union Pacific, Denver and Gulf in 1890; it passed to the Colorado and Southern in 1898. headway_min is an unsourced estimate.",
      "sources": [
       "Segment-level: the March 1886 incorporation, the 125-mile Cheyenne - Wendover figure, the 1887 halt at Wendover, the UP takeover and short extension to Orin, and the 1890/1898 successions are all from the Wikipedia Cheyenne and Northern article. headway_min and avg_speed_kmh are estimates.",
       "https://en.wikipedia.org/wiki/Cheyenne_and_Northern_Railway"
      ]
     }
    ],
    "geometry_source": "Traced from OpenStreetMap route relations pulled whole from the OSM API: 1421774 BNSF Front Range Subdivision (Denver - Boulder - Longmont - Loveland - Fort Collins - Cheyenne - Chugwater - Wheatland - Wendover) and 7451875 BNSF Canyon Subdivision (Wendover - Orin Junction). Node-id graph, Dijkstra between the terminal towns, Douglas-Peucker at 15 m. Both are the ex-Colorado and Southern alignment, still BNSF freight track.",
    "geometry_quality": "Traced from the BNSF Front Range Subdivision relation (OSM 1421774): 117.5 traced miles against the documented 125 miles built, a 6 per cent shortfall that is mostly the Wendover end - the trace stops 1.8 km from the point taken as Wendover. Trace passes within 0.2 km of both Chugwater and Wheatland. The Wendover - Orin Junction extension is not drawn for this era; see the layer metadata."
   },
   "geometry": {
    "type": "LineString",
    "coordinates": [
     [
      -104.83094,
      41.13646
     ],
     [
      -104.83208,
      41.13741
     ],
     [
      -104.84565,
      41.14149
     ],
     [
      -104.85419,
      41.14657
     ],
     [
      -104.85811,
      41.14922
     ],
     [
      -104.86427,
      41.15216
     ],
     [
      -104.86872,
      41.15379
     ],
     [
      -104.86982,
      41.15471
     ],
     [
      -104.87357,
      41.15945
     ],
     [
      -104.88076,
      41.16394
     ],
     [
      -104.91315,
      41.18018
     ],
     [
      -104.91618,
      41.18118
     ],
     [
      -104.93209,
      41.18517
     ],
     [
      -104.94505,
      41.18704
     ],
     [
      -104.95987,
      41.18619
     ],
     [
      -104.9718,
      41.18412
     ],
     [
      -104.99241,
      41.17742
     ],
     [
      -104.99523,
      41.17716
     ],
     [
      -105.00612,
      41.17709
     ],
     [
      -105.0153,
      41.176
     ],
     [
      -105.02363,
      41.17665
     ],
     [
      -105.02554,
      41.17618
     ],
     [
      -105.03029,
      41.1738
     ],
     [
      -105.0325,
      41.17336
     ],
     [
      -105.04822,
      41.17608
     ],
     [
      -105.04989,
      41.17679
     ],
     [
      -105.05325,
      41.17916
     ],
     [
      -105.05925,
      41.18733
     ],
     [
      -105.0668,
      41.19402
     ],
     [
      -105.0683,
      41.19584
     ],
     [
      -105.07281,
      41.20453
     ],
     [
      -105.0826,
      41.2319
     ],
     [
      -105.08334,
      41.23334
     ],
     [
      -105.08528,
      41.23497
     ],
     [
      -105.10234,
      41.24433
     ],
     [
      -105.1114,
      41.25195
     ],
     [
      -105.11298,
      41.25392
     ],
     [
      -105.11786,
      41.27883
     ],
     [
      -105.11754,
      41.28084
     ],
     [
      -105.11283,
      41.29272
     ],
     [
      -105.11171,
      41.29999
     ],
     [
      -105.11198,
      41.30281
     ],
     [
      -105.11525,
      41.31035
     ],
     [
      -105.11748,
      41.31256
     ],
     [
      -105.12043,
      41.314
     ],
     [
      -105.12992,
      41.31544
     ],
     [
      -105.13315,
      41.31639
     ],
     [
      -105.13497,
      41.31746
     ],
     [
      -105.13908,
      41.32062
     ],
     [
      -105.14009,
      41.32163
     ],
     [
      -105.14079,
      41.32298
     ],
     [
      -105.14322,
      41.33354
     ],
     [
      -105.14422,
      41.33517
     ],
     [
      -105.15303,
      41.34028
     ],
     [
      -105.15457,
      41.34182
     ],
     [
      -105.15591,
      41.34416
     ],
     [
      -105.15704,
      41.34545
     ],
     [
      -105.1638,
      41.35075
     ],
     [
      -105.16901,
      41.35567
     ],
     [
      -105.17357,
      41.35784
     ],
     [
      -105.17457,
      41.35879
     ],
     [
      -105.17569,
      41.36636
     ],
     [
      -105.17676,
      41.36862
     ],
     [
      -105.17865,
      41.3713
     ],
     [
      -105.17895,
      41.37251
     ],
     [
      -105.17763,
      41.37607
     ],
     [
      -105.1763,
      41.38089
     ],
     [
      -105.17705,
      41.38757
     ],
     [
      -105.17692,
      41.38861
     ],
     [
      -105.17612,
      41.38966
     ],
     [
      -105.17223,
      41.39241
     ],
     [
      -105.17155,
      41.39365
     ],
     [
      -105.17169,
      41.39536
     ],
     [
      -105.1839,
      41.41292
     ],
     [
      -105.18553,
      41.41741
     ],
     [
      -105.18617,
      41.41831
     ],
     [
      -105.18779,
      41.41927
     ],
     [
      -105.20613,
      41.42602
     ],
     [
      -105.2072,
      41.4267
     ],
     [
      -105.20785,
      41.42751
     ],
     [
      -105.20816,
      41.42868
     ],
     [
      -105.20775,
      41.43008
     ],
     [
      -105.20697,
      41.43093
     ],
     [
      -105.20357,
      41.4332
     ],
     [
      -105.20296,
      41.4342
     ],
     [
      -105.20281,
      41.4351
     ],
     [
      -105.20346,
      41.43667
     ],
     [
      -105.20668,
      41.43961
     ],
     [
      -105.20921,
      41.44254
     ],
     [
      -105.20985,
      41.44425
     ],
     [
      -105.20972,
      41.44599
     ],
     [
      -105.20906,
      41.44792
     ],
     [
      -105.20792,
      41.44912
     ],
     [
      -105.20649,
      41.44974
     ],
     [
      -105.20302,
      41.45026
     ],
     [
      -105.20141,
      41.45117
     ],
     [
      -105.20067,
      41.45226
     ],
     [
      -105.20054,
      41.45363
     ],
     [
      -105.20328,
      41.45853
     ],
     [
      -105.20339,
      41.46378
     ],
     [
      -105.20441,
      41.46587
     ],
     [
      -105.20646,
      41.46711
     ],
     [
      -105.20795,
      41.46744
     ],
     [
      -105.21519,
      41.46736
     ],
     [
      -105.21736,
      41.46834
     ],
     [
      -105.21859,
      41.4698
     ],
     [
      -105.22157,
      41.47931
     ],
     [
      -105.22183,
      41.48471
     ],
     [
      -105.22271,
      41.49092
     ],
     [
      -105.22249,
      41.49262
     ],
     [
      -105.22031,
      41.50013
     ],
     [
      -105.22024,
      41.50508
     ],
     [
      -105.22063,
      41.50798
     ],
     [
      -105.21864,
      41.51094
     ],
     [
      -105.21825,
      41.51213
     ],
     [
      -105.21898,
      41.51693
     ],
     [
      -105.2208,
      41.52025
     ],
     [
      -105.221,
      41.52134
     ],
     [
      -105.22052,
      41.52675
     ],
     [
      -105.22143,
      41.53459
     ],
     [
      -105.2213,
      41.53561
     ],
     [
      -105.21672,
      41.54202
     ],
     [
      -105.21026,
      41.55718
     ],
     [
      -105.20973,
      41.55913
     ],
     [
      -105.20996,
      41.56314
     ],
     [
      -105.20935,
      41.56498
     ],
     [
      -105.19827,
      41.58048
     ],
     [
      -105.19717,
      41.5815
     ],
     [
      -105.18532,
      41.58545
     ],
     [
      -105.16587,
      41.58966
     ],
     [
      -105.16252,
      41.59078
     ],
     [
      -105.15978,
      41.59285
     ],
     [
      -105.15679,
      41.59699
     ],
     [
      -105.15122,
      41.6012
     ],
     [
      -105.1493,
      41.60208
     ],
     [
      -105.13978,
      41.6052
     ],
     [
      -105.13686,
      41.60677
     ],
     [
      -105.13527,
      41.60842
     ],
     [
      -105.13202,
      41.61308
     ],
     [
      -105.12983,
      41.61558
     ],
     [
      -105.1261,
      41.61885
     ],
     [
      -105.12261,
      41.62124
     ],
     [
      -105.08665,
      41.6435
     ],
     [
      -105.06151,
      41.65491
     ],
     [
      -105.05889,
      41.65562
     ],
     [
      -105.05634,
      41.6558
     ],
     [
      -105.04874,
      41.65482
     ],
     [
      -105.04239,
      41.65644
     ],
     [
      -105.03206,
      41.65697
     ],
     [
      -105.01866,
      41.6591
     ],
     [
      -104.99312,
      41.66684
     ],
     [
      -104.97184,
      41.67748
     ],
     [
      -104.94991,
      41.68647
     ],
     [
      -104.90622,
      41.71524
     ],
     [
      -104.87096,
      41.73686
     ],
     [
      -104.86875,
      41.73779
     ],
     [
      -104.83704,
      41.74814
     ],
     [
      -104.82405,
      41.754
     ],
     [
      -104.80593,
      41.76561
     ],
     [
      -104.79641,
      41.77279
     ],
     [
      -104.79515,
      41.77398
     ],
     [
      -104.79218,
      41.77775
     ],
     [
      -104.79025,
      41.78091
     ],
     [
      -104.78954,
      41.783
     ],
     [
      -104.7892,
      41.78531
     ],
     [
      -104.78993,
      41.79425
     ],
     [
      -104.79399,
      41.80224
     ],
     [
      -104.80242,
      41.82395
     ],
     [
      -104.80575,
      41.8391
     ],
     [
      -104.80644,
      41.84125
     ],
     [
      -104.80883,
      41.84505
     ],
     [
      -104.82034,
      41.85546
     ],
     [
      -104.82134,
      41.85726
     ],
     [
      -104.82227,
      41.87518
     ],
     [
      -104.81951,
      41.89197
     ],
     [
      -104.81985,
      41.89483
     ],
     [
      -104.83071,
      41.91379
     ],
     [
      -104.83803,
      41.92929
     ],
     [
      -104.83999,
      41.93116
     ],
     [
      -104.86392,
      41.95034
     ],
     [
      -104.86517,
      41.95164
     ],
     [
      -104.8669,
      41.9545
     ],
     [
      -104.86784,
      41.95556
     ],
     [
      -104.87956,
      41.96593
     ],
     [
      -104.88316,
      41.96831
     ],
     [
      -104.88728,
      41.97
     ],
     [
      -104.91073,
      41.97814
     ],
     [
      -104.9131,
      41.97803
     ],
     [
      -104.92135,
      41.97483
     ],
     [
      -104.92317,
      41.97486
     ],
     [
      -104.92477,
      41.97563
     ],
     [
      -104.92749,
      41.98023
     ],
     [
      -104.9276,
      41.98164
     ],
     [
      -104.92713,
      41.98576
     ],
     [
      -104.92752,
      41.98695
     ],
     [
      -104.93301,
      41.99355
     ],
     [
      -104.93998,
      41.99876
     ],
     [
      -104.9408,
      41.99971
     ],
     [
      -104.94109,
      42.00065
     ],
     [
      -104.94131,
      42.00634
     ],
     [
      -104.94239,
      42.00928
     ],
     [
      -104.94669,
      42.01213
     ],
     [
      -104.95545,
      42.01401
     ],
     [
      -104.95686,
      42.01509
     ],
     [
      -104.95744,
      42.01647
     ],
     [
      -104.95875,
      42.02806
     ],
     [
      -104.95079,
      42.05162
     ],
     [
      -104.95265,
      42.06761
     ],
     [
      -104.95141,
      42.07573
     ],
     [
      -104.95084,
      42.09489
     ],
     [
      -104.95021,
      42.09782
     ],
     [
      -104.94925,
      42.09932
     ],
     [
      -104.94804,
      42.1005
     ],
     [
      -104.94522,
      42.10212
     ],
     [
      -104.92321,
      42.10761
     ],
     [
      -104.91448,
      42.11193
     ],
     [
      -104.91298,
      42.11346
     ],
     [
      -104.91101,
      42.1184
     ],
     [
      -104.9061,
      42.12339
     ],
     [
      -104.90555,
      42.12426
     ],
     [
      -104.90545,
      42.12512
     ],
     [
      -104.90585,
      42.12615
     ],
     [
      -104.9071,
      42.12715
     ],
     [
      -104.92287,
      42.13219
     ],
     [
      -104.92515,
      42.13314
     ],
     [
      -104.94237,
      42.14388
     ],
     [
      -104.9442,
      42.14535
     ],
     [
      -104.94536,
      42.14692
     ],
     [
      -104.94932,
      42.15788
     ],
     [
      -104.95241,
      42.17058
     ],
     [
      -104.95253,
      42.18284
     ],
     [
      -104.9546,
      42.19559
     ],
     [
      -104.95446,
      42.19763
     ],
     [
      -104.9537,
      42.19943
     ],
     [
      -104.94891,
      42.20758
     ],
     [
      -104.94716,
      42.20972
     ],
     [
      -104.93966,
      42.21525
     ],
     [
      -104.93349,
      42.21699
     ],
     [
      -104.92934,
      42.21726
     ],
     [
      -104.92795,
      42.21765
     ],
     [
      -104.92663,
      42.21882
     ],
     [
      -104.92641,
      42.22032
     ],
     [
      -104.92703,
      42.22141
     ],
     [
      -104.92995,
      42.22458
     ],
     [
      -104.93732,
      42.23091
     ],
     [
      -104.96093,
      42.24419
     ],
     [
      -104.96838,
      42.24956
     ],
     [
      -104.96968,
      42.25078
     ],
     [
      -104.97114,
      42.25276
     ],
     [
      -104.97156,
      42.25358
     ],
     [
      -104.97161,
      42.25456
     ],
     [
      -104.97078,
      42.25584
     ],
     [
      -104.96956,
      42.25651
     ],
     [
      -104.96272,
      42.25825
     ],
     [
      -104.95693,
      42.26082
     ],
     [
      -104.95293,
      42.26173
     ],
     [
      -104.94435,
      42.26502
     ],
     [
      -104.93916,
      42.26908
     ],
     [
      -104.93782,
      42.26978
     ],
     [
      -104.92994,
      42.2715
     ],
     [
      -104.92264,
      42.27143
     ],
     [
      -104.91874,
      42.27199
     ],
     [
      -104.91176,
      42.27025
     ],
     [
      -104.90994,
      42.27027
     ],
     [
      -104.90803,
      42.2713
     ],
     [
      -104.90472,
      42.27541
     ],
     [
      -104.90385,
      42.2761
     ],
     [
      -104.90211,
      42.27659
     ],
     [
      -104.89652,
      42.27622
     ],
     [
      -104.89452,
      42.27654
     ],
     [
      -104.89272,
      42.27767
     ],
     [
      -104.8921,
      42.27857
     ],
     [
      -104.89184,
      42.27962
     ]
    ]
   }
  },
  {
   "type": "Feature",
   "properties": {
    "company": "Colorado and Southern Railway (Burlington Route)",
    "line": "Colorado and Southern: Denver – Cheyenne",
    "id": "cs-denver-cheyenne",
    "color": "#8E1B3C",
    "mode": "intercity_rail",
    "avg_speed_kmh": 55,
    "speed_source": "Estimated. The Shoshone covered 667 miles Denver - Billings but no timetable running time for it was found; 55 km/h is a guess consistent with a heavy overnight train making many Front Range stops.",
    "segments": [
     {
      "start": 1898,
      "end": 1908,
      "headway_min": 720,
      "note": "The Colorado and Southern was formed in 1898 out of the bankrupt Union Pacific, Denver and Gulf and the Denver, Leadville and Gunnison, and took the Denver - Cheyenne line with it. From 1899 the C&S ran Denver - Boulder over the direct line through Broomfield - the Denver, Marshall and Boulder route of 1886, standard-gauged in 1889 - rather than the older way round via Golden, which is the routing this feature draws. headway_min is an unsourced estimate.",
      "sources": [
       "Segment-level: the 1898 formation is from the Wikipedia Colorado and Southern and Cheyenne and Northern articles; the 1886 direct Broomfield line, the 1889 standard-gauging and the 1899 C&S Denver - Boulder service are from the Colorado Encyclopedia’s Broomfield entry. headway_min and avg_speed_kmh are estimates.",
       "https://en.wikipedia.org/wiki/Colorado_and_Southern_Railway",
       "https://en.wikipedia.org/wiki/Cheyenne_and_Northern_Railway",
       "https://coloradoencyclopedia.org/article/city-and-county-broomfield"
      ]
     },
     {
      "start": 1908,
      "end": 1967,
      "headway_min": 1440,
      "note": "The Chicago, Burlington and Quincy bought control of the C&S in 1908, which is what made a Texas-to-Montana Burlington system possible: this line is the middle of it, carrying the Shoshone (trains 29 and 30, Denver - Casper - Wind River Canyon - Billings, 667 miles) which ran until September 1 1967. By its last year the Shoshone was down to a modernised heavyweight coach and storage mail cars. Drawn years end in 1967 with the end of C&S passenger service; Amtrak’s Pioneer used this same Front Range line from 1977 to 1997 and is drawn separately in data/amtrak_pioneer.geojson. headway_min 1440 = the Shoshone’s one train each way daily.",
      "sources": [
       "Segment-level: the 1908 CB&Q purchase is from the Wikipedia Colorado and Southern article; the Shoshone’s numbers, 667-mile length, final consist and September 1 1967 discontinuance are from the Wikipedia Shoshone article. avg_speed_kmh is an estimate.",
       "https://en.wikipedia.org/wiki/Colorado_and_Southern_Railway",
       "https://en.wikipedia.org/wiki/Shoshone_(train)"
      ]
     }
    ],
    "geometry_source": "Traced from OpenStreetMap route relations pulled whole from the OSM API: 1421774 BNSF Front Range Subdivision (Denver - Boulder - Longmont - Loveland - Fort Collins - Cheyenne - Chugwater - Wheatland - Wendover) and 7451875 BNSF Canyon Subdivision (Wendover - Orin Junction). Node-id graph, Dijkstra between the terminal towns, Douglas-Peucker at 15 m. Both are the ex-Colorado and Southern alignment, still BNSF freight track.",
    "geometry_quality": "Traced from the BNSF Front Range Subdivision relation (OSM 1421774): 115.6 traced miles Denver - Cheyenne, on the present-day alignment via Broomfield, Boulder, Longmont, Loveland and Fort Collins - the Shoshone’s own station list. Trace passes within 2.0 km of Boulder, 0.6 km of Loveland and 0.5 km of Fort Collins. No straight-line legs. The Denver end stops 2.1 km short of Denver Union Station, where the trace leaves the relation."
   },
   "geometry": {
    "type": "LineString",
    "coordinates": [
     [
      -104.99514,
      39.75771
     ],
     [
      -104.99445,
      39.75889
     ],
     [
      -104.99435,
      39.76061
     ],
     [
      -104.99502,
      39.76154
     ],
     [
      -104.99699,
      39.76299
     ],
     [
      -104.99744,
      39.76395
     ],
     [
      -104.9978,
      39.79741
     ],
     [
      -104.99854,
      39.79961
     ],
     [
      -104.99984,
      39.8019
     ],
     [
      -105.00202,
      39.80375
     ],
     [
      -105.00782,
      39.80656
     ],
     [
      -105.00991,
      39.80804
     ],
     [
      -105.01488,
      39.81515
     ],
     [
      -105.0161,
      39.81628
     ],
     [
      -105.04188,
      39.82909
     ],
     [
      -105.04434,
      39.83077
     ],
     [
      -105.04561,
      39.83232
     ],
     [
      -105.04637,
      39.83398
     ],
     [
      -105.04921,
      39.84782
     ],
     [
      -105.05016,
      39.84959
     ],
     [
      -105.05188,
      39.8513
     ],
     [
      -105.05439,
      39.85268
     ],
     [
      -105.06757,
      39.85774
     ],
     [
      -105.08896,
      39.87081
     ],
     [
      -105.091,
      39.87273
     ],
     [
      -105.09156,
      39.87408
     ],
     [
      -105.09164,
      39.87528
     ],
     [
      -105.09139,
      39.87649
     ],
     [
      -105.09066,
      39.87776
     ],
     [
      -105.0772,
      39.8899
     ],
     [
      -105.07618,
      39.89113
     ],
     [
      -105.07556,
      39.89252
     ],
     [
      -105.07556,
      39.89478
     ],
     [
      -105.08036,
      39.91142
     ],
     [
      -105.08203,
      39.91392
     ],
     [
      -105.08485,
      39.91584
     ],
     [
      -105.09896,
      39.92233
     ],
     [
      -105.10434,
      39.92315
     ],
     [
      -105.10672,
      39.92407
     ],
     [
      -105.12335,
      39.9354
     ],
     [
      -105.12425,
      39.93628
     ],
     [
      -105.1246,
      39.93751
     ],
     [
      -105.12424,
      39.93862
     ],
     [
      -105.11887,
      39.94437
     ],
     [
      -105.11851,
      39.94512
     ],
     [
      -105.11857,
      39.94594
     ],
     [
      -105.12585,
      39.96499
     ],
     [
      -105.12896,
      39.97167
     ],
     [
      -105.13213,
      39.98738
     ],
     [
      -105.14313,
      40.00136
     ],
     [
      -105.14975,
      40.00517
     ],
     [
      -105.16852,
      40.00859
     ],
     [
      -105.1769,
      40.00942
     ],
     [
      -105.17884,
      40.00991
     ],
     [
      -105.18154,
      40.01131
     ],
     [
      -105.18512,
      40.01645
     ],
     [
      -105.1869,
      40.01753
     ],
     [
      -105.19009,
      40.01768
     ],
     [
      -105.19827,
      40.01598
     ],
     [
      -105.20023,
      40.01587
     ],
     [
      -105.24617,
      40.02077
     ],
     [
      -105.24797,
      40.02126
     ],
     [
      -105.24943,
      40.02225
     ],
     [
      -105.25029,
      40.02348
     ],
     [
      -105.25052,
      40.02504
     ],
     [
      -105.25015,
      40.02626
     ],
     [
      -105.24725,
      40.03126
     ],
     [
      -105.2386,
      40.04546
     ],
     [
      -105.2374,
      40.04703
     ],
     [
      -105.22321,
      40.05836
     ],
     [
      -105.16028,
      40.11558
     ],
     [
      -105.14735,
      40.12319
     ],
     [
      -105.14585,
      40.12431
     ],
     [
      -105.11016,
      40.1591
     ],
     [
      -105.10871,
      40.1599
     ],
     [
      -105.10734,
      40.16023
     ],
     [
      -105.0988,
      40.16048
     ],
     [
      -105.09767,
      40.16101
     ],
     [
      -105.09672,
      40.16211
     ],
     [
      -105.0965,
      40.16307
     ],
     [
      -105.09643,
      40.17236
     ],
     [
      -105.09588,
      40.17331
     ],
     [
      -105.09355,
      40.1754
     ],
     [
      -105.09304,
      40.17716
     ],
     [
      -105.09309,
      40.23201
     ],
     [
      -105.09265,
      40.23302
     ],
     [
      -105.09195,
      40.23375
     ],
     [
      -105.08362,
      40.23902
     ],
     [
      -105.08237,
      40.24082
     ],
     [
      -105.07595,
      40.26161
     ],
     [
      -105.07579,
      40.26583
     ],
     [
      -105.0752,
      40.26892
     ],
     [
      -105.07498,
      40.28023
     ],
     [
      -105.07412,
      40.28385
     ],
     [
      -105.07377,
      40.28909
     ],
     [
      -105.07377,
      40.29137
     ],
     [
      -105.07424,
      40.29337
     ],
     [
      -105.07495,
      40.29512
     ],
     [
      -105.07682,
      40.29788
     ],
     [
      -105.07771,
      40.30084
     ],
     [
      -105.08212,
      40.36634
     ],
     [
      -105.08293,
      40.36802
     ],
     [
      -105.08538,
      40.37018
     ],
     [
      -105.08579,
      40.37135
     ],
     [
      -105.08527,
      40.37294
     ],
     [
      -105.08307,
      40.37479
     ],
     [
      -105.0824,
      40.37608
     ],
     [
      -105.08272,
      40.37868
     ],
     [
      -105.08276,
      40.38375
     ],
     [
      -105.08239,
      40.38509
     ],
     [
      -105.07687,
      40.39146
     ],
     [
      -105.07646,
      40.39237
     ],
     [
      -105.07592,
      40.40758
     ],
     [
      -105.0823,
      40.43192
     ],
     [
      -105.08448,
      40.43729
     ],
     [
      -105.0881,
      40.45073
     ],
     [
      -105.08875,
      40.45207
     ],
     [
      -105.09375,
      40.4589
     ],
     [
      -105.0945,
      40.46054
     ],
     [
      -105.09572,
      40.47873
     ],
     [
      -105.09561,
      40.47999
     ],
     [
      -105.09366,
      40.48743
     ],
     [
      -105.09098,
      40.49444
     ],
     [
      -105.08165,
      40.51018
     ],
     [
      -105.0812,
      40.51142
     ],
     [
      -105.07984,
      40.55891
     ],
     [
      -105.07899,
      40.56545
     ],
     [
      -105.07884,
      40.59131
     ],
     [
      -105.07844,
      40.59206
     ],
     [
      -105.07773,
      40.5926
     ],
     [
      -105.07238,
      40.59527
     ],
     [
      -105.07085,
      40.59566
     ],
     [
      -105.03967,
      40.59612
     ],
     [
      -105.02482,
      40.59603
     ],
     [
      -105.01227,
      40.60181
     ],
     [
      -105.01089,
      40.60308
     ],
     [
      -105.01067,
      40.60399
     ],
     [
      -105.01049,
      40.61651
     ],
     [
      -105.00962,
      40.6965
     ],
     [
      -105.00398,
      40.73203
     ],
     [
      -105.00342,
      40.7523
     ],
     [
      -105.00312,
      40.75525
     ],
     [
      -105.00195,
      40.75856
     ],
     [
      -105.001,
      40.76017
     ],
     [
      -104.9894,
      40.77471
     ],
     [
      -104.98765,
      40.77758
     ],
     [
      -104.97182,
      40.82632
     ],
     [
      -104.97141,
      40.82821
     ],
     [
      -104.97134,
      40.83063
     ],
     [
      -104.97173,
      40.83297
     ],
     [
      -104.97654,
      40.84637
     ],
     [
      -104.97721,
      40.84989
     ],
     [
      -104.97752,
      40.88784
     ],
     [
      -104.97434,
      40.90241
     ],
     [
      -104.97172,
      40.90722
     ],
     [
      -104.92253,
      40.98652
     ],
     [
      -104.92151,
      40.98797
     ],
     [
      -104.91898,
      40.99003
     ],
     [
      -104.91162,
      40.99317
     ],
     [
      -104.91059,
      40.99391
     ],
     [
      -104.90955,
      40.99479
     ],
     [
      -104.90829,
      40.99652
     ],
     [
      -104.90781,
      40.99773
     ],
     [
      -104.90625,
      41.00918
     ],
     [
      -104.90637,
      41.0106
     ],
     [
      -104.91098,
      41.02382
     ],
     [
      -104.9137,
      41.03652
     ],
     [
      -104.91456,
      41.03825
     ],
     [
      -104.91606,
      41.04006
     ],
     [
      -104.92095,
      41.04377
     ],
     [
      -104.92139,
      41.04497
     ],
     [
      -104.92094,
      41.04637
     ],
     [
      -104.9199,
      41.04726
     ],
     [
      -104.91819,
      41.04771
     ],
     [
      -104.90923,
      41.04653
     ],
     [
      -104.90514,
      41.04697
     ],
     [
      -104.8805,
      41.05569
     ],
     [
      -104.87827,
      41.05726
     ],
     [
      -104.85083,
      41.08261
     ],
     [
      -104.8388,
      41.09702
     ],
     [
      -104.83772,
      41.09907
     ],
     [
      -104.83627,
      41.11359
     ],
     [
      -104.83626,
      41.11896
     ],
     [
      -104.83668,
      41.12134
     ],
     [
      -104.83828,
      41.1251
     ],
     [
      -104.83829,
      41.12727
     ],
     [
      -104.83781,
      41.12856
     ],
     [
      -104.83709,
      41.12946
     ],
     [
      -104.8312,
      41.13473
     ],
     [
      -104.83078,
      41.13563
     ],
     [
      -104.83094,
      41.13646
     ]
    ]
   }
  },
  {
   "type": "Feature",
   "properties": {
    "company": "Colorado and Southern Railway (Burlington Route)",
    "line": "Colorado and Southern: Cheyenne – Orin Junction",
    "id": "cs-cheyenne-orin-junction",
    "color": "#8E1B3C",
    "mode": "intercity_rail",
    "avg_speed_kmh": 55,
    "speed_source": "Estimated, same basis as the Denver - Cheyenne feature: no Shoshone timetable running time was found.",
    "segments": [
     {
      "start": 1898,
      "end": 1908,
      "headway_min": 720,
      "note": "The old Cheyenne and Northern, plus the short Union Pacific extension from Wendover to Orin Junction, as the Colorado and Southern inherited them in 1898. Orin Junction is where this line met the Burlington’s own Wyoming trackage; the Casper line north from Orin, and the Big Horn Basin route beyond it, are drawn in data/cbq_big_horn_basin_line.geojson and connect to this feature’s north end exactly. headway_min is an unsourced estimate.",
      "sources": [
       "Segment-level: the 1898 succession and the UP extension to Orin are from the Wikipedia Cheyenne and Northern article. The exact year the Wendover - Orin extension opened is not sourced - see the layer’s not_yet_sourced field. headway_min and avg_speed_kmh are estimates.",
       "https://en.wikipedia.org/wiki/Cheyenne_and_Northern_Railway"
      ]
     },
     {
      "start": 1908,
      "end": 1967,
      "headway_min": 1440,
      "note": "Burlington-controlled from 1908 and the Wyoming half of the Denver - Billings route: the Shoshone came up this line from Cheyenne to Orin Junction before turning north-west for Casper, Thermopolis and the Wind River Canyon. Service ended with the train on September 1 1967. The last scheduled passenger train over the Burlington’s other Wyoming route - Alliance through Sheridan to Billings - ran on August 24 1969, two years later. headway_min 1440 = one train each way daily.",
      "sources": [
       "Segment-level: the September 1 1967 Shoshone discontinuance is from the Wikipedia Shoshone article; the August 24 1969 Alliance - Sheridan - Billings last train is from WyoHistory’s Burlington Route article. avg_speed_kmh is an estimate.",
       "https://en.wikipedia.org/wiki/Shoshone_(train)",
       "https://www.wyohistory.org/encyclopedia/burlington-route-wyomings-second-transcontinental-railroad"
      ]
     }
    ],
    "geometry_source": "Traced from OpenStreetMap route relations pulled whole from the OSM API: 1421774 BNSF Front Range Subdivision (Denver - Boulder - Longmont - Loveland - Fort Collins - Cheyenne - Chugwater - Wheatland - Wendover) and 7451875 BNSF Canyon Subdivision (Wendover - Orin Junction). Node-id graph, Dijkstra between the terminal towns, Douglas-Peucker at 15 m. Both are the ex-Colorado and Southern alignment, still BNSF freight track.",
    "geometry_quality": "Traced from the BNSF Front Range Subdivision (OSM 1421774) and Canyon Subdivision (OSM 7451875) relations: 151.5 traced miles Cheyenne - Wendover - Orin Junction. The north end lands exactly on the Orin Junction endpoint of cbq-casper-orin-junction in data/cbq_big_horn_basin_line.geojson (0.00 km), so Denver - Billings is now continuous on the map: 115.6 + 151.5 + 398 traced miles = about 665, against the 667 miles Wikipedia gives for the Shoshone. No straight-line legs."
   },
   "geometry": {
    "type": "LineString",
    "coordinates": [
     [
      -104.83094,
      41.13646
     ],
     [
      -104.83208,
      41.13741
     ],
     [
      -104.84565,
      41.14149
     ],
     [
      -104.85419,
      41.14657
     ],
     [
      -104.85811,
      41.14922
     ],
     [
      -104.86427,
      41.15216
     ],
     [
      -104.86872,
      41.15379
     ],
     [
      -104.86982,
      41.15471
     ],
     [
      -104.87357,
      41.15945
     ],
     [
      -104.88076,
      41.16394
     ],
     [
      -104.91315,
      41.18018
     ],
     [
      -104.91618,
      41.18118
     ],
     [
      -104.93209,
      41.18517
     ],
     [
      -104.94505,
      41.18704
     ],
     [
      -104.95987,
      41.18619
     ],
     [
      -104.9718,
      41.18412
     ],
     [
      -104.99241,
      41.17742
     ],
     [
      -104.99523,
      41.17716
     ],
     [
      -105.00612,
      41.17709
     ],
     [
      -105.0153,
      41.176
     ],
     [
      -105.02363,
      41.17665
     ],
     [
      -105.02554,
      41.17618
     ],
     [
      -105.03029,
      41.1738
     ],
     [
      -105.0325,
      41.17336
     ],
     [
      -105.04822,
      41.17608
     ],
     [
      -105.04989,
      41.17679
     ],
     [
      -105.05325,
      41.17916
     ],
     [
      -105.05925,
      41.18733
     ],
     [
      -105.0668,
      41.19402
     ],
     [
      -105.0683,
      41.19584
     ],
     [
      -105.07281,
      41.20453
     ],
     [
      -105.0826,
      41.2319
     ],
     [
      -105.08334,
      41.23334
     ],
     [
      -105.08528,
      41.23497
     ],
     [
      -105.10234,
      41.24433
     ],
     [
      -105.1114,
      41.25195
     ],
     [
      -105.11298,
      41.25392
     ],
     [
      -105.11786,
      41.27883
     ],
     [
      -105.11754,
      41.28084
     ],
     [
      -105.11283,
      41.29272
     ],
     [
      -105.11171,
      41.29999
     ],
     [
      -105.11198,
      41.30281
     ],
     [
      -105.11525,
      41.31035
     ],
     [
      -105.11748,
      41.31256
     ],
     [
      -105.12043,
      41.314
     ],
     [
      -105.12992,
      41.31544
     ],
     [
      -105.13315,
      41.31639
     ],
     [
      -105.13497,
      41.31746
     ],
     [
      -105.13908,
      41.32062
     ],
     [
      -105.14009,
      41.32163
     ],
     [
      -105.14079,
      41.32298
     ],
     [
      -105.14322,
      41.33354
     ],
     [
      -105.14422,
      41.33517
     ],
     [
      -105.15303,
      41.34028
     ],
     [
      -105.15457,
      41.34182
     ],
     [
      -105.15591,
      41.34416
     ],
     [
      -105.15704,
      41.34545
     ],
     [
      -105.1638,
      41.35075
     ],
     [
      -105.16901,
      41.35567
     ],
     [
      -105.17357,
      41.35784
     ],
     [
      -105.17457,
      41.35879
     ],
     [
      -105.17569,
      41.36636
     ],
     [
      -105.17676,
      41.36862
     ],
     [
      -105.17865,
      41.3713
     ],
     [
      -105.17895,
      41.37251
     ],
     [
      -105.17763,
      41.37607
     ],
     [
      -105.1763,
      41.38089
     ],
     [
      -105.17705,
      41.38757
     ],
     [
      -105.17692,
      41.38861
     ],
     [
      -105.17612,
      41.38966
     ],
     [
      -105.17223,
      41.39241
     ],
     [
      -105.17155,
      41.39365
     ],
     [
      -105.17169,
      41.39536
     ],
     [
      -105.1839,
      41.41292
     ],
     [
      -105.18553,
      41.41741
     ],
     [
      -105.18617,
      41.41831
     ],
     [
      -105.18779,
      41.41927
     ],
     [
      -105.20613,
      41.42602
     ],
     [
      -105.2072,
      41.4267
     ],
     [
      -105.20785,
      41.42751
     ],
     [
      -105.20816,
      41.42868
     ],
     [
      -105.20775,
      41.43008
     ],
     [
      -105.20697,
      41.43093
     ],
     [
      -105.20357,
      41.4332
     ],
     [
      -105.20296,
      41.4342
     ],
     [
      -105.20281,
      41.4351
     ],
     [
      -105.20346,
      41.43667
     ],
     [
      -105.20668,
      41.43961
     ],
     [
      -105.20921,
      41.44254
     ],
     [
      -105.20985,
      41.44425
     ],
     [
      -105.20972,
      41.44599
     ],
     [
      -105.20906,
      41.44792
     ],
     [
      -105.20792,
      41.44912
     ],
     [
      -105.20649,
      41.44974
     ],
     [
      -105.20302,
      41.45026
     ],
     [
      -105.20141,
      41.45117
     ],
     [
      -105.20067,
      41.45226
     ],
     [
      -105.20054,
      41.45363
     ],
     [
      -105.20328,
      41.45853
     ],
     [
      -105.20339,
      41.46378
     ],
     [
      -105.20441,
      41.46587
     ],
     [
      -105.20646,
      41.46711
     ],
     [
      -105.20795,
      41.46744
     ],
     [
      -105.21519,
      41.46736
     ],
     [
      -105.21736,
      41.46834
     ],
     [
      -105.21859,
      41.4698
     ],
     [
      -105.22157,
      41.47931
     ],
     [
      -105.22183,
      41.48471
     ],
     [
      -105.22271,
      41.49092
     ],
     [
      -105.22249,
      41.49262
     ],
     [
      -105.22031,
      41.50013
     ],
     [
      -105.22024,
      41.50508
     ],
     [
      -105.22063,
      41.50798
     ],
     [
      -105.21864,
      41.51094
     ],
     [
      -105.21825,
      41.51213
     ],
     [
      -105.21898,
      41.51693
     ],
     [
      -105.2208,
      41.52025
     ],
     [
      -105.221,
      41.52134
     ],
     [
      -105.22052,
      41.52675
     ],
     [
      -105.22143,
      41.53459
     ],
     [
      -105.2213,
      41.53561
     ],
     [
      -105.21672,
      41.54202
     ],
     [
      -105.21026,
      41.55718
     ],
     [
      -105.20973,
      41.55913
     ],
     [
      -105.20996,
      41.56314
     ],
     [
      -105.20935,
      41.56498
     ],
     [
      -105.19827,
      41.58048
     ],
     [
      -105.19717,
      41.5815
     ],
     [
      -105.18532,
      41.58545
     ],
     [
      -105.16587,
      41.58966
     ],
     [
      -105.16252,
      41.59078
     ],
     [
      -105.15978,
      41.59285
     ],
     [
      -105.15679,
      41.59699
     ],
     [
      -105.15122,
      41.6012
     ],
     [
      -105.1493,
      41.60208
     ],
     [
      -105.13978,
      41.6052
     ],
     [
      -105.13686,
      41.60677
     ],
     [
      -105.13527,
      41.60842
     ],
     [
      -105.13202,
      41.61308
     ],
     [
      -105.12983,
      41.61558
     ],
     [
      -105.1261,
      41.61885
     ],
     [
      -105.12261,
      41.62124
     ],
     [
      -105.08665,
      41.6435
     ],
     [
      -105.06151,
      41.65491
     ],
     [
      -105.05889,
      41.65562
     ],
     [
      -105.05634,
      41.6558
     ],
     [
      -105.04874,
      41.65482
     ],
     [
      -105.04239,
      41.65644
     ],
     [
      -105.03206,
      41.65697
     ],
     [
      -105.01866,
      41.6591
     ],
     [
      -104.99312,
      41.66684
     ],
     [
      -104.97184,
      41.67748
     ],
     [
      -104.94991,
      41.68647
     ],
     [
      -104.90622,
      41.71524
     ],
     [
      -104.87096,
      41.73686
     ],
     [
      -104.86875,
      41.73779
     ],
     [
      -104.83704,
      41.74814
     ],
     [
      -104.82405,
      41.754
     ],
     [
      -104.80593,
      41.76561
     ],
     [
      -104.79641,
      41.77279
     ],
     [
      -104.79515,
      41.77398
     ],
     [
      -104.79218,
      41.77775
     ],
     [
      -104.79025,
      41.78091
     ],
     [
      -104.78954,
      41.783
     ],
     [
      -104.7892,
      41.78531
     ],
     [
      -104.78993,
      41.79425
     ],
     [
      -104.79399,
      41.80224
     ],
     [
      -104.80242,
      41.82395
     ],
     [
      -104.80575,
      41.8391
     ],
     [
      -104.80644,
      41.84125
     ],
     [
      -104.80883,
      41.84505
     ],
     [
      -104.82034,
      41.85546
     ],
     [
      -104.82134,
      41.85726
     ],
     [
      -104.82227,
      41.87518
     ],
     [
      -104.81951,
      41.89197
     ],
     [
      -104.81985,
      41.89483
     ],
     [
      -104.83071,
      41.91379
     ],
     [
      -104.83803,
      41.92929
     ],
     [
      -104.83999,
      41.93116
     ],
     [
      -104.86392,
      41.95034
     ],
     [
      -104.86517,
      41.95164
     ],
     [
      -104.8669,
      41.9545
     ],
     [
      -104.86784,
      41.95556
     ],
     [
      -104.87956,
      41.96593
     ],
     [
      -104.88316,
      41.96831
     ],
     [
      -104.88728,
      41.97
     ],
     [
      -104.91073,
      41.97814
     ],
     [
      -104.9131,
      41.97803
     ],
     [
      -104.92135,
      41.97483
     ],
     [
      -104.92317,
      41.97486
     ],
     [
      -104.92477,
      41.97563
     ],
     [
      -104.92749,
      41.98023
     ],
     [
      -104.9276,
      41.98164
     ],
     [
      -104.92713,
      41.98576
     ],
     [
      -104.92752,
      41.98695
     ],
     [
      -104.93301,
      41.99355
     ],
     [
      -104.93998,
      41.99876
     ],
     [
      -104.9408,
      41.99971
     ],
     [
      -104.94109,
      42.00065
     ],
     [
      -104.94131,
      42.00634
     ],
     [
      -104.94239,
      42.00928
     ],
     [
      -104.94669,
      42.01213
     ],
     [
      -104.95545,
      42.01401
     ],
     [
      -104.95686,
      42.01509
     ],
     [
      -104.95744,
      42.01647
     ],
     [
      -104.95875,
      42.02806
     ],
     [
      -104.95079,
      42.05162
     ],
     [
      -104.95265,
      42.06761
     ],
     [
      -104.95141,
      42.07573
     ],
     [
      -104.95084,
      42.09489
     ],
     [
      -104.95021,
      42.09782
     ],
     [
      -104.94925,
      42.09932
     ],
     [
      -104.94804,
      42.1005
     ],
     [
      -104.94522,
      42.10212
     ],
     [
      -104.92321,
      42.10761
     ],
     [
      -104.91448,
      42.11193
     ],
     [
      -104.91298,
      42.11346
     ],
     [
      -104.91101,
      42.1184
     ],
     [
      -104.9061,
      42.12339
     ],
     [
      -104.90555,
      42.12426
     ],
     [
      -104.90545,
      42.12512
     ],
     [
      -104.90585,
      42.12615
     ],
     [
      -104.9071,
      42.12715
     ],
     [
      -104.92287,
      42.13219
     ],
     [
      -104.92515,
      42.13314
     ],
     [
      -104.94237,
      42.14388
     ],
     [
      -104.9442,
      42.14535
     ],
     [
      -104.94536,
      42.14692
     ],
     [
      -104.94932,
      42.15788
     ],
     [
      -104.95241,
      42.17058
     ],
     [
      -104.95253,
      42.18284
     ],
     [
      -104.9546,
      42.19559
     ],
     [
      -104.95446,
      42.19763
     ],
     [
      -104.9537,
      42.19943
     ],
     [
      -104.94891,
      42.20758
     ],
     [
      -104.94716,
      42.20972
     ],
     [
      -104.93966,
      42.21525
     ],
     [
      -104.93349,
      42.21699
     ],
     [
      -104.92934,
      42.21726
     ],
     [
      -104.92795,
      42.21765
     ],
     [
      -104.92663,
      42.21882
     ],
     [
      -104.92641,
      42.22032
     ],
     [
      -104.92703,
      42.22141
     ],
     [
      -104.92995,
      42.22458
     ],
     [
      -104.93732,
      42.23091
     ],
     [
      -104.96093,
      42.24419
     ],
     [
      -104.96838,
      42.24956
     ],
     [
      -104.96968,
      42.25078
     ],
     [
      -104.97114,
      42.25276
     ],
     [
      -104.97156,
      42.25358
     ],
     [
      -104.97161,
      42.25456
     ],
     [
      -104.97078,
      42.25584
     ],
     [
      -104.96956,
      42.25651
     ],
     [
      -104.96272,
      42.25825
     ],
     [
      -104.95693,
      42.26082
     ],
     [
      -104.95293,
      42.26173
     ],
     [
      -104.94435,
      42.26502
     ],
     [
      -104.93916,
      42.26908
     ],
     [
      -104.93782,
      42.26978
     ],
     [
      -104.92994,
      42.2715
     ],
     [
      -104.92264,
      42.27143
     ],
     [
      -104.91874,
      42.27199
     ],
     [
      -104.91176,
      42.27025
     ],
     [
      -104.90994,
      42.27027
     ],
     [
      -104.90803,
      42.2713
     ],
     [
      -104.90472,
      42.27541
     ],
     [
      -104.90385,
      42.2761
     ],
     [
      -104.90211,
      42.27659
     ],
     [
      -104.89652,
      42.27622
     ],
     [
      -104.89452,
      42.27654
     ],
     [
      -104.89272,
      42.27767
     ],
     [
      -104.8921,
      42.27857
     ],
     [
      -104.89184,
      42.27962
     ],
     [
      -104.89254,
      42.28243
     ],
     [
      -104.89928,
      42.29268
     ],
     [
      -104.90179,
      42.30046
     ],
     [
      -104.90167,
      42.30177
     ],
     [
      -104.90069,
      42.30313
     ],
     [
      -104.8918,
      42.31206
     ],
     [
      -104.87922,
      42.3229
     ],
     [
      -104.87404,
      42.32594
     ],
     [
      -104.8736,
      42.3267
     ],
     [
      -104.87354,
      42.32768
     ],
     [
      -104.87763,
      42.33733
     ],
     [
      -104.87899,
      42.33935
     ],
     [
      -104.88198,
      42.34244
     ],
     [
      -104.88399,
      42.34349
     ],
     [
      -104.89082,
      42.34487
     ],
     [
      -104.89788,
      42.34711
     ],
     [
      -104.90188,
      42.34952
     ],
     [
      -104.90468,
      42.35282
     ],
     [
      -104.90849,
      42.35538
     ],
     [
      -104.90965,
      42.35667
     ],
     [
      -104.9102,
      42.35853
     ],
     [
      -104.90961,
      42.36169
     ],
     [
      -104.9083,
      42.3655
     ],
     [
      -104.90538,
      42.36953
     ],
     [
      -104.90459,
      42.37252
     ],
     [
      -104.90476,
      42.37378
     ],
     [
      -104.90684,
      42.37797
     ],
     [
      -104.90787,
      42.38082
     ],
     [
      -104.90938,
      42.38206
     ],
     [
      -104.91315,
      42.38302
     ],
     [
      -104.91478,
      42.38397
     ],
     [
      -104.91559,
      42.38528
     ],
     [
      -104.9159,
      42.38817
     ],
     [
      -104.91671,
      42.38934
     ],
     [
      -104.91781,
      42.39015
     ],
     [
      -104.91933,
      42.39074
     ],
     [
      -104.92091,
      42.39093
     ],
     [
      -104.92444,
      42.39039
     ],
     [
      -104.92606,
      42.39042
     ],
     [
      -104.92935,
      42.39152
     ],
     [
      -104.94604,
      42.40249
     ],
     [
      -104.94878,
      42.40476
     ],
     [
      -104.94974,
      42.40627
     ],
     [
      -104.95022,
      42.4078
     ],
     [
      -104.95091,
      42.41836
     ],
     [
      -104.95073,
      42.41997
     ],
     [
      -104.9494,
      42.42373
     ],
     [
      -104.94972,
      42.42594
     ],
     [
      -104.95152,
      42.42801
     ],
     [
      -104.9587,
      42.43163
     ],
     [
      -104.96152,
      42.43415
     ],
     [
      -104.96507,
      42.43647
     ],
     [
      -104.96637,
      42.43808
     ],
     [
      -104.96746,
      42.44097
     ],
     [
      -104.96757,
      42.44684
     ],
     [
      -104.96732,
      42.44777
     ],
     [
      -104.96534,
      42.45093
     ],
     [
      -104.96525,
      42.45265
     ],
     [
      -104.96948,
      42.45941
     ],
     [
      -104.97107,
      42.46113
     ],
     [
      -104.97461,
      42.46336
     ],
     [
      -104.9894,
      42.46913
     ],
     [
      -104.99276,
      42.47003
     ],
     [
      -105.00375,
      42.4721
     ],
     [
      -105.00701,
      42.47345
     ],
     [
      -105.00904,
      42.47511
     ],
     [
      -105.01026,
      42.47687
     ],
     [
      -105.0125,
      42.48416
     ],
     [
      -105.01361,
      42.48617
     ],
     [
      -105.01544,
      42.48789
     ],
     [
      -105.02299,
      42.49255
     ],
     [
      -105.02533,
      42.49484
     ],
     [
      -105.02704,
      42.49799
     ],
     [
      -105.02745,
      42.49991
     ],
     [
      -105.02747,
      42.50174
     ],
     [
      -105.0268,
      42.50417
     ],
     [
      -105.02439,
      42.50892
     ],
     [
      -105.0239,
      42.5108
     ],
     [
      -105.02501,
      42.52211
     ],
     [
      -105.02617,
      42.52559
     ],
     [
      -105.03571,
      42.5493
     ],
     [
      -105.03789,
      42.5528
     ],
     [
      -105.04607,
      42.56158
     ],
     [
      -105.04744,
      42.56231
     ],
     [
      -105.05317,
      42.56415
     ],
     [
      -105.06703,
      42.57226
     ],
     [
      -105.06998,
      42.57479
     ],
     [
      -105.07179,
      42.57816
     ],
     [
      -105.07208,
      42.58075
     ],
     [
      -105.07144,
      42.58355
     ],
     [
      -105.06848,
      42.58846
     ],
     [
      -105.06851,
      42.58949
     ],
     [
      -105.06946,
      42.59113
     ],
     [
      -105.0713,
      42.59218
     ],
     [
      -105.08088,
      42.59452
     ],
     [
      -105.08248,
      42.5952
     ],
     [
      -105.08787,
      42.5993
     ],
     [
      -105.16886,
      42.65112
     ]
    ]
   }
  }
 ]
}