{
 "type": "FeatureCollection",
 "metadata": {
  "note": "The Columbus & Hocking Valley Railroad, Columbus to Athens, Ohio - added 2026-08-27 at the user's request. Before this the dataset had nine lines within 12 km of Columbus but nothing at all at Lancaster, Logan or Nelsonville. Incorporated as the Mineral Rail Road in 1864 and renamed when Columbus money finished it in 1867, the C&HV opened in four steps between 16 July 1868 and 25 July 1870 and was built to move Hocking Valley salt and coal - but it carried passengers throughout, three trains a day each way at the peak. It consolidated in 1881 into the Columbus, Hocking Valley & Toledo, was reorganised in 1899 as the Hocking Valley Railway, and was merged into the Chesapeake & Ohio on 30 April 1930 as its Hocking Division. Passenger service on the C&O's lines east of Columbus ended on 31 December 1949. Passengers returned in 1972 with the volunteer Hocking Valley Scenic Railway, which since 1985 has run 12 mi of the original grade between Nelsonville and East Logan and is drawn here as mode 'tourist_rail'.\n\nOnly the C&HV's own Columbus-Athens line is drawn. The Columbus-Toledo line (Columbus & Toledo Railway, 1876-77) and the Logan-Gallipolis-Pomeroy line (Ohio & West Virginia Railway, 1880-81) came into the same company in 1881 but were built by different concerns and are not in this file. Neither are the Straitsville, Monday Creek and Snow Fork branches, which were coal lines - Rule 1.",
  "geometry_source": "OpenStreetMap, fetched 2026-08-27. Route relations 17423903 (Indiana & Ohio Logan Subdivision) and 17423809 (Hocking Valley Scenic Railway) pulled whole from the OSM API and chained by shared node ids, plus Overpass bbox dumps for the Columbus terminal approach and for the Nelsonville-Athens grade, the latter surviving as the Hockhocking Adena Bikeway and tagged old_railway_operator=C&O. Douglas-Peucker simplified at 25 m.",
  "mileage_check": "75.43 mi Columbus-Athens against a documented ~75, with Canal Winchester at 15.4 mi, Lancaster 30.8, Logan 50.1, Nelsonville 62.0. Hocking Valley Scenic Railway 12.39 mi against a documented 12.",
  "not_yet_sourced": [
   "The month of the 1881 consolidation into the Columbus, Hocking Valley & Toledo is a live conflict: Abandoned Online says July 1881, Wikipedia says August 1881. Neither has been checked against a primary source and the drawn year, 1881, is unaffected either way.",
   "Every headway_min here is an estimate except the three-trains-a-day figure for the C&HV's Columbus-Athens service at its peak, and even that is not tied to a particular year.",
   "The 31 December 1949 end of passenger service is sourced to the Hocking Valley Scenic Railway's own history and a Hawkins Rails page, not to a timetable or an ICC filing.",
   "The Hocking Valley Scenic Railway's 1972-1985 routes - roughly seven miles of the Monday Creek branch to Carbon Hill until it was scrapped in 1983, then Nelsonville to Glen Ebon - are not drawn. Glen Ebon's location was not established.",
   "The tourist railway's 720-minute headway is a placeholder. It runs weekends and seasonally, not daily, and this dataset has no field that expresses that.",
   "The Columbus-Toledo and Logan-Gallipolis-Pomeroy lines of the same company, and the passenger service on them, are not covered.",
   "The Columbus and Athens terminal approaches are not drawn: the line stops 1.35 km short of the Union Station site and 1.34 km short of the Athens depot site."
  ],
  "sources": [
   "https://abandonedonline.net/location/hocking-valley-railway/ (Mineral Rail Road incorporated 14 April 1864; Greene's 1867 purchase and the naming condition; 22 May 1867 construction contract; openings 16 July 1868 Canal Winchester, 13 January 1869 Lancaster, 17 August 1869 Nelsonville, 25 July 1870 Athens; Straitsville Branch 2 January 1871; Columbus & Toledo 1876-77; Ohio & West Virginia 1880-81; consolidation July 1881; C&O; Hocking Valley Scenic Railway route history)",
   "https://en.wikipedia.org/wiki/Hocking_Valley_Railway (C&T incorporated 1872; Gallipolis, McArthur & Columbus 1870; consolidation August 1881; receivership 1897 and February 1899 reorganisation as the Hocking Valley Railway; C&O control March 1910 and merger April 1930; 349 miles of road on 881 miles of track at the end of 1925; Toledo-Columbus now CSX's Columbus Subdivision)",
   "https://www.hvsry.org/about/ (regular passenger service to Lancaster 1869; first freight from Nelsonville 17 August 1869 with the cannon; full service to Athens summer 1870; three daily passenger trains each way Columbus-Athens at the peak)",
   "https://hawkinsrails.net/preservation/hvsr/hvsr.htm (Hocking Valley merged into the C&O 30 April 1930 as the Hocking Division; passenger service east of Columbus ended 31 December 1949)",
   "https://en.wikipedia.org/wiki/Hocking_Valley_Scenic_Railway (Hocking Valley Scenic Railway founded 1972; Monday Creek branch to Carbon Hill; branch scrapped 1983; present 12 mi Nelsonville-East Logan route; ex-C&O, originally Hocking Valley trackage)"
  ],
  "rule_notes": "Rule 1: this was a coal road, so the test matters here. The drawn years stop at 31 December 1949 when passenger service east of Columbus ended, though C&O freight ran on for decades and part of the line is worked today by the Indiana & Ohio. The Straitsville, Monday Creek and Snow Fork branches are coal lines with no passenger service and are not drawn at all. The Hocking Valley Scenic Railway IS drawn, from 1985, because tourist and heritage excursions count as passenger service under Rule 1 - it carries mode 'tourist_rail'. Rule 4: the Chesapeake and Ohio Railway reuses this dataset's existing #1B4D3E; the Columbus & Hocking Valley (#AA00FF), the Columbus, Hocking Valley & Toledo (#6200EA), the Hocking Valley Railway (#1A237E) and the Hocking Valley Scenic Railway (#00C853) are new to it, and each successor takes over the drawn years at the date it took over the trains."
 },
 "features": [
  {
   "type": "Feature",
   "properties": {
    "company": "Columbus and Hocking Valley Railroad",
    "line": "Columbus & Hocking Valley: Columbus – Canal Winchester",
    "id": "chv-columbus-canal-winchester",
    "color": "#AA00FF",
    "mode": "intercity_rail",
    "avg_speed_kmh": 30,
    "speed_source": "estimated: 1860s steam operation on a new coal road; estimated; no timetable consulted",
    "geometry_quality": "Traced from OSM with almost no bridging - 75.43 mi Columbus-Athens against a route documented at about 75 mi, and the intermediate distances land where the Hocking Valley's own mileposts did: Canal Winchester 15.4 mi, Lancaster 30.8, Logan 50.1, Nelsonville 62.0, Athens 75.4. Assembled from four sources chained by shared nodes: an ex-C&O belt and downtown approach through Columbus, relation 17423903 (Indiana & Ohio Logan Subdivision) for Columbus-Logan, relation 17423809 (Hocking Valley Scenic Railway) for Logan-Nelsonville, and railway=abandoned ways tagged old_railway_operator=C&O and named 'Hockhocking Adena Bikeway' - the rail-trail on the old grade - for Nelsonville-Athens. Three straight-line bridges, the largest 0.34 km. The north end stops 1.35 km short of the Columbus Union Station site and the south end 1.34 km short of the Athens depot site; both terminal areas have been rebuilt and their original trackage is not in OSM. Sliced at Canal Winchester for this feature.",
    "segments": [
     {
      "start": 1868,
      "end": 1881,
      "headway_min": 1440,
      "note": "The first piece of the C&HV to open, on 16 July 1868. The company began as the Mineral Rail Road, incorporated 14 April 1864 to build Columbus-Athens; Milbury Greene, a salt works operator at Salina, bought it in 1867, talked Columbus money into finishing it, and the backers made renaming it the Columbus & Hocking Valley a condition of the finance. The point of the line was salt and coal out of the Hocking Valley, but it carried passengers from the start. Frequency estimated.",
      "sources": [
       "Segment-level: the 14 April 1864 Mineral Rail Road incorporation, Greene's 1867 purchase and the naming condition, the 22 May 1867 construction contract and the 16 July 1868 opening to Canal Winchester, all from Abandoned Online.",
       "https://abandonedonline.net/location/hocking-valley-railway/"
      ]
     }
    ]
   },
   "geometry": {
    "type": "LineString",
    "coordinates": [
     [
      -83.013838,
      39.965903
     ],
     [
      -83.012266,
      39.962863
     ],
     [
      -83.011159,
      39.958284
     ],
     [
      -83.009478,
      39.956368
     ],
     [
      -83.004156,
      39.948261
     ],
     [
      -83.000872,
      39.945296
     ],
     [
      -82.998739,
      39.941177
     ],
     [
      -82.998598,
      39.934559
     ],
     [
      -82.997784,
      39.930156
     ],
     [
      -82.998273,
      39.925317
     ],
     [
      -82.997544,
      39.923304
     ],
     [
      -82.98548,
      39.913588
     ],
     [
      -82.980523,
      39.907929
     ],
     [
      -82.964224,
      39.89519
     ],
     [
      -82.962376,
      39.892983
     ],
     [
      -82.960552,
      39.894242
     ],
     [
      -82.955201,
      39.891332
     ],
     [
      -82.911479,
      39.87747
     ],
     [
      -82.907016,
      39.874594
     ],
     [
      -82.887006,
      39.857745
     ],
     [
      -82.88229,
      39.855481
     ],
     [
      -82.878383,
      39.854856
     ],
     [
      -82.864218,
      39.854664
     ],
     [
      -82.802643,
      39.8452
     ]
    ]
   }
  },
  {
   "type": "Feature",
   "properties": {
    "company": "Columbus and Hocking Valley Railroad",
    "line": "Columbus & Hocking Valley: Canal Winchester – Nelsonville",
    "id": "chv-canal-winchester-nelsonville",
    "color": "#AA00FF",
    "mode": "intercity_rail",
    "avg_speed_kmh": 32,
    "speed_source": "estimated; estimated; no timetable consulted",
    "geometry_quality": "Traced from OSM with almost no bridging - 75.43 mi Columbus-Athens against a route documented at about 75 mi, and the intermediate distances land where the Hocking Valley's own mileposts did: Canal Winchester 15.4 mi, Lancaster 30.8, Logan 50.1, Nelsonville 62.0, Athens 75.4. Assembled from four sources chained by shared nodes: an ex-C&O belt and downtown approach through Columbus, relation 17423903 (Indiana & Ohio Logan Subdivision) for Columbus-Logan, relation 17423809 (Hocking Valley Scenic Railway) for Logan-Nelsonville, and railway=abandoned ways tagged old_railway_operator=C&O and named 'Hockhocking Adena Bikeway' - the rail-trail on the old grade - for Nelsonville-Athens. Three straight-line bridges, the largest 0.34 km. The north end stops 1.35 km short of the Columbus Union Station site and the south end 1.34 km short of the Athens depot site; both terminal areas have been rebuilt and their original trackage is not in OSM. Sliced between Canal Winchester and Nelsonville for this feature.",
    "segments": [
     {
      "start": 1869,
      "end": 1881,
      "headway_min": 1440,
      "note": "Opened in two steps within one year: Canal Winchester to Lancaster on 13 January 1869 and Lancaster to Nelsonville on 17 August 1869, so both fall in the same drawn year and are one feature here. Regular passenger service was running to Lancaster in 1869. The first freight train up from Nelsonville reached Columbus on 17 August 1869 with a cannon aboard, fired at each town on the way to announce it. Frequency estimated.",
      "sources": [
       "Segment-level: the 13 January 1869 opening to Lancaster, the 17 August 1869 opening to Nelsonville and the cannon-firing first freight from Abandoned Online; the 1869 start of regular passenger service to Lancaster from the Hocking Valley Scenic Railway's own history page. Headway unsourced.",
       "https://abandonedonline.net/location/hocking-valley-railway/",
       "https://www.hvsry.org/about/"
      ]
     }
    ]
   },
   "geometry": {
    "type": "LineString",
    "coordinates": [
     [
      -82.802643,
      39.8452
     ],
     [
      -82.78431,
      39.843812
     ],
     [
      -82.726979,
      39.829662
     ],
     [
      -82.723227,
      39.828067
     ],
     [
      -82.721618,
      39.826688
     ],
     [
      -82.72032,
      39.824794
     ],
     [
      -82.713757,
      39.808433
     ],
     [
      -82.713021,
      39.80376
     ],
     [
      -82.693151,
      39.782529
     ],
     [
      -82.688952,
      39.776423
     ],
     [
      -82.687652,
      39.769622
     ],
     [
      -82.686287,
      39.767094
     ],
     [
      -82.673723,
      39.757979
     ],
     [
      -82.660244,
      39.74584
     ],
     [
      -82.643691,
      39.73684
     ],
     [
      -82.633524,
      39.729296
     ],
     [
      -82.627797,
      39.72489
     ],
     [
      -82.610402,
      39.709599
     ],
     [
      -82.608464,
      39.708725
     ],
     [
      -82.606291,
      39.708364
     ],
     [
      -82.600783,
      39.709322
     ],
     [
      -82.595276,
      39.709184
     ],
     [
      -82.592425,
      39.708335
     ],
     [
      -82.59092,
      39.707386
     ],
     [
      -82.581316,
      39.693753
     ],
     [
      -82.566707,
      39.679948
     ],
     [
      -82.557423,
      39.666766
     ],
     [
      -82.554979,
      39.662498
     ],
     [
      -82.554536,
      39.659933
     ],
     [
      -82.555746,
      39.650982
     ],
     [
      -82.552713,
      39.644457
     ],
     [
      -82.549566,
      39.621207
     ],
     [
      -82.547798,
      39.616607
     ],
     [
      -82.547486,
      39.611724
     ],
     [
      -82.546849,
      39.60958
     ],
     [
      -82.542432,
      39.603875
     ],
     [
      -82.541738,
      39.602337
     ],
     [
      -82.541796,
      39.596115
     ],
     [
      -82.541044,
      39.594171
     ],
     [
      -82.539797,
      39.592759
     ],
     [
      -82.538293,
      39.591735
     ],
     [
      -82.535575,
      39.590835
     ],
     [
      -82.533006,
      39.59082
     ],
     [
      -82.528758,
      39.591782
     ],
     [
      -82.525414,
      39.591316
     ],
     [
      -82.522692,
      39.589553
     ],
     [
      -82.520457,
      39.586146
     ],
     [
      -82.517229,
      39.584131
     ],
     [
      -82.514133,
      39.583265
     ],
     [
      -82.508875,
      39.583172
     ],
     [
      -82.506862,
      39.582654
     ],
     [
      -82.505056,
      39.581609
     ],
     [
      -82.502389,
      39.579189
     ],
     [
      -82.49991,
      39.578246
     ],
     [
      -82.497787,
      39.578095
     ],
     [
      -82.495644,
      39.578479
     ],
     [
      -82.488428,
      39.581641
     ],
     [
      -82.485828,
      39.581608
     ],
     [
      -82.483863,
      39.580893
     ],
     [
      -82.482629,
      39.579967
     ],
     [
      -82.481664,
      39.578547
     ],
     [
      -82.48151,
      39.573312
     ],
     [
      -82.47814,
      39.569105
     ],
     [
      -82.476374,
      39.562037
     ],
     [
      -82.473876,
      39.558381
     ],
     [
      -82.472209,
      39.554585
     ],
     [
      -82.469306,
      39.551503
     ],
     [
      -82.465237,
      39.549371
     ],
     [
      -82.461749,
      39.548654
     ],
     [
      -82.453929,
      39.550385
     ],
     [
      -82.449709,
      39.550105
     ],
     [
      -82.441083,
      39.547169
     ],
     [
      -82.432743,
      39.542152
     ],
     [
      -82.41435,
      39.536688
     ],
     [
      -82.401217,
      39.53505
     ],
     [
      -82.399351,
      39.534446
     ],
     [
      -82.400159,
      39.53532
     ],
     [
      -82.399625,
      39.536927
     ],
     [
      -82.401241,
      39.535595
     ],
     [
      -82.40312,
      39.535287
     ],
     [
      -82.399351,
      39.534446
     ],
     [
      -82.374619,
      39.523296
     ],
     [
      -82.356568,
      39.511643
     ],
     [
      -82.346407,
      39.5009
     ],
     [
      -82.331587,
      39.487972
     ],
     [
      -82.330122,
      39.486109
     ],
     [
      -82.326336,
      39.477265
     ],
     [
      -82.325072,
      39.475717
     ],
     [
      -82.31756,
      39.470762
     ],
     [
      -82.309723,
      39.464213
     ],
     [
      -82.298117,
      39.458259
     ],
     [
      -82.295807,
      39.457568
     ],
     [
      -82.273049,
      39.454453
     ],
     [
      -82.270906,
      39.454968
     ],
     [
      -82.269208,
      39.455901
     ],
     [
      -82.26502,
      39.460758
     ],
     [
      -82.263465,
      39.461959
     ],
     [
      -82.261382,
      39.462788
     ],
     [
      -82.258886,
      39.463045
     ],
     [
      -82.256086,
      39.462562
     ],
     [
      -82.247793,
      39.459418
     ],
     [
      -82.245444,
      39.459165
     ],
     [
      -82.236199,
      39.459307
     ],
     [
      -82.234096,
      39.458824
     ],
     [
      -82.231516,
      39.457527
     ]
    ]
   }
  },
  {
   "type": "Feature",
   "properties": {
    "company": "Columbus and Hocking Valley Railroad",
    "line": "Columbus & Hocking Valley: Nelsonville – Athens",
    "id": "chv-nelsonville-athens",
    "color": "#AA00FF",
    "mode": "intercity_rail",
    "avg_speed_kmh": 32,
    "speed_source": "estimated; estimated; no timetable consulted",
    "geometry_quality": "Traced from OSM with almost no bridging - 75.43 mi Columbus-Athens against a route documented at about 75 mi, and the intermediate distances land where the Hocking Valley's own mileposts did: Canal Winchester 15.4 mi, Lancaster 30.8, Logan 50.1, Nelsonville 62.0, Athens 75.4. Assembled from four sources chained by shared nodes: an ex-C&O belt and downtown approach through Columbus, relation 17423903 (Indiana & Ohio Logan Subdivision) for Columbus-Logan, relation 17423809 (Hocking Valley Scenic Railway) for Logan-Nelsonville, and railway=abandoned ways tagged old_railway_operator=C&O and named 'Hockhocking Adena Bikeway' - the rail-trail on the old grade - for Nelsonville-Athens. Three straight-line bridges, the largest 0.34 km. The north end stops 1.35 km short of the Columbus Union Station site and the south end 1.34 km short of the Athens depot site; both terminal areas have been rebuilt and their original trackage is not in OSM. Sliced at Nelsonville for this feature.",
    "segments": [
     {
      "start": 1870,
      "end": 1881,
      "headway_min": 480,
      "note": "The last stretch, Nelsonville to Athens, opened 25 July 1870 and completed the Columbus-Athens line the company had been chartered for. At the height of the boom three passenger trains a day ran each way between Columbus and Athens, which is the headway estimated here. The Straitsville Branch from Logan to New Straitsville followed on 2 January 1871; it and the Monday Creek and Snow Fork branches were coal lines and are not drawn, per Rule 1.",
      "sources": [
       "Segment-level: the 25 July 1870 opening to Athens and the 2 January 1871 Straitsville Branch from Abandoned Online; the three daily passenger trains each way Columbus-Athens from the Hocking Valley Scenic Railway's history page - the only frequency figure in this file with a source behind it.",
       "https://abandonedonline.net/location/hocking-valley-railway/",
       "https://www.hvsry.org/about/"
      ]
     }
    ]
   },
   "geometry": {
    "type": "LineString",
    "coordinates": [
     [
      -82.231516,
      39.457527
     ],
     [
      -82.228691,
      39.454945
     ],
     [
      -82.214487,
      39.434281
     ],
     [
      -82.212517,
      39.432858
     ],
     [
      -82.202977,
      39.428436
     ],
     [
      -82.198877,
      39.427157
     ],
     [
      -82.196957,
      39.425786
     ],
     [
      -82.195886,
      39.423732
     ],
     [
      -82.193265,
      39.410522
     ],
     [
      -82.191444,
      39.40668
     ],
     [
      -82.189467,
      39.40402
     ],
     [
      -82.187601,
      39.403337
     ],
     [
      -82.182612,
      39.402846
     ],
     [
      -82.172978,
      39.400173
     ],
     [
      -82.171599,
      39.399502
     ],
     [
      -82.169612,
      39.397558
     ],
     [
      -82.168322,
      39.39421
     ],
     [
      -82.164922,
      39.388942
     ],
     [
      -82.161735,
      39.386397
     ],
     [
      -82.159548,
      39.385438
     ],
     [
      -82.15506,
      39.385098
     ],
     [
      -82.146841,
      39.386637
     ],
     [
      -82.142489,
      39.386895
     ],
     [
      -82.141061,
      39.387598
     ],
     [
      -82.137953,
      39.390649
     ],
     [
      -82.135081,
      39.39203
     ],
     [
      -82.133557,
      39.392354
     ],
     [
      -82.131261,
      39.391789
     ],
     [
      -82.125994,
      39.388292
     ],
     [
      -82.119262,
      39.385821
     ],
     [
      -82.116274,
      39.383535
     ],
     [
      -82.115152,
      39.381108
     ],
     [
      -82.114655,
      39.371553
     ],
     [
      -82.117712,
      39.362597
     ],
     [
      -82.117628,
      39.360831
     ],
     [
      -82.116304,
      39.359263
     ],
     [
      -82.107527,
      39.354731
     ],
     [
      -82.102305,
      39.349901
     ],
     [
      -82.101509,
      39.347484
     ],
     [
      -82.101799,
      39.346059
     ],
     [
      -82.102723,
      39.344735
     ],
     [
      -82.107399,
      39.341928
     ],
     [
      -82.113917,
      39.337225
     ],
     [
      -82.114749,
      39.335271
     ]
    ]
   }
  },
  {
   "type": "Feature",
   "properties": {
    "company": "Columbus, Hocking Valley and Toledo Railway",
    "line": "Columbus, Hocking Valley & Toledo: Columbus – Athens",
    "id": "chvt-columbus-athens",
    "color": "#6200EA",
    "mode": "intercity_rail",
    "avg_speed_kmh": 40,
    "speed_source": "estimated; no timetable consulted",
    "geometry_quality": "Traced from OSM with almost no bridging - 75.43 mi Columbus-Athens against a route documented at about 75 mi, and the intermediate distances land where the Hocking Valley's own mileposts did: Canal Winchester 15.4 mi, Lancaster 30.8, Logan 50.1, Nelsonville 62.0, Athens 75.4. Assembled from four sources chained by shared nodes: an ex-C&O belt and downtown approach through Columbus, relation 17423903 (Indiana & Ohio Logan Subdivision) for Columbus-Logan, relation 17423809 (Hocking Valley Scenic Railway) for Logan-Nelsonville, and railway=abandoned ways tagged old_railway_operator=C&O and named 'Hockhocking Adena Bikeway' - the rail-trail on the old grade - for Nelsonville-Athens. Three straight-line bridges, the largest 0.34 km. The north end stops 1.35 km short of the Columbus Union Station site and the south end 1.34 km short of the Athens depot site; both terminal areas have been rebuilt and their original trackage is not in OSM.",
    "segments": [
     {
      "start": 1881,
      "end": 1899,
      "headway_min": 480,
      "note": "The C&HV had no route of its own to the Lake Erie export docks, so in 1881 it consolidated with the Columbus & Toledo Railway (Columbus-Marion 1876, on to Toledo 10 January 1877) and the Ohio & West Virginia Railway (Logan-Gallipolis October 1880, Pomeroy January 1881) as the Columbus, Hocking Valley & Toledo Railway. Only the original Columbus-Athens line is drawn here; the Toledo and Gallipolis/Pomeroy lines the CHV&T also ran are not in this file. Sources disagree on the month - Abandoned Online says July 1881, Wikipedia says August 1881. Frequency estimated.",
      "sources": [
       "Segment-level: the three constituent companies and their opening dates from Abandoned Online; the consolidation month is a recorded conflict between Abandoned Online (July 1881) and Wikipedia (August 1881), neither resolved. Headway unsourced.",
       "https://abandonedonline.net/location/hocking-valley-railway/",
       "https://en.wikipedia.org/wiki/Hocking_Valley_Railway"
      ]
     }
    ]
   },
   "geometry": {
    "type": "LineString",
    "coordinates": [
     [
      -83.013838,
      39.965903
     ],
     [
      -83.012266,
      39.962863
     ],
     [
      -83.011159,
      39.958284
     ],
     [
      -83.009478,
      39.956368
     ],
     [
      -83.004156,
      39.948261
     ],
     [
      -83.000872,
      39.945296
     ],
     [
      -82.998739,
      39.941177
     ],
     [
      -82.998598,
      39.934559
     ],
     [
      -82.997784,
      39.930156
     ],
     [
      -82.998273,
      39.925317
     ],
     [
      -82.997544,
      39.923304
     ],
     [
      -82.98548,
      39.913588
     ],
     [
      -82.980523,
      39.907929
     ],
     [
      -82.964224,
      39.89519
     ],
     [
      -82.962376,
      39.892983
     ],
     [
      -82.960552,
      39.894242
     ],
     [
      -82.955201,
      39.891332
     ],
     [
      -82.911479,
      39.87747
     ],
     [
      -82.907016,
      39.874594
     ],
     [
      -82.887006,
      39.857745
     ],
     [
      -82.88229,
      39.855481
     ],
     [
      -82.878383,
      39.854856
     ],
     [
      -82.864218,
      39.854664
     ],
     [
      -82.802643,
      39.8452
     ],
     [
      -82.78431,
      39.843812
     ],
     [
      -82.726979,
      39.829662
     ],
     [
      -82.723227,
      39.828067
     ],
     [
      -82.721618,
      39.826688
     ],
     [
      -82.72032,
      39.824794
     ],
     [
      -82.713757,
      39.808433
     ],
     [
      -82.713021,
      39.80376
     ],
     [
      -82.693151,
      39.782529
     ],
     [
      -82.688952,
      39.776423
     ],
     [
      -82.687652,
      39.769622
     ],
     [
      -82.686287,
      39.767094
     ],
     [
      -82.673723,
      39.757979
     ],
     [
      -82.660244,
      39.74584
     ],
     [
      -82.643691,
      39.73684
     ],
     [
      -82.633524,
      39.729296
     ],
     [
      -82.627797,
      39.72489
     ],
     [
      -82.610402,
      39.709599
     ],
     [
      -82.608464,
      39.708725
     ],
     [
      -82.606291,
      39.708364
     ],
     [
      -82.600783,
      39.709322
     ],
     [
      -82.595276,
      39.709184
     ],
     [
      -82.592425,
      39.708335
     ],
     [
      -82.59092,
      39.707386
     ],
     [
      -82.581316,
      39.693753
     ],
     [
      -82.566707,
      39.679948
     ],
     [
      -82.557423,
      39.666766
     ],
     [
      -82.554979,
      39.662498
     ],
     [
      -82.554536,
      39.659933
     ],
     [
      -82.555746,
      39.650982
     ],
     [
      -82.552713,
      39.644457
     ],
     [
      -82.549566,
      39.621207
     ],
     [
      -82.547798,
      39.616607
     ],
     [
      -82.547486,
      39.611724
     ],
     [
      -82.546849,
      39.60958
     ],
     [
      -82.542432,
      39.603875
     ],
     [
      -82.541738,
      39.602337
     ],
     [
      -82.541796,
      39.596115
     ],
     [
      -82.541044,
      39.594171
     ],
     [
      -82.539797,
      39.592759
     ],
     [
      -82.538293,
      39.591735
     ],
     [
      -82.535575,
      39.590835
     ],
     [
      -82.533006,
      39.59082
     ],
     [
      -82.528758,
      39.591782
     ],
     [
      -82.525414,
      39.591316
     ],
     [
      -82.522692,
      39.589553
     ],
     [
      -82.520457,
      39.586146
     ],
     [
      -82.517229,
      39.584131
     ],
     [
      -82.514133,
      39.583265
     ],
     [
      -82.508875,
      39.583172
     ],
     [
      -82.506862,
      39.582654
     ],
     [
      -82.505056,
      39.581609
     ],
     [
      -82.502389,
      39.579189
     ],
     [
      -82.49991,
      39.578246
     ],
     [
      -82.497787,
      39.578095
     ],
     [
      -82.495644,
      39.578479
     ],
     [
      -82.488428,
      39.581641
     ],
     [
      -82.485828,
      39.581608
     ],
     [
      -82.483863,
      39.580893
     ],
     [
      -82.482629,
      39.579967
     ],
     [
      -82.481664,
      39.578547
     ],
     [
      -82.48151,
      39.573312
     ],
     [
      -82.47814,
      39.569105
     ],
     [
      -82.476374,
      39.562037
     ],
     [
      -82.473876,
      39.558381
     ],
     [
      -82.472209,
      39.554585
     ],
     [
      -82.469306,
      39.551503
     ],
     [
      -82.465237,
      39.549371
     ],
     [
      -82.461749,
      39.548654
     ],
     [
      -82.453929,
      39.550385
     ],
     [
      -82.449709,
      39.550105
     ],
     [
      -82.441083,
      39.547169
     ],
     [
      -82.432743,
      39.542152
     ],
     [
      -82.41435,
      39.536688
     ],
     [
      -82.401217,
      39.53505
     ],
     [
      -82.399351,
      39.534446
     ],
     [
      -82.400159,
      39.53532
     ],
     [
      -82.399625,
      39.536927
     ],
     [
      -82.401241,
      39.535595
     ],
     [
      -82.40312,
      39.535287
     ],
     [
      -82.399351,
      39.534446
     ],
     [
      -82.374619,
      39.523296
     ],
     [
      -82.356568,
      39.511643
     ],
     [
      -82.346407,
      39.5009
     ],
     [
      -82.331587,
      39.487972
     ],
     [
      -82.330122,
      39.486109
     ],
     [
      -82.326336,
      39.477265
     ],
     [
      -82.325072,
      39.475717
     ],
     [
      -82.31756,
      39.470762
     ],
     [
      -82.309723,
      39.464213
     ],
     [
      -82.298117,
      39.458259
     ],
     [
      -82.295807,
      39.457568
     ],
     [
      -82.273049,
      39.454453
     ],
     [
      -82.270906,
      39.454968
     ],
     [
      -82.269208,
      39.455901
     ],
     [
      -82.26502,
      39.460758
     ],
     [
      -82.263465,
      39.461959
     ],
     [
      -82.261382,
      39.462788
     ],
     [
      -82.258886,
      39.463045
     ],
     [
      -82.256086,
      39.462562
     ],
     [
      -82.247793,
      39.459418
     ],
     [
      -82.245444,
      39.459165
     ],
     [
      -82.236199,
      39.459307
     ],
     [
      -82.234096,
      39.458824
     ],
     [
      -82.231516,
      39.457527
     ],
     [
      -82.228691,
      39.454945
     ],
     [
      -82.214487,
      39.434281
     ],
     [
      -82.212517,
      39.432858
     ],
     [
      -82.202977,
      39.428436
     ],
     [
      -82.198877,
      39.427157
     ],
     [
      -82.196957,
      39.425786
     ],
     [
      -82.195886,
      39.423732
     ],
     [
      -82.193265,
      39.410522
     ],
     [
      -82.191444,
      39.40668
     ],
     [
      -82.189467,
      39.40402
     ],
     [
      -82.187601,
      39.403337
     ],
     [
      -82.182612,
      39.402846
     ],
     [
      -82.172978,
      39.400173
     ],
     [
      -82.171599,
      39.399502
     ],
     [
      -82.169612,
      39.397558
     ],
     [
      -82.168322,
      39.39421
     ],
     [
      -82.164922,
      39.388942
     ],
     [
      -82.161735,
      39.386397
     ],
     [
      -82.159548,
      39.385438
     ],
     [
      -82.15506,
      39.385098
     ],
     [
      -82.146841,
      39.386637
     ],
     [
      -82.142489,
      39.386895
     ],
     [
      -82.141061,
      39.387598
     ],
     [
      -82.137953,
      39.390649
     ],
     [
      -82.135081,
      39.39203
     ],
     [
      -82.133557,
      39.392354
     ],
     [
      -82.131261,
      39.391789
     ],
     [
      -82.125994,
      39.388292
     ],
     [
      -82.119262,
      39.385821
     ],
     [
      -82.116274,
      39.383535
     ],
     [
      -82.115152,
      39.381108
     ],
     [
      -82.114655,
      39.371553
     ],
     [
      -82.117712,
      39.362597
     ],
     [
      -82.117628,
      39.360831
     ],
     [
      -82.116304,
      39.359263
     ],
     [
      -82.107527,
      39.354731
     ],
     [
      -82.102305,
      39.349901
     ],
     [
      -82.101509,
      39.347484
     ],
     [
      -82.101799,
      39.346059
     ],
     [
      -82.102723,
      39.344735
     ],
     [
      -82.107399,
      39.341928
     ],
     [
      -82.113917,
      39.337225
     ],
     [
      -82.114749,
      39.335271
     ]
    ]
   }
  },
  {
   "type": "Feature",
   "properties": {
    "company": "Hocking Valley Railway",
    "line": "Hocking Valley: Columbus – Athens",
    "id": "hv-columbus-athens",
    "color": "#1A237E",
    "mode": "intercity_rail",
    "avg_speed_kmh": 45,
    "speed_source": "estimated; no timetable consulted",
    "geometry_quality": "Traced from OSM with almost no bridging - 75.43 mi Columbus-Athens against a route documented at about 75 mi, and the intermediate distances land where the Hocking Valley's own mileposts did: Canal Winchester 15.4 mi, Lancaster 30.8, Logan 50.1, Nelsonville 62.0, Athens 75.4. Assembled from four sources chained by shared nodes: an ex-C&O belt and downtown approach through Columbus, relation 17423903 (Indiana & Ohio Logan Subdivision) for Columbus-Logan, relation 17423809 (Hocking Valley Scenic Railway) for Logan-Nelsonville, and railway=abandoned ways tagged old_railway_operator=C&O and named 'Hockhocking Adena Bikeway' - the rail-trail on the old grade - for Nelsonville-Athens. Three straight-line bridges, the largest 0.34 km. The north end stops 1.35 km short of the Columbus Union Station site and the south end 1.34 km short of the Athens depot site; both terminal areas have been rebuilt and their original trackage is not in OSM.",
    "segments": [
     {
      "start": 1899,
      "end": 1930,
      "headway_min": 480,
      "note": "The CHV&T went into receivership in 1897 and was reorganised in February 1899 as the Hocking Valley Railway. The Chesapeake & Ohio took control in March 1910 - which also gave it the Toledo & Ohio Central and the Kanawha & Michigan - but the Hocking Valley kept its own identity until 1930, so it holds this stretch to then. At the end of 1925 it worked 349 miles of road on 881 miles of track, most of the difference being coal-branch and yard trackage that is not drawn. Frequency estimated.",
      "sources": [
       "Segment-level: the 1897 receivership, February 1899 reorganisation, March 1910 C&O control and the 1925 mileage from Wikipedia; the C&O's simultaneous acquisition of the T&OC and K&M from Abandoned Online. Headway unsourced.",
       "https://en.wikipedia.org/wiki/Hocking_Valley_Railway",
       "https://abandonedonline.net/location/hocking-valley-railway/"
      ]
     }
    ]
   },
   "geometry": {
    "type": "LineString",
    "coordinates": [
     [
      -83.013838,
      39.965903
     ],
     [
      -83.012266,
      39.962863
     ],
     [
      -83.011159,
      39.958284
     ],
     [
      -83.009478,
      39.956368
     ],
     [
      -83.004156,
      39.948261
     ],
     [
      -83.000872,
      39.945296
     ],
     [
      -82.998739,
      39.941177
     ],
     [
      -82.998598,
      39.934559
     ],
     [
      -82.997784,
      39.930156
     ],
     [
      -82.998273,
      39.925317
     ],
     [
      -82.997544,
      39.923304
     ],
     [
      -82.98548,
      39.913588
     ],
     [
      -82.980523,
      39.907929
     ],
     [
      -82.964224,
      39.89519
     ],
     [
      -82.962376,
      39.892983
     ],
     [
      -82.960552,
      39.894242
     ],
     [
      -82.955201,
      39.891332
     ],
     [
      -82.911479,
      39.87747
     ],
     [
      -82.907016,
      39.874594
     ],
     [
      -82.887006,
      39.857745
     ],
     [
      -82.88229,
      39.855481
     ],
     [
      -82.878383,
      39.854856
     ],
     [
      -82.864218,
      39.854664
     ],
     [
      -82.802643,
      39.8452
     ],
     [
      -82.78431,
      39.843812
     ],
     [
      -82.726979,
      39.829662
     ],
     [
      -82.723227,
      39.828067
     ],
     [
      -82.721618,
      39.826688
     ],
     [
      -82.72032,
      39.824794
     ],
     [
      -82.713757,
      39.808433
     ],
     [
      -82.713021,
      39.80376
     ],
     [
      -82.693151,
      39.782529
     ],
     [
      -82.688952,
      39.776423
     ],
     [
      -82.687652,
      39.769622
     ],
     [
      -82.686287,
      39.767094
     ],
     [
      -82.673723,
      39.757979
     ],
     [
      -82.660244,
      39.74584
     ],
     [
      -82.643691,
      39.73684
     ],
     [
      -82.633524,
      39.729296
     ],
     [
      -82.627797,
      39.72489
     ],
     [
      -82.610402,
      39.709599
     ],
     [
      -82.608464,
      39.708725
     ],
     [
      -82.606291,
      39.708364
     ],
     [
      -82.600783,
      39.709322
     ],
     [
      -82.595276,
      39.709184
     ],
     [
      -82.592425,
      39.708335
     ],
     [
      -82.59092,
      39.707386
     ],
     [
      -82.581316,
      39.693753
     ],
     [
      -82.566707,
      39.679948
     ],
     [
      -82.557423,
      39.666766
     ],
     [
      -82.554979,
      39.662498
     ],
     [
      -82.554536,
      39.659933
     ],
     [
      -82.555746,
      39.650982
     ],
     [
      -82.552713,
      39.644457
     ],
     [
      -82.549566,
      39.621207
     ],
     [
      -82.547798,
      39.616607
     ],
     [
      -82.547486,
      39.611724
     ],
     [
      -82.546849,
      39.60958
     ],
     [
      -82.542432,
      39.603875
     ],
     [
      -82.541738,
      39.602337
     ],
     [
      -82.541796,
      39.596115
     ],
     [
      -82.541044,
      39.594171
     ],
     [
      -82.539797,
      39.592759
     ],
     [
      -82.538293,
      39.591735
     ],
     [
      -82.535575,
      39.590835
     ],
     [
      -82.533006,
      39.59082
     ],
     [
      -82.528758,
      39.591782
     ],
     [
      -82.525414,
      39.591316
     ],
     [
      -82.522692,
      39.589553
     ],
     [
      -82.520457,
      39.586146
     ],
     [
      -82.517229,
      39.584131
     ],
     [
      -82.514133,
      39.583265
     ],
     [
      -82.508875,
      39.583172
     ],
     [
      -82.506862,
      39.582654
     ],
     [
      -82.505056,
      39.581609
     ],
     [
      -82.502389,
      39.579189
     ],
     [
      -82.49991,
      39.578246
     ],
     [
      -82.497787,
      39.578095
     ],
     [
      -82.495644,
      39.578479
     ],
     [
      -82.488428,
      39.581641
     ],
     [
      -82.485828,
      39.581608
     ],
     [
      -82.483863,
      39.580893
     ],
     [
      -82.482629,
      39.579967
     ],
     [
      -82.481664,
      39.578547
     ],
     [
      -82.48151,
      39.573312
     ],
     [
      -82.47814,
      39.569105
     ],
     [
      -82.476374,
      39.562037
     ],
     [
      -82.473876,
      39.558381
     ],
     [
      -82.472209,
      39.554585
     ],
     [
      -82.469306,
      39.551503
     ],
     [
      -82.465237,
      39.549371
     ],
     [
      -82.461749,
      39.548654
     ],
     [
      -82.453929,
      39.550385
     ],
     [
      -82.449709,
      39.550105
     ],
     [
      -82.441083,
      39.547169
     ],
     [
      -82.432743,
      39.542152
     ],
     [
      -82.41435,
      39.536688
     ],
     [
      -82.401217,
      39.53505
     ],
     [
      -82.399351,
      39.534446
     ],
     [
      -82.400159,
      39.53532
     ],
     [
      -82.399625,
      39.536927
     ],
     [
      -82.401241,
      39.535595
     ],
     [
      -82.40312,
      39.535287
     ],
     [
      -82.399351,
      39.534446
     ],
     [
      -82.374619,
      39.523296
     ],
     [
      -82.356568,
      39.511643
     ],
     [
      -82.346407,
      39.5009
     ],
     [
      -82.331587,
      39.487972
     ],
     [
      -82.330122,
      39.486109
     ],
     [
      -82.326336,
      39.477265
     ],
     [
      -82.325072,
      39.475717
     ],
     [
      -82.31756,
      39.470762
     ],
     [
      -82.309723,
      39.464213
     ],
     [
      -82.298117,
      39.458259
     ],
     [
      -82.295807,
      39.457568
     ],
     [
      -82.273049,
      39.454453
     ],
     [
      -82.270906,
      39.454968
     ],
     [
      -82.269208,
      39.455901
     ],
     [
      -82.26502,
      39.460758
     ],
     [
      -82.263465,
      39.461959
     ],
     [
      -82.261382,
      39.462788
     ],
     [
      -82.258886,
      39.463045
     ],
     [
      -82.256086,
      39.462562
     ],
     [
      -82.247793,
      39.459418
     ],
     [
      -82.245444,
      39.459165
     ],
     [
      -82.236199,
      39.459307
     ],
     [
      -82.234096,
      39.458824
     ],
     [
      -82.231516,
      39.457527
     ],
     [
      -82.228691,
      39.454945
     ],
     [
      -82.214487,
      39.434281
     ],
     [
      -82.212517,
      39.432858
     ],
     [
      -82.202977,
      39.428436
     ],
     [
      -82.198877,
      39.427157
     ],
     [
      -82.196957,
      39.425786
     ],
     [
      -82.195886,
      39.423732
     ],
     [
      -82.193265,
      39.410522
     ],
     [
      -82.191444,
      39.40668
     ],
     [
      -82.189467,
      39.40402
     ],
     [
      -82.187601,
      39.403337
     ],
     [
      -82.182612,
      39.402846
     ],
     [
      -82.172978,
      39.400173
     ],
     [
      -82.171599,
      39.399502
     ],
     [
      -82.169612,
      39.397558
     ],
     [
      -82.168322,
      39.39421
     ],
     [
      -82.164922,
      39.388942
     ],
     [
      -82.161735,
      39.386397
     ],
     [
      -82.159548,
      39.385438
     ],
     [
      -82.15506,
      39.385098
     ],
     [
      -82.146841,
      39.386637
     ],
     [
      -82.142489,
      39.386895
     ],
     [
      -82.141061,
      39.387598
     ],
     [
      -82.137953,
      39.390649
     ],
     [
      -82.135081,
      39.39203
     ],
     [
      -82.133557,
      39.392354
     ],
     [
      -82.131261,
      39.391789
     ],
     [
      -82.125994,
      39.388292
     ],
     [
      -82.119262,
      39.385821
     ],
     [
      -82.116274,
      39.383535
     ],
     [
      -82.115152,
      39.381108
     ],
     [
      -82.114655,
      39.371553
     ],
     [
      -82.117712,
      39.362597
     ],
     [
      -82.117628,
      39.360831
     ],
     [
      -82.116304,
      39.359263
     ],
     [
      -82.107527,
      39.354731
     ],
     [
      -82.102305,
      39.349901
     ],
     [
      -82.101509,
      39.347484
     ],
     [
      -82.101799,
      39.346059
     ],
     [
      -82.102723,
      39.344735
     ],
     [
      -82.107399,
      39.341928
     ],
     [
      -82.113917,
      39.337225
     ],
     [
      -82.114749,
      39.335271
     ]
    ]
   }
  },
  {
   "type": "Feature",
   "properties": {
    "company": "Chesapeake and Ohio Railway",
    "line": "Chesapeake & Ohio: Hocking Division (Columbus – Athens)",
    "id": "co-hocking-division",
    "color": "#1B4D3E",
    "mode": "intercity_rail",
    "avg_speed_kmh": 45,
    "speed_source": "estimated; no timetable consulted",
    "geometry_quality": "Traced from OSM with almost no bridging - 75.43 mi Columbus-Athens against a route documented at about 75 mi, and the intermediate distances land where the Hocking Valley's own mileposts did: Canal Winchester 15.4 mi, Lancaster 30.8, Logan 50.1, Nelsonville 62.0, Athens 75.4. Assembled from four sources chained by shared nodes: an ex-C&O belt and downtown approach through Columbus, relation 17423903 (Indiana & Ohio Logan Subdivision) for Columbus-Logan, relation 17423809 (Hocking Valley Scenic Railway) for Logan-Nelsonville, and railway=abandoned ways tagged old_railway_operator=C&O and named 'Hockhocking Adena Bikeway' - the rail-trail on the old grade - for Nelsonville-Athens. Three straight-line bridges, the largest 0.34 km. The north end stops 1.35 km short of the Columbus Union Station site and the south end 1.34 km short of the Athens depot site; both terminal areas have been rebuilt and their original trackage is not in OSM.",
    "segments": [
     {
      "start": 1930,
      "end": 1949,
      "headway_min": 1440,
      "note": "The Hocking Valley was merged into the Chesapeake & Ohio on 30 April 1930 and the line became the C&O's Hocking Division. The coal seams that had justified it were thinning from the 1920s, and passenger service on the C&O's lines east of Columbus ended on 31 December 1949 - which is where this corridor's drawn years stop, though freight ran on for decades and the Columbus-Toledo line is still CSX's Columbus Subdivision. Frequency estimated at the single daily round trip the service had shrunk to; the actual last-year frequency is not sourced.",
      "sources": [
       "Segment-level: the 30 April 1930 merger and the 31 December 1949 end of passenger service east of Columbus from the Hocking Valley Scenic Railway history and Hawkins Rails; the thinning coal traffic from Abandoned Online. Headway unsourced.",
       "https://www.hvsry.org/about/",
       "https://hawkinsrails.net/preservation/hvsr/hvsr.htm",
       "https://abandonedonline.net/location/hocking-valley-railway/"
      ]
     }
    ]
   },
   "geometry": {
    "type": "LineString",
    "coordinates": [
     [
      -83.013838,
      39.965903
     ],
     [
      -83.012266,
      39.962863
     ],
     [
      -83.011159,
      39.958284
     ],
     [
      -83.009478,
      39.956368
     ],
     [
      -83.004156,
      39.948261
     ],
     [
      -83.000872,
      39.945296
     ],
     [
      -82.998739,
      39.941177
     ],
     [
      -82.998598,
      39.934559
     ],
     [
      -82.997784,
      39.930156
     ],
     [
      -82.998273,
      39.925317
     ],
     [
      -82.997544,
      39.923304
     ],
     [
      -82.98548,
      39.913588
     ],
     [
      -82.980523,
      39.907929
     ],
     [
      -82.964224,
      39.89519
     ],
     [
      -82.962376,
      39.892983
     ],
     [
      -82.960552,
      39.894242
     ],
     [
      -82.955201,
      39.891332
     ],
     [
      -82.911479,
      39.87747
     ],
     [
      -82.907016,
      39.874594
     ],
     [
      -82.887006,
      39.857745
     ],
     [
      -82.88229,
      39.855481
     ],
     [
      -82.878383,
      39.854856
     ],
     [
      -82.864218,
      39.854664
     ],
     [
      -82.802643,
      39.8452
     ],
     [
      -82.78431,
      39.843812
     ],
     [
      -82.726979,
      39.829662
     ],
     [
      -82.723227,
      39.828067
     ],
     [
      -82.721618,
      39.826688
     ],
     [
      -82.72032,
      39.824794
     ],
     [
      -82.713757,
      39.808433
     ],
     [
      -82.713021,
      39.80376
     ],
     [
      -82.693151,
      39.782529
     ],
     [
      -82.688952,
      39.776423
     ],
     [
      -82.687652,
      39.769622
     ],
     [
      -82.686287,
      39.767094
     ],
     [
      -82.673723,
      39.757979
     ],
     [
      -82.660244,
      39.74584
     ],
     [
      -82.643691,
      39.73684
     ],
     [
      -82.633524,
      39.729296
     ],
     [
      -82.627797,
      39.72489
     ],
     [
      -82.610402,
      39.709599
     ],
     [
      -82.608464,
      39.708725
     ],
     [
      -82.606291,
      39.708364
     ],
     [
      -82.600783,
      39.709322
     ],
     [
      -82.595276,
      39.709184
     ],
     [
      -82.592425,
      39.708335
     ],
     [
      -82.59092,
      39.707386
     ],
     [
      -82.581316,
      39.693753
     ],
     [
      -82.566707,
      39.679948
     ],
     [
      -82.557423,
      39.666766
     ],
     [
      -82.554979,
      39.662498
     ],
     [
      -82.554536,
      39.659933
     ],
     [
      -82.555746,
      39.650982
     ],
     [
      -82.552713,
      39.644457
     ],
     [
      -82.549566,
      39.621207
     ],
     [
      -82.547798,
      39.616607
     ],
     [
      -82.547486,
      39.611724
     ],
     [
      -82.546849,
      39.60958
     ],
     [
      -82.542432,
      39.603875
     ],
     [
      -82.541738,
      39.602337
     ],
     [
      -82.541796,
      39.596115
     ],
     [
      -82.541044,
      39.594171
     ],
     [
      -82.539797,
      39.592759
     ],
     [
      -82.538293,
      39.591735
     ],
     [
      -82.535575,
      39.590835
     ],
     [
      -82.533006,
      39.59082
     ],
     [
      -82.528758,
      39.591782
     ],
     [
      -82.525414,
      39.591316
     ],
     [
      -82.522692,
      39.589553
     ],
     [
      -82.520457,
      39.586146
     ],
     [
      -82.517229,
      39.584131
     ],
     [
      -82.514133,
      39.583265
     ],
     [
      -82.508875,
      39.583172
     ],
     [
      -82.506862,
      39.582654
     ],
     [
      -82.505056,
      39.581609
     ],
     [
      -82.502389,
      39.579189
     ],
     [
      -82.49991,
      39.578246
     ],
     [
      -82.497787,
      39.578095
     ],
     [
      -82.495644,
      39.578479
     ],
     [
      -82.488428,
      39.581641
     ],
     [
      -82.485828,
      39.581608
     ],
     [
      -82.483863,
      39.580893
     ],
     [
      -82.482629,
      39.579967
     ],
     [
      -82.481664,
      39.578547
     ],
     [
      -82.48151,
      39.573312
     ],
     [
      -82.47814,
      39.569105
     ],
     [
      -82.476374,
      39.562037
     ],
     [
      -82.473876,
      39.558381
     ],
     [
      -82.472209,
      39.554585
     ],
     [
      -82.469306,
      39.551503
     ],
     [
      -82.465237,
      39.549371
     ],
     [
      -82.461749,
      39.548654
     ],
     [
      -82.453929,
      39.550385
     ],
     [
      -82.449709,
      39.550105
     ],
     [
      -82.441083,
      39.547169
     ],
     [
      -82.432743,
      39.542152
     ],
     [
      -82.41435,
      39.536688
     ],
     [
      -82.401217,
      39.53505
     ],
     [
      -82.399351,
      39.534446
     ],
     [
      -82.400159,
      39.53532
     ],
     [
      -82.399625,
      39.536927
     ],
     [
      -82.401241,
      39.535595
     ],
     [
      -82.40312,
      39.535287
     ],
     [
      -82.399351,
      39.534446
     ],
     [
      -82.374619,
      39.523296
     ],
     [
      -82.356568,
      39.511643
     ],
     [
      -82.346407,
      39.5009
     ],
     [
      -82.331587,
      39.487972
     ],
     [
      -82.330122,
      39.486109
     ],
     [
      -82.326336,
      39.477265
     ],
     [
      -82.325072,
      39.475717
     ],
     [
      -82.31756,
      39.470762
     ],
     [
      -82.309723,
      39.464213
     ],
     [
      -82.298117,
      39.458259
     ],
     [
      -82.295807,
      39.457568
     ],
     [
      -82.273049,
      39.454453
     ],
     [
      -82.270906,
      39.454968
     ],
     [
      -82.269208,
      39.455901
     ],
     [
      -82.26502,
      39.460758
     ],
     [
      -82.263465,
      39.461959
     ],
     [
      -82.261382,
      39.462788
     ],
     [
      -82.258886,
      39.463045
     ],
     [
      -82.256086,
      39.462562
     ],
     [
      -82.247793,
      39.459418
     ],
     [
      -82.245444,
      39.459165
     ],
     [
      -82.236199,
      39.459307
     ],
     [
      -82.234096,
      39.458824
     ],
     [
      -82.231516,
      39.457527
     ],
     [
      -82.228691,
      39.454945
     ],
     [
      -82.214487,
      39.434281
     ],
     [
      -82.212517,
      39.432858
     ],
     [
      -82.202977,
      39.428436
     ],
     [
      -82.198877,
      39.427157
     ],
     [
      -82.196957,
      39.425786
     ],
     [
      -82.195886,
      39.423732
     ],
     [
      -82.193265,
      39.410522
     ],
     [
      -82.191444,
      39.40668
     ],
     [
      -82.189467,
      39.40402
     ],
     [
      -82.187601,
      39.403337
     ],
     [
      -82.182612,
      39.402846
     ],
     [
      -82.172978,
      39.400173
     ],
     [
      -82.171599,
      39.399502
     ],
     [
      -82.169612,
      39.397558
     ],
     [
      -82.168322,
      39.39421
     ],
     [
      -82.164922,
      39.388942
     ],
     [
      -82.161735,
      39.386397
     ],
     [
      -82.159548,
      39.385438
     ],
     [
      -82.15506,
      39.385098
     ],
     [
      -82.146841,
      39.386637
     ],
     [
      -82.142489,
      39.386895
     ],
     [
      -82.141061,
      39.387598
     ],
     [
      -82.137953,
      39.390649
     ],
     [
      -82.135081,
      39.39203
     ],
     [
      -82.133557,
      39.392354
     ],
     [
      -82.131261,
      39.391789
     ],
     [
      -82.125994,
      39.388292
     ],
     [
      -82.119262,
      39.385821
     ],
     [
      -82.116274,
      39.383535
     ],
     [
      -82.115152,
      39.381108
     ],
     [
      -82.114655,
      39.371553
     ],
     [
      -82.117712,
      39.362597
     ],
     [
      -82.117628,
      39.360831
     ],
     [
      -82.116304,
      39.359263
     ],
     [
      -82.107527,
      39.354731
     ],
     [
      -82.102305,
      39.349901
     ],
     [
      -82.101509,
      39.347484
     ],
     [
      -82.101799,
      39.346059
     ],
     [
      -82.102723,
      39.344735
     ],
     [
      -82.107399,
      39.341928
     ],
     [
      -82.113917,
      39.337225
     ],
     [
      -82.114749,
      39.335271
     ]
    ]
   }
  },
  {
   "type": "Feature",
   "properties": {
    "company": "Hocking Valley Scenic Railway",
    "line": "Hocking Valley Scenic Railway: Nelsonville – East Logan",
    "id": "hvsr-nelsonville-logan",
    "color": "#00C853",
    "mode": "tourist_rail",
    "avg_speed_kmh": 25,
    "speed_source": "estimated: excursion speed on a preserved branch; estimated; no timetable consulted",
    "geometry_quality": "Traced from OSM relation 17423809 (Hocking Valley Scenic Railway), 12.39 mi against a documented 12 mi. No bridging. This is the same physical line as the Logan-Nelsonville portion of the Columbus-Athens features above, drawn separately because its years and operator differ.",
    "segments": [
     {
      "start": 1985,
      "end": 2026,
      "headway_min": 720,
      "note": "Passengers came back to the Hocking Valley 36 years after the C&O gave them up. The volunteer-run Hocking Valley Scenic Railway was formed in 1972 and first ran excursions over about seven miles of the old Monday Creek coal branch to Carbon Hill; when that was scrapped in 1983 it moved to the former Armitage Subdivision between Nelsonville and Glen Ebon, and from 1985 onto the present Nelsonville-East Logan route, which it later bought from the C&O to stop it being abandoned. 12 mi of former Hocking Valley, then C&O, track. Only the current route is drawn - the 1972-85 Monday Creek and Glen Ebon operations are not. Frequency estimated at a couple of round trips on an operating day; it runs weekends and seasonally, not daily, so the headway is a poor fit here.",
      "sources": [
       "Segment-level: the 1972 founding, the Monday Creek/Carbon Hill excursions, the 1983 scrapping of that branch, the Nelsonville-Glen Ebon interim route to 1985, the move to the present route and its 12 mi length from Wikipedia and Abandoned Online. Headway unsourced and a poor fit for seasonal operation.",
       "https://en.wikipedia.org/wiki/Hocking_Valley_Scenic_Railway",
       "https://abandonedonline.net/location/hocking-valley-railway/"
      ]
     }
    ]
   },
   "geometry": {
    "type": "LineString",
    "coordinates": [
     [
      -82.218418,
      39.43958
     ],
     [
      -82.229387,
      39.455832
     ],
     [
      -82.231516,
      39.457527
     ],
     [
      -82.234549,
      39.45898
     ],
     [
      -82.236823,
      39.459345
     ],
     [
      -82.24731,
      39.459329
     ],
     [
      -82.256663,
      39.462736
     ],
     [
      -82.260383,
      39.462957
     ],
     [
      -82.262321,
      39.462494
     ],
     [
      -82.264423,
      39.461309
     ],
     [
      -82.269546,
      39.455667
     ],
     [
      -82.27196,
      39.454636
     ],
     [
      -82.274443,
      39.454438
     ],
     [
      -82.29742,
      39.457999
     ],
     [
      -82.30926,
      39.46393
     ],
     [
      -82.31756,
      39.470762
     ],
     [
      -82.325463,
      39.476083
     ],
     [
      -82.33091,
      39.487249
     ],
     [
      -82.346407,
      39.5009
     ],
     [
      -82.356568,
      39.511643
     ],
     [
      -82.375445,
      39.523754
     ],
     [
      -82.388791,
      39.529479
     ]
    ]
   }
  }
 ]
}