{"type": "FeatureCollection", "features": [{"type": "Feature", "properties": {"company": "Denver & Rio Grande Railway", "line": "Denver & Rio Grande: Royal Gorge Route (Denver \u2013 Pueblo \u2013 Tennessee Pass \u2013 Grand Junction)", "id": "drg-royal-gorge-route", "color": "#8B5E3C", "mode": "intercity_rail", "avg_speed_kmh": 40, "speed_source": "estimated for a heavy-grade mountain main line (Tennessee Pass, at over 10,200 ft, was the highest mainline rail crossing in the US) with sharp curves through the Royal Gorge, Eagle River, and Glenwood Canyons; unsourced", "segments": [{"start": 1890, "end": 1921, "headway_min": 720, "note": "The railroad standard-gauged and built the more direct Tennessee Pass line (Leadville-Pando-Glenwood Springs, cresting at 10,239 ft, the highest mainline crossing in the US) by 1890, superseding the old Marshall Pass route (see drg_marshall_pass_black_canyon.geojson for that earlier alignment) as the through main line: Denver - Colorado Springs - Pueblo - up the Arkansas River through the Royal Gorge to Salida - over Tennessee Pass - down the Eagle and Colorado Rivers through Glenwood Canyon to Grand Junction. Marketed as the 'Royal Gorge Route.' Frequency estimated, unsourced."}], "geometry_source": "", "geometry_quality": "Colorado portion (Denver area - Colorado Springs - Pueblo - Royal Gorge - Salida - Tennessee Pass - Glenwood Canyon - Grand Junction) of a real-traced 854-point OpenStreetMap route, split at the Colorado-Utah state line (~index 539 of the original combined trace) so the Utah portion can carry its own company history (Rio Grande Western Railway was a legally separate company until 1908). No leg is a straight-line placeholder. FIXED 2026-08-24: this feature previously had a segment asserting service 1882-1890 over this exact alignment, but the note attached to that segment itself said the real 1882 route to Grand Junction went via Marshall Pass/Gunnison/Montrose, 'not the route shown here' -- the Tennessee Pass alignment traced here did not exist until 1890. That segment has been removed; 1882-1890 service is now drawn separately in data/drg_marshall_pass_black_canyon.geojson over its own, correct alignment. Straight-line repair 2026-08-29: 3 ruled segments totalling 40 mi replaced with OpenStreetMap-traced rail geometry (see geometry_repairs for the OSM lines each one followed).", "geometry_repairs": [{"date": "2026-08-29", "from": [-108.59136, 39.08209], "to": [-108.80851, 39.19345], "chord_mi": 13.97, "traced_mi": 13.95, "snap_m": [0, 0], "bridged_mi": 0.0, "osm_lines": ["UP Green River Subdivision (13.95 mi)"], "method": "Overpass rail graph, 8.0 km corridor, Dijkstra, simplified to 3.0 m"}, {"date": "2026-08-29", "from": [-108.34006, 39.11519], "to": [-108.56555, 39.06069], "chord_mi": 12.68, "traced_mi": 12.68, "snap_m": [0, 0], "bridged_mi": 0.0, "osm_lines": ["UP Glenwood Springs Subdivision (12.68 mi)"], "method": "Overpass rail graph, 8.0 km corridor, Dijkstra, simplified to 3.0 m"}, {"date": "2026-08-29", "from": [-106.0507, 38.70402], "to": [-106.15291, 38.88444], "chord_mi": 13.62, "traced_mi": 13.71, "snap_m": [0, 0], "bridged_mi": 0.0, "osm_lines": ["Tennessee Pass Subdivision [disused] (10.68 mi)", "Tennessee Pass Railroad [disused] (3.03 mi)"], "method": "Overpass rail graph, 8.0 km corridor, Dijkstra, simplified to 3.0 m"}]}, "geometry": {"type": "LineString", "coordinates": [[-105.01114, 39.73786], [-105.0103, 39.72396], [-104.99718, 39.71281], [-104.99238, 39.70699], [-104.98954, 39.69123], [-104.99659, 39.66404], [-105.00579, 39.64095], [-105.01252, 39.61624], [-105.01952, 39.60335], [-105.02284, 39.58388], [-105.03183, 39.56344], [-105.04255, 39.55427], [-105.04458, 39.55139], [-105.04466, 39.54902], [-105.04166, 39.54058], [-105.03011, 39.5269], [-105.02436, 39.51735], [-105.01092, 39.50083], [-104.99777, 39.48904], [-104.98932, 39.47203], [-104.9846, 39.45939], [-104.97695, 39.45131], [-104.97306, 39.44244], [-104.95145, 39.43531], [-104.93844, 39.43398], [-104.90733, 39.42767], [-104.88609, 39.41912], [-104.87354, 39.40587], [-104.85928, 39.38317], [-104.85752, 39.36967], [-104.86046, 39.35702], [-104.8651, 39.35087], [-104.87381, 39.32343], [-104.89241, 39.28127], [-104.89382, 39.27139], [-104.88694, 39.25807], [-104.88058, 39.24929], [-104.87916, 39.23623], [-104.88464, 39.22344], [-104.88346, 39.21802], [-104.86078, 39.20368], [-104.85724, 39.19514], [-104.85459, 39.17791], [-104.86004, 39.16939], [-104.88404, 39.15056], [-104.89129, 39.13862], [-104.90079, 39.13244], [-104.90481, 39.12831], [-104.91208, 39.12459], [-104.9136, 39.12104], [-104.91222, 39.11929], [-104.9068, 39.11762], [-104.90328, 39.11496], [-104.8979, 39.11416], [-104.88913, 39.10951], [-104.88086, 39.10875], [-104.87881, 39.10351], [-104.87376, 39.10046], [-104.87335, 39.09642], [-104.87497, 39.0901], [-104.8711, 39.08517], [-104.87067, 39.07929], [-104.86524, 39.07065], [-104.86163, 39.06021], [-104.8618, 39.05504], [-104.85839, 39.04973], [-104.85478, 39.04791], [-104.85019, 39.04192], [-104.84821, 39.03706], [-104.849, 39.03341], [-104.8413, 39.01667], [-104.83569, 39.01068], [-104.83437, 39.00405], [-104.83075, 38.99988], [-104.83316, 38.99468], [-104.83099, 38.98533], [-104.83684, 38.95876], [-104.83483, 38.95384], [-104.83114, 38.95127], [-104.82236, 38.94004], [-104.81682, 38.92865], [-104.82032, 38.92105], [-104.82463, 38.90657], [-104.82525, 38.89978], [-104.83047, 38.88431], [-104.83054, 38.88026], [-104.83315, 38.87413], [-104.83216, 38.86566], [-104.83338, 38.85782], [-104.82864, 38.83711], [-104.83116, 38.8269], [-104.83088, 38.82244], [-104.82908, 38.8208], [-104.82342, 38.82067], [-104.80507, 38.81366], [-104.79358, 38.80668], [-104.78596, 38.7988], [-104.7747, 38.79084], [-104.76871, 38.77836], [-104.7185, 38.72352], [-104.70505, 38.69659], [-104.70178, 38.66535], [-104.69554, 38.64951], [-104.69164, 38.64374], [-104.69202, 38.63764], [-104.68711, 38.61801], [-104.66865, 38.58897], [-104.65598, 38.57161], [-104.62519, 38.50898], [-104.60956, 38.46991], [-104.60644, 38.4593], [-104.60524, 38.44666], [-104.60661, 38.42694], [-104.61272, 38.39887], [-104.62361, 38.38329], [-104.63427, 38.3777], [-104.63708, 38.37483], [-104.63907, 38.36483], [-104.64745, 38.34704], [-104.6501, 38.33563], [-104.64944, 38.33158], [-104.64507, 38.32244], [-104.6483, 38.30698], [-104.64736, 38.3019], [-104.63043, 38.2747], [-104.62217, 38.2693], [-104.61835, 38.26297], [-104.6144, 38.26108], [-104.60333, 38.26385], [-104.61414, 38.26105], [-104.61875, 38.26328], [-104.62327, 38.26988], [-104.63271, 38.2751], [-104.63779, 38.27637], [-104.65223, 38.27458], [-104.66145, 38.28092], [-104.66588, 38.28251], [-104.67397, 38.28147], [-104.68887, 38.27098], [-104.69457, 38.26986], [-104.699, 38.27152], [-104.7039, 38.27857], [-104.70911, 38.28109], [-104.7294, 38.28224], [-104.73996, 38.28002], [-104.7567, 38.28093], [-104.76176, 38.28291], [-104.76733, 38.28951], [-104.77148, 38.29138], [-104.79881, 38.29636], [-104.81882, 38.29706], [-104.83263, 38.29914], [-104.85189, 38.30541], [-104.86302, 38.30472], [-104.87727, 38.30826], [-104.88923, 38.31771], [-104.90567, 38.32426], [-104.91262, 38.32977], [-104.92031, 38.33258], [-104.93747, 38.34334], [-104.94694, 38.34648], [-104.95328, 38.35839], [-104.95859, 38.36501], [-104.97037, 38.37471], [-104.97632, 38.37669], [-104.98205, 38.38038], [-104.99117, 38.38018], [-105.00203, 38.38212], [-105.00885, 38.38807], [-105.01962, 38.38892], [-105.02705, 38.39341], [-105.03382, 38.39468], [-105.04752, 38.3914], [-105.0572, 38.39306], [-105.06302, 38.38864], [-105.08122, 38.38312], [-105.08963, 38.38486], [-105.11462, 38.38622], [-105.14259, 38.40426], [-105.15274, 38.40656], [-105.16546, 38.41304], [-105.18676, 38.43512], [-105.19541, 38.44198], [-105.20519, 38.44737], [-105.2209, 38.44752], [-105.23594, 38.44061], [-105.41377, 38.48322], [-105.43016, 38.47744], [-105.44057, 38.47575], [-105.44462, 38.47266], [-105.45056, 38.47194], [-105.45553, 38.46195], [-105.45909, 38.45982], [-105.48317, 38.45832], [-105.49498, 38.45423], [-105.50205, 38.45627], [-105.51222, 38.45691], [-105.52487, 38.44636], [-105.541, 38.44177], [-105.54179, 38.43983], [-105.5405, 38.43636], [-105.54356, 38.43036], [-105.55209, 38.43008], [-105.55499, 38.42721], [-105.56141, 38.42435], [-105.56867, 38.42618], [-105.58232, 38.41224], [-105.58852, 38.41071], [-105.60404, 38.41271], [-105.61191, 38.41156], [-105.61454, 38.40924], [-105.61845, 38.39749], [-105.6216, 38.39531], [-105.62587, 38.39514], [-105.63221, 38.3975], [-105.64168, 38.39221], [-105.65421, 38.39119], [-105.65907, 38.38628], [-105.66588, 38.38223], [-105.67396, 38.37347], [-105.68037, 38.37432], [-105.68561, 38.37223], [-105.695, 38.37292], [-105.70118, 38.37131], [-105.70573, 38.36836], [-105.71535, 38.36803], [-105.72303, 38.3639], [-105.72733, 38.35961], [-105.72974, 38.35916], [-105.73373, 38.36154], [-105.74181, 38.36179], [-105.76253, 38.37817], [-105.76479, 38.38221], [-105.76549, 38.38665], [-105.77494, 38.39708], [-105.77576, 38.40267], [-105.78228, 38.4063], [-105.78751, 38.41111], [-105.79222, 38.41827], [-105.80352, 38.42925], [-105.80917, 38.43135], [-105.82295, 38.43319], [-105.83085, 38.43797], [-105.83337, 38.44533], [-105.84333, 38.46113], [-105.84955, 38.46436], [-105.86224, 38.46621], [-105.86589, 38.47321], [-105.87662, 38.47324], [-105.88097, 38.47635], [-105.88636, 38.47749], [-105.89089, 38.48042], [-105.91452, 38.48825], [-105.91642, 38.49138], [-105.91567, 38.49677], [-105.91725, 38.49833], [-105.92552, 38.49905], [-105.93386, 38.50358], [-105.94318, 38.50323], [-105.94884, 38.50661], [-105.95562, 38.50609], [-105.97279, 38.51568], [-105.98138, 38.53095], [-105.99393, 38.54208], [-106.01064, 38.55041], [-106.02758, 38.56247], [-106.05585, 38.58353], [-106.06338, 38.59322], [-106.06165, 38.60647], [-106.0601, 38.61126], [-106.05728, 38.61484], [-106.0512, 38.64001], [-106.04824, 38.64528], [-106.04845, 38.64969], [-106.05048, 38.65219], [-106.04647, 38.66223], [-106.05048, 38.66853], [-106.04881, 38.67037], [-106.04867, 38.67316], [-106.04224, 38.68034], [-106.0434, 38.68611], [-106.04988, 38.69574], [-106.05169, 38.7012], [-106.0506989, 38.7040182], [-106.0503569, 38.7048842], [-106.0503034, 38.7052564], [-106.050357, 38.7058237], [-106.0504871, 38.7062399], [-106.0508545, 38.7069654], [-106.0554189, 38.7150103], [-106.0563932, 38.7166193], [-106.0574296, 38.7185667], [-106.0601153, 38.7232605], [-106.06509, 38.7304782], [-106.0725888, 38.7432568], [-106.0869426, 38.7646682], [-106.103884, 38.793854], [-106.1075164, 38.8002727], [-106.1212869, 38.8219988], [-106.1223818, 38.8238119], [-106.1232831, 38.8255878], [-106.1304807, 38.8405698], [-106.1393044, 38.8589545], [-106.1395977, 38.8596509], [-106.1398104, 38.8605123], [-106.139871, 38.8617087], [-106.1395672, 38.864349], [-106.1395787, 38.8647825], [-106.1396395, 38.8652059], [-106.1399658, 38.866096], [-106.1405834, 38.8672061], [-106.1440025, 38.8726802], [-106.1485153, 38.8801832], [-106.1493743, 38.8812478], [-106.1498417, 38.8817184], [-106.1522002, 38.883712], [-106.152913, 38.8844401], [-106.16307, 38.89688], [-106.16898, 38.91009], [-106.1704, 38.92194], [-106.17341, 38.92763], [-106.1912, 38.94624], [-106.20261, 38.96082], [-106.2071, 38.97034], [-106.21412, 38.97668], [-106.22196, 38.99794], [-106.22597, 39.00164], [-106.23689, 39.00336], [-106.24199, 39.00739], [-106.24157, 39.01044], [-106.2347, 39.01471], [-106.23466, 39.02019], [-106.2484, 39.03136], [-106.25166, 39.03541], [-106.25844, 39.03586], [-106.26374, 39.03965], [-106.2656, 39.04769], [-106.27192, 39.05547], [-106.27302, 39.06065], [-106.27239, 39.06492], [-106.27874, 39.0713], [-106.28758, 39.09269], [-106.29499, 39.10211], [-106.29921, 39.10517], [-106.31203, 39.12373], [-106.31631, 39.13202], [-106.32521, 39.16563], [-106.34625, 39.20496], [-106.3507, 39.22856], [-106.34998, 39.23836], [-106.33918, 39.26685], [-106.34245, 39.28075], [-106.33937, 39.28443], [-106.32993, 39.28879], [-106.32919, 39.29719], [-106.32676, 39.30151], [-106.32995, 39.31212], [-106.3297, 39.31627], [-106.33388, 39.32068], [-106.3347, 39.32528], [-106.32605, 39.34272], [-106.31431, 39.35325], [-106.31092, 39.36719], [-106.31199, 39.36942], [-106.31649, 39.37191], [-106.32087, 39.38008], [-106.32086, 39.38358], [-106.31669, 39.38625], [-106.31973, 39.39014], [-106.31845, 39.39308], [-106.3198, 39.39852], [-106.31837, 39.40452], [-106.31825, 39.41346], [-106.32046, 39.41758], [-106.32435, 39.41987], [-106.32343, 39.42608], [-106.3286, 39.43925], [-106.33209, 39.44183], [-106.33635, 39.44789], [-106.33629, 39.45259], [-106.33098, 39.46241], [-106.33236, 39.46413], [-106.34098, 39.46771], [-106.342, 39.47096], [-106.34022, 39.47491], [-106.34353, 39.47918], [-106.3499, 39.48039], [-106.35774, 39.49634], [-106.36179, 39.49849], [-106.36282, 39.5016], [-106.36495, 39.50334], [-106.36804, 39.51129], [-106.37025, 39.51153], [-106.37449, 39.50816], [-106.38306, 39.50854], [-106.38735, 39.51455], [-106.39494, 39.51828], [-106.39664, 39.52308], [-106.39474, 39.52592], [-106.39596, 39.52719], [-106.40107, 39.52778], [-106.4019, 39.52996], [-106.40065, 39.53228], [-106.40087, 39.53675], [-106.40513, 39.54482], [-106.40193, 39.55027], [-106.39913, 39.55902], [-106.40518, 39.573], [-106.40945, 39.57624], [-106.42461, 39.58344], [-106.42996, 39.58873], [-106.43451, 39.60021], [-106.44349, 39.60717], [-106.44921, 39.60904], [-107.13607, 39.61329], [-107.14036, 39.61283], [-107.14537, 39.60969], [-107.15339, 39.60799], [-107.15635, 39.60365], [-107.17086, 39.59921], [-107.17941, 39.5912], [-107.18511, 39.59136], [-107.18889, 39.5886], [-107.19558, 39.58634], [-107.19868, 39.58228], [-107.20612, 39.57636], [-107.20965, 39.57562], [-107.21831, 39.57688], [-107.22148, 39.57597], [-107.224, 39.57048], [-107.23507, 39.56471], [-107.23906, 39.55984], [-107.24393, 39.55648], [-107.25031, 39.55957], [-107.26818, 39.56263], [-107.2729, 39.56584], [-107.27941, 39.55999], [-107.28665, 39.55936], [-107.29122, 39.55665], [-107.3035, 39.56065], [-107.30644, 39.5563], [-107.3126, 39.55744], [-107.31913, 39.54992], [-107.32607, 39.54807], [-107.33618, 39.55094], [-107.34121, 39.55697], [-107.35165, 39.55926], [-107.36346, 39.55852], [-107.36882, 39.55994], [-107.38258, 39.56009], [-107.39938, 39.55661], [-107.4102, 39.56301], [-107.42529, 39.56611], [-107.42975, 39.57019], [-107.44091, 39.57478], [-107.45765, 39.57154], [-107.4736, 39.57368], [-107.48164, 39.5719], [-107.48919, 39.56728], [-107.49364, 39.56622], [-107.5157, 39.56679], [-107.52716, 39.57055], [-107.53716, 39.57096], [-107.54856, 39.56703], [-107.55632, 39.56005], [-107.56129, 39.55771], [-107.62696, 39.54599], [-107.63837, 39.54484], [-107.69113, 39.54805], [-107.70537, 39.54737], [-107.73217, 39.54238], [-107.7641, 39.52994], [-107.7731, 39.52806], [-107.82479, 39.52703], [-107.84205, 39.51775], [-107.86533, 39.51011], [-107.88385, 39.50165], [-107.90214, 39.50023], [-107.9155, 39.49654], [-107.92847, 39.49945], [-107.93355, 39.49922], [-107.97728, 39.47617], [-107.98817, 39.47393], [-108.00075, 39.47532], [-108.01728, 39.47386], [-108.03511, 39.46551], [-108.06425, 39.43932], [-108.06969, 39.43069], [-108.09071, 39.41012], [-108.11382, 39.39723], [-108.12358, 39.38719], [-108.13506, 39.38315], [-108.14756, 39.36983], [-108.15907, 39.36377], [-108.16064, 39.35694], [-108.18202, 39.35381], [-108.18652, 39.34836], [-108.19318, 39.34442], [-108.20381, 39.33429], [-108.21548, 39.3301], [-108.22208, 39.3235], [-108.22429, 39.31865], [-108.24404, 39.31239], [-108.24546, 39.31012], [-108.24714, 39.29336], [-108.25354, 39.28314], [-108.25495, 39.27886], [-108.25404, 39.2748], [-108.25911, 39.2694], [-108.25822, 39.2648], [-108.26166, 39.25795], [-108.25796, 39.24083], [-108.26079, 39.23902], [-108.26761, 39.24001], [-108.27284, 39.23756], [-108.27493, 39.23465], [-108.27242, 39.23008], [-108.26248, 39.22639], [-108.2586, 39.22363], [-108.25845, 39.21094], [-108.26463, 39.20667], [-108.27098, 39.19728], [-108.28218, 39.19546], [-108.28355, 39.19185], [-108.28282, 39.18484], [-108.28494, 39.18114], [-108.2897, 39.1771], [-108.30355, 39.17051], [-108.30599, 39.16299], [-108.31083, 39.15482], [-108.31587, 39.15093], [-108.31997, 39.13925], [-108.32628, 39.12966], [-108.32624, 39.12728], [-108.32201, 39.11954], [-108.32285, 39.11714], [-108.32528, 39.11564], [-108.3400585, 39.1151873], [-108.3413599, 39.1148045], [-108.3495342, 39.1117734], [-108.3517706, 39.1111261], [-108.4715581, 39.0827095], [-108.563641, 39.0607891], [-108.5641345, 39.0606787], [-108.5646709, 39.0606225], [-108.5655453, 39.0606892], [-108.5913613, 39.0820905], [-108.6843469, 39.1298879], [-108.6851971, 39.1302913], [-108.6958449, 39.135784], [-108.6984493, 39.1370795], [-108.7006943, 39.1382688], [-108.7416588, 39.1592621], [-108.8085109, 39.1934526], [-108.82642, 39.20508], [-108.8468, 39.21177], [-108.87015, 39.22532], [-108.88472, 39.22509], [-108.88917, 39.22363], [-108.90272, 39.21455], [-108.90821, 39.21385], [-108.91561, 39.20984], [-108.92541, 39.20909], [-108.93136, 39.20537], [-108.93569, 39.1988], [-108.93641, 39.18278], [-108.93944, 39.17837], [-108.94366, 39.17614], [-108.95641, 39.17583], [-108.96, 39.17334], [-108.96028, 39.17038], [-108.95632, 39.16242], [-108.95849, 39.15901], [-108.97652, 39.15699], [-108.99537, 39.15694], [-108.99735, 39.15506], [-108.99914, 39.14756], [-109.00207, 39.14307], [-109.0059, 39.14147], [-109.0169, 39.14104], [-109.02276, 39.13865], [-109.03321, 39.1234], [-109.03945, 39.11938], [-109.04768, 39.11857]]}}, {"type": "Feature", "properties": {"company": "Denver and Rio Grande Western Railroad", "line": "Denver and Rio Grande Western: Royal Gorge Route / Scenic Limited", "id": "drgw-royal-gorge-route", "color": "#B5451B", "mode": "intercity_rail", "avg_speed_kmh": 40, "speed_source": "estimated for a heavy-grade mountain main line (Tennessee Pass, at over 10,200 ft, was the highest mainline rail crossing in the US) with sharp curves through the Royal Gorge, Eagle River, and Glenwood Canyons; unsourced", "segments": [{"start": 1921, "end": 1934, "headway_min": 720, "note": "D&RGW took formal control Aug 1, 1921 after the D&RG's bankruptcy reorganization -- old D&RG stockholders received nothing from the new company, a genuine change of ownership, not just a rename, so this feature is colored separately from the preceding D&RG era. The Scenic Limited was the flagship train on this route by the early 20th century. Frequency estimated, unsourced."}, {"start": 1934, "end": 1946, "headway_min": 720, "note": "The Scenic Limited continued running via the Royal Gorge/Tennessee Pass route even after the Moffat Tunnel route opened, though it was increasingly overshadowed by faster Moffat Tunnel trains. Frequency estimated, unsourced."}, {"start": 1946, "end": 1964, "headway_min": 720, "note": "The Scenic Limited was replaced by the Royal Gorge on June 2 1946. Frequency estimated, unsourced."}, {"start": 1964, "end": 1967, "headway_min": 1440, "note": "Declining patronage led the Royal Gorge to be cut back to a Denver-Salida turn on Dec 6 1964, no longer reaching Grand Junction. The last run of the train was July 27 1967, ending regular passenger service over this route -- Amtrak's 1971 network never served it, having inherited the Moffat Tunnel route instead. Today the line is owned by Union Pacific (via the 1988 D&RGW/Southern Pacific merger and 1996 SP/UP merger); the Tennessee Pass segment specifically has been mothballed and out of service since 1997, though UP has studied reactivating it for freight capacity. This feature traces the historic passenger-era route, not current active trackage."}], "geometry_source": "", "geometry_quality": "Colorado portion (Denver area - Colorado Springs - Pueblo - Royal Gorge - Salida - Tennessee Pass - Glenwood Canyon - Grand Junction) of a real-traced 854-point OpenStreetMap route, split at the Colorado-Utah state line (~index 539 of the original combined trace) so the Utah portion can carry its own company history (Rio Grande Western Railway was a legally separate company until 1908). No leg is a straight-line placeholder. FIXED 2026-08-24: this feature previously had a segment asserting service 1882-1890 over this exact alignment, but the note attached to that segment itself said the real 1882 route to Grand Junction went via Marshall Pass/Gunnison/Montrose, 'not the route shown here' -- the Tennessee Pass alignment traced here did not exist until 1890. That segment has been removed; 1882-1890 service is now drawn separately in data/drg_marshall_pass_black_canyon.geojson over its own, correct alignment. Straight-line repair 2026-08-29: 3 ruled segments totalling 40 mi replaced with OpenStreetMap-traced rail geometry (see geometry_repairs for the OSM lines each one followed).", "geometry_repairs": [{"date": "2026-08-29", "from": [-108.59136, 39.08209], "to": [-108.80851, 39.19345], "chord_mi": 13.97, "traced_mi": 13.95, "snap_m": [0, 0], "bridged_mi": 0.0, "osm_lines": ["UP Green River Subdivision (13.95 mi)"], "method": "Overpass rail graph, 8.0 km corridor, Dijkstra, simplified to 3.0 m"}, {"date": "2026-08-29", "from": [-108.34006, 39.11519], "to": [-108.56555, 39.06069], "chord_mi": 12.68, "traced_mi": 12.68, "snap_m": [0, 0], "bridged_mi": 0.0, "osm_lines": ["UP Glenwood Springs Subdivision (12.68 mi)"], "method": "Overpass rail graph, 8.0 km corridor, Dijkstra, simplified to 3.0 m"}, {"date": "2026-08-29", "from": [-106.0507, 38.70402], "to": [-106.15291, 38.88444], "chord_mi": 13.62, "traced_mi": 13.71, "snap_m": [0, 0], "bridged_mi": 0.0, "osm_lines": ["Tennessee Pass Subdivision [disused] (10.68 mi)", "Tennessee Pass Railroad [disused] (3.03 mi)"], "method": "Overpass rail graph, 8.0 km corridor, Dijkstra, simplified to 3.0 m"}]}, "geometry": {"type": "LineString", "coordinates": [[-105.01114, 39.73786], [-105.0103, 39.72396], [-104.99718, 39.71281], [-104.99238, 39.70699], [-104.98954, 39.69123], [-104.99659, 39.66404], [-105.00579, 39.64095], [-105.01252, 39.61624], [-105.01952, 39.60335], [-105.02284, 39.58388], [-105.03183, 39.56344], [-105.04255, 39.55427], [-105.04458, 39.55139], [-105.04466, 39.54902], [-105.04166, 39.54058], [-105.03011, 39.5269], [-105.02436, 39.51735], [-105.01092, 39.50083], [-104.99777, 39.48904], [-104.98932, 39.47203], [-104.9846, 39.45939], [-104.97695, 39.45131], [-104.97306, 39.44244], [-104.95145, 39.43531], [-104.93844, 39.43398], [-104.90733, 39.42767], [-104.88609, 39.41912], [-104.87354, 39.40587], [-104.85928, 39.38317], [-104.85752, 39.36967], [-104.86046, 39.35702], [-104.8651, 39.35087], [-104.87381, 39.32343], [-104.89241, 39.28127], [-104.89382, 39.27139], [-104.88694, 39.25807], [-104.88058, 39.24929], [-104.87916, 39.23623], [-104.88464, 39.22344], [-104.88346, 39.21802], [-104.86078, 39.20368], [-104.85724, 39.19514], [-104.85459, 39.17791], [-104.86004, 39.16939], [-104.88404, 39.15056], [-104.89129, 39.13862], [-104.90079, 39.13244], [-104.90481, 39.12831], [-104.91208, 39.12459], [-104.9136, 39.12104], [-104.91222, 39.11929], [-104.9068, 39.11762], [-104.90328, 39.11496], [-104.8979, 39.11416], [-104.88913, 39.10951], [-104.88086, 39.10875], [-104.87881, 39.10351], [-104.87376, 39.10046], [-104.87335, 39.09642], [-104.87497, 39.0901], [-104.8711, 39.08517], [-104.87067, 39.07929], [-104.86524, 39.07065], [-104.86163, 39.06021], [-104.8618, 39.05504], [-104.85839, 39.04973], [-104.85478, 39.04791], [-104.85019, 39.04192], [-104.84821, 39.03706], [-104.849, 39.03341], [-104.8413, 39.01667], [-104.83569, 39.01068], [-104.83437, 39.00405], [-104.83075, 38.99988], [-104.83316, 38.99468], [-104.83099, 38.98533], [-104.83684, 38.95876], [-104.83483, 38.95384], [-104.83114, 38.95127], [-104.82236, 38.94004], [-104.81682, 38.92865], [-104.82032, 38.92105], [-104.82463, 38.90657], [-104.82525, 38.89978], [-104.83047, 38.88431], [-104.83054, 38.88026], [-104.83315, 38.87413], [-104.83216, 38.86566], [-104.83338, 38.85782], [-104.82864, 38.83711], [-104.83116, 38.8269], [-104.83088, 38.82244], [-104.82908, 38.8208], [-104.82342, 38.82067], [-104.80507, 38.81366], [-104.79358, 38.80668], [-104.78596, 38.7988], [-104.7747, 38.79084], [-104.76871, 38.77836], [-104.7185, 38.72352], [-104.70505, 38.69659], [-104.70178, 38.66535], [-104.69554, 38.64951], [-104.69164, 38.64374], [-104.69202, 38.63764], [-104.68711, 38.61801], [-104.66865, 38.58897], [-104.65598, 38.57161], [-104.62519, 38.50898], [-104.60956, 38.46991], [-104.60644, 38.4593], [-104.60524, 38.44666], [-104.60661, 38.42694], [-104.61272, 38.39887], [-104.62361, 38.38329], [-104.63427, 38.3777], [-104.63708, 38.37483], [-104.63907, 38.36483], [-104.64745, 38.34704], [-104.6501, 38.33563], [-104.64944, 38.33158], [-104.64507, 38.32244], [-104.6483, 38.30698], [-104.64736, 38.3019], [-104.63043, 38.2747], [-104.62217, 38.2693], [-104.61835, 38.26297], [-104.6144, 38.26108], [-104.60333, 38.26385], [-104.61414, 38.26105], [-104.61875, 38.26328], [-104.62327, 38.26988], [-104.63271, 38.2751], [-104.63779, 38.27637], [-104.65223, 38.27458], [-104.66145, 38.28092], [-104.66588, 38.28251], [-104.67397, 38.28147], [-104.68887, 38.27098], [-104.69457, 38.26986], [-104.699, 38.27152], [-104.7039, 38.27857], [-104.70911, 38.28109], [-104.7294, 38.28224], [-104.73996, 38.28002], [-104.7567, 38.28093], [-104.76176, 38.28291], [-104.76733, 38.28951], [-104.77148, 38.29138], [-104.79881, 38.29636], [-104.81882, 38.29706], [-104.83263, 38.29914], [-104.85189, 38.30541], [-104.86302, 38.30472], [-104.87727, 38.30826], [-104.88923, 38.31771], [-104.90567, 38.32426], [-104.91262, 38.32977], [-104.92031, 38.33258], [-104.93747, 38.34334], [-104.94694, 38.34648], [-104.95328, 38.35839], [-104.95859, 38.36501], [-104.97037, 38.37471], [-104.97632, 38.37669], [-104.98205, 38.38038], [-104.99117, 38.38018], [-105.00203, 38.38212], [-105.00885, 38.38807], [-105.01962, 38.38892], [-105.02705, 38.39341], [-105.03382, 38.39468], [-105.04752, 38.3914], [-105.0572, 38.39306], [-105.06302, 38.38864], [-105.08122, 38.38312], [-105.08963, 38.38486], [-105.11462, 38.38622], [-105.14259, 38.40426], [-105.15274, 38.40656], [-105.16546, 38.41304], [-105.18676, 38.43512], [-105.19541, 38.44198], [-105.20519, 38.44737], [-105.2209, 38.44752], [-105.23594, 38.44061], [-105.41377, 38.48322], [-105.43016, 38.47744], [-105.44057, 38.47575], [-105.44462, 38.47266], [-105.45056, 38.47194], [-105.45553, 38.46195], [-105.45909, 38.45982], [-105.48317, 38.45832], [-105.49498, 38.45423], [-105.50205, 38.45627], [-105.51222, 38.45691], [-105.52487, 38.44636], [-105.541, 38.44177], [-105.54179, 38.43983], [-105.5405, 38.43636], [-105.54356, 38.43036], [-105.55209, 38.43008], [-105.55499, 38.42721], [-105.56141, 38.42435], [-105.56867, 38.42618], [-105.58232, 38.41224], [-105.58852, 38.41071], [-105.60404, 38.41271], [-105.61191, 38.41156], [-105.61454, 38.40924], [-105.61845, 38.39749], [-105.6216, 38.39531], [-105.62587, 38.39514], [-105.63221, 38.3975], [-105.64168, 38.39221], [-105.65421, 38.39119], [-105.65907, 38.38628], [-105.66588, 38.38223], [-105.67396, 38.37347], [-105.68037, 38.37432], [-105.68561, 38.37223], [-105.695, 38.37292], [-105.70118, 38.37131], [-105.70573, 38.36836], [-105.71535, 38.36803], [-105.72303, 38.3639], [-105.72733, 38.35961], [-105.72974, 38.35916], [-105.73373, 38.36154], [-105.74181, 38.36179], [-105.76253, 38.37817], [-105.76479, 38.38221], [-105.76549, 38.38665], [-105.77494, 38.39708], [-105.77576, 38.40267], [-105.78228, 38.4063], [-105.78751, 38.41111], [-105.79222, 38.41827], [-105.80352, 38.42925], [-105.80917, 38.43135], [-105.82295, 38.43319], [-105.83085, 38.43797], [-105.83337, 38.44533], [-105.84333, 38.46113], [-105.84955, 38.46436], [-105.86224, 38.46621], [-105.86589, 38.47321], [-105.87662, 38.47324], [-105.88097, 38.47635], [-105.88636, 38.47749], [-105.89089, 38.48042], [-105.91452, 38.48825], [-105.91642, 38.49138], [-105.91567, 38.49677], [-105.91725, 38.49833], [-105.92552, 38.49905], [-105.93386, 38.50358], [-105.94318, 38.50323], [-105.94884, 38.50661], [-105.95562, 38.50609], [-105.97279, 38.51568], [-105.98138, 38.53095], [-105.99393, 38.54208], [-106.01064, 38.55041], [-106.02758, 38.56247], [-106.05585, 38.58353], [-106.06338, 38.59322], [-106.06165, 38.60647], [-106.0601, 38.61126], [-106.05728, 38.61484], [-106.0512, 38.64001], [-106.04824, 38.64528], [-106.04845, 38.64969], [-106.05048, 38.65219], [-106.04647, 38.66223], [-106.05048, 38.66853], [-106.04881, 38.67037], [-106.04867, 38.67316], [-106.04224, 38.68034], [-106.0434, 38.68611], [-106.04988, 38.69574], [-106.05169, 38.7012], [-106.0506989, 38.7040182], [-106.0503569, 38.7048842], [-106.0503034, 38.7052564], [-106.050357, 38.7058237], [-106.0504871, 38.7062399], [-106.0508545, 38.7069654], [-106.0554189, 38.7150103], [-106.0563932, 38.7166193], [-106.0574296, 38.7185667], [-106.0601153, 38.7232605], [-106.06509, 38.7304782], [-106.0725888, 38.7432568], [-106.0869426, 38.7646682], [-106.103884, 38.793854], [-106.1075164, 38.8002727], [-106.1212869, 38.8219988], [-106.1223818, 38.8238119], [-106.1232831, 38.8255878], [-106.1304807, 38.8405698], [-106.1393044, 38.8589545], [-106.1395977, 38.8596509], [-106.1398104, 38.8605123], [-106.139871, 38.8617087], [-106.1395672, 38.864349], [-106.1395787, 38.8647825], [-106.1396395, 38.8652059], [-106.1399658, 38.866096], [-106.1405834, 38.8672061], [-106.1440025, 38.8726802], [-106.1485153, 38.8801832], [-106.1493743, 38.8812478], [-106.1498417, 38.8817184], [-106.1522002, 38.883712], [-106.152913, 38.8844401], [-106.16307, 38.89688], [-106.16898, 38.91009], [-106.1704, 38.92194], [-106.17341, 38.92763], [-106.1912, 38.94624], [-106.20261, 38.96082], [-106.2071, 38.97034], [-106.21412, 38.97668], [-106.22196, 38.99794], [-106.22597, 39.00164], [-106.23689, 39.00336], [-106.24199, 39.00739], [-106.24157, 39.01044], [-106.2347, 39.01471], [-106.23466, 39.02019], [-106.2484, 39.03136], [-106.25166, 39.03541], [-106.25844, 39.03586], [-106.26374, 39.03965], [-106.2656, 39.04769], [-106.27192, 39.05547], [-106.27302, 39.06065], [-106.27239, 39.06492], [-106.27874, 39.0713], [-106.28758, 39.09269], [-106.29499, 39.10211], [-106.29921, 39.10517], [-106.31203, 39.12373], [-106.31631, 39.13202], [-106.32521, 39.16563], [-106.34625, 39.20496], [-106.3507, 39.22856], [-106.34998, 39.23836], [-106.33918, 39.26685], [-106.34245, 39.28075], [-106.33937, 39.28443], [-106.32993, 39.28879], [-106.32919, 39.29719], [-106.32676, 39.30151], [-106.32995, 39.31212], [-106.3297, 39.31627], [-106.33388, 39.32068], [-106.3347, 39.32528], [-106.32605, 39.34272], [-106.31431, 39.35325], [-106.31092, 39.36719], [-106.31199, 39.36942], [-106.31649, 39.37191], [-106.32087, 39.38008], [-106.32086, 39.38358], [-106.31669, 39.38625], [-106.31973, 39.39014], [-106.31845, 39.39308], [-106.3198, 39.39852], [-106.31837, 39.40452], [-106.31825, 39.41346], [-106.32046, 39.41758], [-106.32435, 39.41987], [-106.32343, 39.42608], [-106.3286, 39.43925], [-106.33209, 39.44183], [-106.33635, 39.44789], [-106.33629, 39.45259], [-106.33098, 39.46241], [-106.33236, 39.46413], [-106.34098, 39.46771], [-106.342, 39.47096], [-106.34022, 39.47491], [-106.34353, 39.47918], [-106.3499, 39.48039], [-106.35774, 39.49634], [-106.36179, 39.49849], [-106.36282, 39.5016], [-106.36495, 39.50334], [-106.36804, 39.51129], [-106.37025, 39.51153], [-106.37449, 39.50816], [-106.38306, 39.50854], [-106.38735, 39.51455], [-106.39494, 39.51828], [-106.39664, 39.52308], [-106.39474, 39.52592], [-106.39596, 39.52719], [-106.40107, 39.52778], [-106.4019, 39.52996], [-106.40065, 39.53228], [-106.40087, 39.53675], [-106.40513, 39.54482], [-106.40193, 39.55027], [-106.39913, 39.55902], [-106.40518, 39.573], [-106.40945, 39.57624], [-106.42461, 39.58344], [-106.42996, 39.58873], [-106.43451, 39.60021], [-106.44349, 39.60717], [-106.44921, 39.60904], [-107.13607, 39.61329], [-107.14036, 39.61283], [-107.14537, 39.60969], [-107.15339, 39.60799], [-107.15635, 39.60365], [-107.17086, 39.59921], [-107.17941, 39.5912], [-107.18511, 39.59136], [-107.18889, 39.5886], [-107.19558, 39.58634], [-107.19868, 39.58228], [-107.20612, 39.57636], [-107.20965, 39.57562], [-107.21831, 39.57688], [-107.22148, 39.57597], [-107.224, 39.57048], [-107.23507, 39.56471], [-107.23906, 39.55984], [-107.24393, 39.55648], [-107.25031, 39.55957], [-107.26818, 39.56263], [-107.2729, 39.56584], [-107.27941, 39.55999], [-107.28665, 39.55936], [-107.29122, 39.55665], [-107.3035, 39.56065], [-107.30644, 39.5563], [-107.3126, 39.55744], [-107.31913, 39.54992], [-107.32607, 39.54807], [-107.33618, 39.55094], [-107.34121, 39.55697], [-107.35165, 39.55926], [-107.36346, 39.55852], [-107.36882, 39.55994], [-107.38258, 39.56009], [-107.39938, 39.55661], [-107.4102, 39.56301], [-107.42529, 39.56611], [-107.42975, 39.57019], [-107.44091, 39.57478], [-107.45765, 39.57154], [-107.4736, 39.57368], [-107.48164, 39.5719], [-107.48919, 39.56728], [-107.49364, 39.56622], [-107.5157, 39.56679], [-107.52716, 39.57055], [-107.53716, 39.57096], [-107.54856, 39.56703], [-107.55632, 39.56005], [-107.56129, 39.55771], [-107.62696, 39.54599], [-107.63837, 39.54484], [-107.69113, 39.54805], [-107.70537, 39.54737], [-107.73217, 39.54238], [-107.7641, 39.52994], [-107.7731, 39.52806], [-107.82479, 39.52703], [-107.84205, 39.51775], [-107.86533, 39.51011], [-107.88385, 39.50165], [-107.90214, 39.50023], [-107.9155, 39.49654], [-107.92847, 39.49945], [-107.93355, 39.49922], [-107.97728, 39.47617], [-107.98817, 39.47393], [-108.00075, 39.47532], [-108.01728, 39.47386], [-108.03511, 39.46551], [-108.06425, 39.43932], [-108.06969, 39.43069], [-108.09071, 39.41012], [-108.11382, 39.39723], [-108.12358, 39.38719], [-108.13506, 39.38315], [-108.14756, 39.36983], [-108.15907, 39.36377], [-108.16064, 39.35694], [-108.18202, 39.35381], [-108.18652, 39.34836], [-108.19318, 39.34442], [-108.20381, 39.33429], [-108.21548, 39.3301], [-108.22208, 39.3235], [-108.22429, 39.31865], [-108.24404, 39.31239], [-108.24546, 39.31012], [-108.24714, 39.29336], [-108.25354, 39.28314], [-108.25495, 39.27886], [-108.25404, 39.2748], [-108.25911, 39.2694], [-108.25822, 39.2648], [-108.26166, 39.25795], [-108.25796, 39.24083], [-108.26079, 39.23902], [-108.26761, 39.24001], [-108.27284, 39.23756], [-108.27493, 39.23465], [-108.27242, 39.23008], [-108.26248, 39.22639], [-108.2586, 39.22363], [-108.25845, 39.21094], [-108.26463, 39.20667], [-108.27098, 39.19728], [-108.28218, 39.19546], [-108.28355, 39.19185], [-108.28282, 39.18484], [-108.28494, 39.18114], [-108.2897, 39.1771], [-108.30355, 39.17051], [-108.30599, 39.16299], [-108.31083, 39.15482], [-108.31587, 39.15093], [-108.31997, 39.13925], [-108.32628, 39.12966], [-108.32624, 39.12728], [-108.32201, 39.11954], [-108.32285, 39.11714], [-108.32528, 39.11564], [-108.3400585, 39.1151873], [-108.3413599, 39.1148045], [-108.3495342, 39.1117734], [-108.3517706, 39.1111261], [-108.4715581, 39.0827095], [-108.563641, 39.0607891], [-108.5641345, 39.0606787], [-108.5646709, 39.0606225], [-108.5655453, 39.0606892], [-108.5913613, 39.0820905], [-108.6843469, 39.1298879], [-108.6851971, 39.1302913], [-108.6958449, 39.135784], [-108.6984493, 39.1370795], [-108.7006943, 39.1382688], [-108.7416588, 39.1592621], [-108.8085109, 39.1934526], [-108.82642, 39.20508], [-108.8468, 39.21177], [-108.87015, 39.22532], [-108.88472, 39.22509], [-108.88917, 39.22363], [-108.90272, 39.21455], [-108.90821, 39.21385], [-108.91561, 39.20984], [-108.92541, 39.20909], [-108.93136, 39.20537], [-108.93569, 39.1988], [-108.93641, 39.18278], [-108.93944, 39.17837], [-108.94366, 39.17614], [-108.95641, 39.17583], [-108.96, 39.17334], [-108.96028, 39.17038], [-108.95632, 39.16242], [-108.95849, 39.15901], [-108.97652, 39.15699], [-108.99537, 39.15694], [-108.99735, 39.15506], [-108.99914, 39.14756], [-109.00207, 39.14307], [-109.0059, 39.14147], [-109.0169, 39.14104], [-109.02276, 39.13865], [-109.03321, 39.1234], [-109.03945, 39.11938], [-109.04768, 39.11857]]}}, {"type": "Feature", "properties": {"company": "Rio Grande Western Railway", "line": "Rio Grande Western: Grand Junction \u2013 Salt Lake City", "id": "rgw-grand-junction-salt-lake-city", "color": "#4A7A96", "mode": "intercity_rail", "avg_speed_kmh": 40, "speed_source": "estimated for a heavy-grade mountain main line (Tennessee Pass, at over 10,200 ft, was the highest mainline rail crossing in the US) with sharp curves through the Royal Gorge, Eagle River, and Glenwood Canyons; unsourced", "segments": [{"start": 1883, "end": 1908, "headway_min": 720, "note": "Organized July 21, 1881 as the Denver and Rio Grande Western Railway (a legally separate company from the Denver & Rio Grande, despite the confusingly similar name -- and not to be confused with the 1921 Denver and Rio Grande Western Railroad, a different company four decades later that happened to reuse a near-identical name). Built west from the Colorado line via Green River and Price toward Salt Lake City; its construction crews met the D&RG's, building west from Grand Junction, a few miles west of Green River on March 30, 1883, completing a through narrow-gauge Denver-Salt Lake City route. Reorganized and renamed the Rio Grande Western Railway in 1889 (consolidating with the State Line and Denver Railway); George Gould took stock control in Feb 1901, then formally merged it into the Denver & Rio Grande on Aug 1, 1908, ending its separate corporate existence -- the split used here follows this dataset's convention of coloring by the formal merger since, unlike some of this project's other splits, no source found describes D&RG actually dispatching or staffing RGW's trains before 1908, only holding its stock from 1901. Frequency estimated, unsourced."}], "geometry_source": "", "geometry_quality": "Utah portion (Colorado-Utah state line - Green River - Price - Soldier Summit - Provo area - Salt Lake City) of the same real-traced OpenStreetMap route split out from the Colorado portion above; see that feature's geometry_quality for the tracing method. No leg is a straight-line placeholder."}, "geometry": {"type": "LineString", "coordinates": [[-109.04768, 39.11857], [-109.06549, 39.12291], [-109.07628, 39.12065], [-109.08064, 39.11768], [-109.08605, 39.11147], [-109.08772, 39.10377], [-109.11391, 39.08354], [-109.12517, 39.08124], [-109.14413, 39.07337], [-109.14853, 39.07385], [-109.1561, 39.07704], [-109.1718, 39.07868], [-109.17688, 39.07751], [-109.1795, 39.07526], [-109.1837, 39.06738], [-109.1904, 39.05861], [-109.20607, 39.04327], [-109.21087, 39.03241], [-109.22251, 39.02207], [-109.25162, 39.01147], [-109.26358, 39.00072], [-109.26834, 38.99309], [-109.27581, 38.98643], [-109.27844, 38.977], [-109.28025, 38.97485], [-109.28424, 38.9737], [-109.30265, 38.97516], [-109.33928, 38.9663], [-109.34667, 38.96183], [-109.35692, 38.94953], [-109.36327, 38.94624], [-109.38719, 38.94458], [-109.40304, 38.94893], [-109.41958, 38.93982], [-109.43055, 38.93865], [-109.43747, 38.93577], [-109.45395, 38.93629], [-109.52581, 38.95478], [-109.54205, 38.96054], [-109.59796, 38.96417], [-109.61954, 38.96039], [-109.64135, 38.96697], [-109.64913, 38.96227], [-109.6567, 38.96128], [-109.66617, 38.96386], [-109.67786, 38.96395], [-109.68046, 38.96243], [-109.68387, 38.95737], [-109.68729, 38.95626], [-109.69315, 38.95868], [-109.69717, 38.9656], [-109.70276, 38.96973], [-109.7238, 38.97214], [-109.73236, 38.97104], [-109.74235, 38.96777], [-109.75704, 38.96686], [-109.77056, 38.96322], [-109.78102, 38.96209], [-109.82271, 38.94251], [-109.83257, 38.93991], [-109.85278, 38.9366], [-109.86551, 38.93785], [-109.89202, 38.93607], [-109.92548, 38.92413], [-109.93066, 38.92367], [-109.958, 38.92996], [-109.96945, 38.9426], [-109.97679, 38.94577], [-109.98154, 38.95103], [-109.99918, 38.9607], [-110.00816, 38.96161], [-110.02606, 38.958], [-110.03194, 38.95831], [-110.04231, 38.96219], [-110.07103, 38.9775], [-110.07662, 38.97865], [-110.09052, 38.97868], [-110.11046, 38.9879], [-110.11567, 38.98753], [-110.12734, 38.98301], [-110.13521, 38.98231], [-110.15578, 38.98602], [-110.16566, 38.99207], [-110.16993, 38.99338], [-110.19291, 38.99304], [-110.22157, 38.99736], [-110.23673, 38.99541], [-110.2424, 38.99584], [-110.27319, 39.00497], [-110.29977, 39.02733], [-110.30287, 39.03104], [-110.30598, 39.03866], [-110.31936, 39.08976], [-110.3311, 39.12727], [-110.34061, 39.1393], [-110.34263, 39.14364], [-110.3449, 39.19209], [-110.34732, 39.19606], [-110.35493, 39.20206], [-110.3569, 39.20603], [-110.34928, 39.23591], [-110.34156, 39.24907], [-110.34114, 39.25469], [-110.34862, 39.26411], [-110.36176, 39.26868], [-110.37462, 39.28125], [-110.37953, 39.31419], [-110.38126, 39.31659], [-110.38742, 39.32022], [-110.38883, 39.32289], [-110.38418, 39.34836], [-110.40416, 39.37738], [-110.40868, 39.37829], [-110.41342, 39.37303], [-110.41743, 39.37213], [-110.4222, 39.3736], [-110.42794, 39.3791], [-110.43117, 39.37901], [-110.43622, 39.37669], [-110.43899, 39.37721], [-110.45401, 39.38606], [-110.45637, 39.39508], [-110.458, 39.39724], [-110.46955, 39.4012], [-110.47406, 39.40607], [-110.48309, 39.41151], [-110.49568, 39.42149], [-110.52101, 39.43569], [-110.5246, 39.44217], [-110.54563, 39.45665], [-110.55369, 39.46068], [-110.56143, 39.4613], [-110.57609, 39.45408], [-110.58556, 39.45309], [-110.60233, 39.46006], [-110.61877, 39.47257], [-110.62895, 39.47598], [-110.63817, 39.48386], [-110.64228, 39.49179], [-110.64508, 39.49459], [-110.6584, 39.49785], [-110.66523, 39.50256], [-110.67849, 39.50885], [-110.68434, 39.51556], [-110.69746, 39.52297], [-110.70867, 39.53383], [-110.74549, 39.54454], [-110.7807, 39.57018], [-110.78445, 39.57473], [-110.78901, 39.58398], [-110.793, 39.58799], [-110.81987, 39.60172], [-110.83224, 39.61719], [-110.85613, 39.63798], [-110.85915, 39.64402], [-110.85905, 39.64701], [-110.85517, 39.65254], [-110.8563, 39.66123], [-110.85534, 39.66507], [-110.85937, 39.67254], [-110.85372, 39.68237], [-110.85365, 39.68736], [-110.85613, 39.69179], [-110.86433, 39.69621], [-110.86495, 39.70255], [-110.86852, 39.70692], [-110.86633, 39.71097], [-110.8683, 39.71619], [-110.86472, 39.72144], [-110.86677, 39.7252], [-110.86554, 39.72883], [-110.87181, 39.73444], [-110.87494, 39.74049], [-110.88403, 39.74784], [-110.88458, 39.75076], [-110.89023, 39.75975], [-110.89604, 39.76377], [-110.90274, 39.76486], [-110.91219, 39.77629], [-110.92687, 39.78615], [-110.9307, 39.79163], [-110.93091, 39.79486], [-110.92266, 39.80125], [-110.92254, 39.80345], [-110.92465, 39.80439], [-110.93141, 39.80358], [-110.93563, 39.80154], [-110.94173, 39.80493], [-110.94206, 39.80789], [-110.9371, 39.81374], [-110.93732, 39.81776], [-110.94316, 39.82263], [-110.94401, 39.82609], [-110.95113, 39.82707], [-110.95412, 39.83349], [-110.96067, 39.83676], [-110.97119, 39.83521], [-110.9942, 39.84457], [-110.99715, 39.8438], [-111.00287, 39.83875], [-111.00696, 39.83927], [-111.01084, 39.84649], [-111.02587, 39.86011], [-111.03803, 39.87581], [-111.04936, 39.88502], [-111.05311, 39.8938], [-111.06862, 39.921], [-111.09653, 39.93253], [-111.11841, 39.93223], [-111.13297, 39.92997], [-111.13666, 39.9307], [-111.14872, 39.92955], [-111.15027, 39.92792], [-111.1493, 39.92486], [-111.15001, 39.922], [-111.15174, 39.92074], [-111.15625, 39.9237], [-111.16267, 39.92418], [-111.16728, 39.92273], [-111.17177, 39.92352], [-111.1842, 39.92179], [-111.18578, 39.92064], [-111.18799, 39.91514], [-111.19042, 39.91439], [-111.19207, 39.91642], [-111.18864, 39.91875], [-111.1876, 39.92242], [-111.16623, 39.92861], [-111.16487, 39.92998], [-111.16545, 39.93137], [-111.16758, 39.93203], [-111.18419, 39.92955], [-111.19677, 39.93086], [-111.198, 39.93222], [-111.19626, 39.9372], [-111.19786, 39.9445], [-111.20244, 39.94534], [-111.20589, 39.94788], [-111.21293, 39.94892], [-111.21692, 39.95146], [-111.22347, 39.95226], [-111.22828, 39.95473], [-111.2486, 39.95645], [-111.26096, 39.9531], [-111.26764, 39.95398], [-111.27272, 39.9516], [-111.2894, 39.952], [-111.29891, 39.9553], [-111.31015, 39.96545], [-111.3202, 39.96528], [-111.35715, 39.98123], [-111.36822, 39.98825], [-111.37879, 39.99091], [-111.3956, 39.99181], [-111.4051, 39.99648], [-111.41742, 39.9973], [-111.43148, 39.9955], [-111.44511, 39.9957], [-111.45157, 39.99419], [-111.47137, 39.99393], [-111.48333, 39.99877], [-111.49144, 39.99762], [-111.49547, 40.00081], [-111.49406, 40.01285], [-111.50381, 40.02713], [-111.5118, 40.02953], [-111.51735, 40.03325], [-111.54476, 40.04211], [-111.54835, 40.04583], [-111.54764, 40.05078], [-111.5491, 40.05333], [-111.56089, 40.05616], [-111.5676, 40.0597], [-111.57359, 40.06515], [-111.57697, 40.07119], [-111.58914, 40.08299], [-111.59215, 40.09474], [-111.61507, 40.12783], [-111.615, 40.13165], [-111.60588, 40.14367], [-111.60497, 40.14848], [-111.6074, 40.15276], [-111.61758, 40.16079], [-111.61825, 40.18193], [-111.63078, 40.20531], [-111.64594, 40.22004], [-111.65256, 40.22404], [-111.67091, 40.22596], [-111.67561, 40.22823], [-111.72001, 40.2737], [-111.76255, 40.33077], [-111.80022, 40.36857], [-111.80741, 40.37215], [-111.85364, 40.38227], [-111.85706, 40.39159], [-111.889, 40.41852], [-111.91159, 40.43952], [-111.92194, 40.44274], [-111.92297, 40.45039], [-111.93249, 40.45935], [-111.93313, 40.46291], [-111.93133, 40.47151], [-111.9053, 40.50923], [-111.90412, 40.51251], [-111.9047, 40.52915], [-111.90041, 40.56514], [-111.9045, 40.57491], [-111.90271, 40.59023], [-111.90686, 40.61426], [-111.90078, 40.63976], [-111.9001, 40.64954], [-111.89569, 40.66422], [-111.89738, 40.67986], [-111.90834, 40.71281], [-111.90878, 40.76002]]}}, {"type": "Feature", "properties": {"company": "Denver & Rio Grande Railway", "line": "Denver & Rio Grande: Grand Junction \u2013 Salt Lake City", "id": "drg-grand-junction-salt-lake-city", "color": "#8B5E3C", "mode": "intercity_rail", "avg_speed_kmh": 40, "speed_source": "estimated for a heavy-grade mountain main line (Tennessee Pass, at over 10,200 ft, was the highest mainline rail crossing in the US) with sharp curves through the Royal Gorge, Eagle River, and Glenwood Canyons; unsourced", "segments": [{"start": 1908, "end": 1921, "headway_min": 720, "note": "The Rio Grande Western Railway was formally merged into the Denver & Rio Grande Railroad (reincorporated as \"Denver & Rio Grande Railroad (Consolidated)\") on Aug 1, 1908, together with several smaller Utah subsidiaries, unifying the Denver-Salt Lake City route under one company for the first time. Frequency estimated, unsourced."}], "geometry_source": "", "geometry_quality": "Utah portion (Colorado-Utah state line - Green River - Price - Soldier Summit - Provo area - Salt Lake City) of the same real-traced OpenStreetMap route split out from the Colorado portion above; see that feature's geometry_quality for the tracing method. No leg is a straight-line placeholder."}, "geometry": {"type": "LineString", "coordinates": [[-109.04768, 39.11857], [-109.06549, 39.12291], [-109.07628, 39.12065], [-109.08064, 39.11768], [-109.08605, 39.11147], [-109.08772, 39.10377], [-109.11391, 39.08354], [-109.12517, 39.08124], [-109.14413, 39.07337], [-109.14853, 39.07385], [-109.1561, 39.07704], [-109.1718, 39.07868], [-109.17688, 39.07751], [-109.1795, 39.07526], [-109.1837, 39.06738], [-109.1904, 39.05861], [-109.20607, 39.04327], [-109.21087, 39.03241], [-109.22251, 39.02207], [-109.25162, 39.01147], [-109.26358, 39.00072], [-109.26834, 38.99309], [-109.27581, 38.98643], [-109.27844, 38.977], [-109.28025, 38.97485], [-109.28424, 38.9737], [-109.30265, 38.97516], [-109.33928, 38.9663], [-109.34667, 38.96183], [-109.35692, 38.94953], [-109.36327, 38.94624], [-109.38719, 38.94458], [-109.40304, 38.94893], [-109.41958, 38.93982], [-109.43055, 38.93865], [-109.43747, 38.93577], [-109.45395, 38.93629], [-109.52581, 38.95478], [-109.54205, 38.96054], [-109.59796, 38.96417], [-109.61954, 38.96039], [-109.64135, 38.96697], [-109.64913, 38.96227], [-109.6567, 38.96128], [-109.66617, 38.96386], [-109.67786, 38.96395], [-109.68046, 38.96243], [-109.68387, 38.95737], [-109.68729, 38.95626], [-109.69315, 38.95868], [-109.69717, 38.9656], [-109.70276, 38.96973], [-109.7238, 38.97214], [-109.73236, 38.97104], [-109.74235, 38.96777], [-109.75704, 38.96686], [-109.77056, 38.96322], [-109.78102, 38.96209], [-109.82271, 38.94251], [-109.83257, 38.93991], [-109.85278, 38.9366], [-109.86551, 38.93785], [-109.89202, 38.93607], [-109.92548, 38.92413], [-109.93066, 38.92367], [-109.958, 38.92996], [-109.96945, 38.9426], [-109.97679, 38.94577], [-109.98154, 38.95103], [-109.99918, 38.9607], [-110.00816, 38.96161], [-110.02606, 38.958], [-110.03194, 38.95831], [-110.04231, 38.96219], [-110.07103, 38.9775], [-110.07662, 38.97865], [-110.09052, 38.97868], [-110.11046, 38.9879], [-110.11567, 38.98753], [-110.12734, 38.98301], [-110.13521, 38.98231], [-110.15578, 38.98602], [-110.16566, 38.99207], [-110.16993, 38.99338], [-110.19291, 38.99304], [-110.22157, 38.99736], [-110.23673, 38.99541], [-110.2424, 38.99584], [-110.27319, 39.00497], [-110.29977, 39.02733], [-110.30287, 39.03104], [-110.30598, 39.03866], [-110.31936, 39.08976], [-110.3311, 39.12727], [-110.34061, 39.1393], [-110.34263, 39.14364], [-110.3449, 39.19209], [-110.34732, 39.19606], [-110.35493, 39.20206], [-110.3569, 39.20603], [-110.34928, 39.23591], [-110.34156, 39.24907], [-110.34114, 39.25469], [-110.34862, 39.26411], [-110.36176, 39.26868], [-110.37462, 39.28125], [-110.37953, 39.31419], [-110.38126, 39.31659], [-110.38742, 39.32022], [-110.38883, 39.32289], [-110.38418, 39.34836], [-110.40416, 39.37738], [-110.40868, 39.37829], [-110.41342, 39.37303], [-110.41743, 39.37213], [-110.4222, 39.3736], [-110.42794, 39.3791], [-110.43117, 39.37901], [-110.43622, 39.37669], [-110.43899, 39.37721], [-110.45401, 39.38606], [-110.45637, 39.39508], [-110.458, 39.39724], [-110.46955, 39.4012], [-110.47406, 39.40607], [-110.48309, 39.41151], [-110.49568, 39.42149], [-110.52101, 39.43569], [-110.5246, 39.44217], [-110.54563, 39.45665], [-110.55369, 39.46068], [-110.56143, 39.4613], [-110.57609, 39.45408], [-110.58556, 39.45309], [-110.60233, 39.46006], [-110.61877, 39.47257], [-110.62895, 39.47598], [-110.63817, 39.48386], [-110.64228, 39.49179], [-110.64508, 39.49459], [-110.6584, 39.49785], [-110.66523, 39.50256], [-110.67849, 39.50885], [-110.68434, 39.51556], [-110.69746, 39.52297], [-110.70867, 39.53383], [-110.74549, 39.54454], [-110.7807, 39.57018], [-110.78445, 39.57473], [-110.78901, 39.58398], [-110.793, 39.58799], [-110.81987, 39.60172], [-110.83224, 39.61719], [-110.85613, 39.63798], [-110.85915, 39.64402], [-110.85905, 39.64701], [-110.85517, 39.65254], [-110.8563, 39.66123], [-110.85534, 39.66507], [-110.85937, 39.67254], [-110.85372, 39.68237], [-110.85365, 39.68736], [-110.85613, 39.69179], [-110.86433, 39.69621], [-110.86495, 39.70255], [-110.86852, 39.70692], [-110.86633, 39.71097], [-110.8683, 39.71619], [-110.86472, 39.72144], [-110.86677, 39.7252], [-110.86554, 39.72883], [-110.87181, 39.73444], [-110.87494, 39.74049], [-110.88403, 39.74784], [-110.88458, 39.75076], [-110.89023, 39.75975], [-110.89604, 39.76377], [-110.90274, 39.76486], [-110.91219, 39.77629], [-110.92687, 39.78615], [-110.9307, 39.79163], [-110.93091, 39.79486], [-110.92266, 39.80125], [-110.92254, 39.80345], [-110.92465, 39.80439], [-110.93141, 39.80358], [-110.93563, 39.80154], [-110.94173, 39.80493], [-110.94206, 39.80789], [-110.9371, 39.81374], [-110.93732, 39.81776], [-110.94316, 39.82263], [-110.94401, 39.82609], [-110.95113, 39.82707], [-110.95412, 39.83349], [-110.96067, 39.83676], [-110.97119, 39.83521], [-110.9942, 39.84457], [-110.99715, 39.8438], [-111.00287, 39.83875], [-111.00696, 39.83927], [-111.01084, 39.84649], [-111.02587, 39.86011], [-111.03803, 39.87581], [-111.04936, 39.88502], [-111.05311, 39.8938], [-111.06862, 39.921], [-111.09653, 39.93253], [-111.11841, 39.93223], [-111.13297, 39.92997], [-111.13666, 39.9307], [-111.14872, 39.92955], [-111.15027, 39.92792], [-111.1493, 39.92486], [-111.15001, 39.922], [-111.15174, 39.92074], [-111.15625, 39.9237], [-111.16267, 39.92418], [-111.16728, 39.92273], [-111.17177, 39.92352], [-111.1842, 39.92179], [-111.18578, 39.92064], [-111.18799, 39.91514], [-111.19042, 39.91439], [-111.19207, 39.91642], [-111.18864, 39.91875], [-111.1876, 39.92242], [-111.16623, 39.92861], [-111.16487, 39.92998], [-111.16545, 39.93137], [-111.16758, 39.93203], [-111.18419, 39.92955], [-111.19677, 39.93086], [-111.198, 39.93222], [-111.19626, 39.9372], [-111.19786, 39.9445], [-111.20244, 39.94534], [-111.20589, 39.94788], [-111.21293, 39.94892], [-111.21692, 39.95146], [-111.22347, 39.95226], [-111.22828, 39.95473], [-111.2486, 39.95645], [-111.26096, 39.9531], [-111.26764, 39.95398], [-111.27272, 39.9516], [-111.2894, 39.952], [-111.29891, 39.9553], [-111.31015, 39.96545], [-111.3202, 39.96528], [-111.35715, 39.98123], [-111.36822, 39.98825], [-111.37879, 39.99091], [-111.3956, 39.99181], [-111.4051, 39.99648], [-111.41742, 39.9973], [-111.43148, 39.9955], [-111.44511, 39.9957], [-111.45157, 39.99419], [-111.47137, 39.99393], [-111.48333, 39.99877], [-111.49144, 39.99762], [-111.49547, 40.00081], [-111.49406, 40.01285], [-111.50381, 40.02713], [-111.5118, 40.02953], [-111.51735, 40.03325], [-111.54476, 40.04211], [-111.54835, 40.04583], [-111.54764, 40.05078], [-111.5491, 40.05333], [-111.56089, 40.05616], [-111.5676, 40.0597], [-111.57359, 40.06515], [-111.57697, 40.07119], [-111.58914, 40.08299], [-111.59215, 40.09474], [-111.61507, 40.12783], [-111.615, 40.13165], [-111.60588, 40.14367], [-111.60497, 40.14848], [-111.6074, 40.15276], [-111.61758, 40.16079], [-111.61825, 40.18193], [-111.63078, 40.20531], [-111.64594, 40.22004], [-111.65256, 40.22404], [-111.67091, 40.22596], [-111.67561, 40.22823], [-111.72001, 40.2737], [-111.76255, 40.33077], [-111.80022, 40.36857], [-111.80741, 40.37215], [-111.85364, 40.38227], [-111.85706, 40.39159], [-111.889, 40.41852], [-111.91159, 40.43952], [-111.92194, 40.44274], [-111.92297, 40.45039], [-111.93249, 40.45935], [-111.93313, 40.46291], [-111.93133, 40.47151], [-111.9053, 40.50923], [-111.90412, 40.51251], [-111.9047, 40.52915], [-111.90041, 40.56514], [-111.9045, 40.57491], [-111.90271, 40.59023], [-111.90686, 40.61426], [-111.90078, 40.63976], [-111.9001, 40.64954], [-111.89569, 40.66422], [-111.89738, 40.67986], [-111.90834, 40.71281], [-111.90878, 40.76002]]}}, {"type": "Feature", "properties": {"company": "Denver and Rio Grande Western Railroad", "line": "Denver and Rio Grande Western: Grand Junction \u2013 Salt Lake City", "id": "drgw-grand-junction-salt-lake-city", "color": "#B5451B", "mode": "intercity_rail", "avg_speed_kmh": 40, "speed_source": "estimated for a heavy-grade mountain main line (Tennessee Pass, at over 10,200 ft, was the highest mainline rail crossing in the US) with sharp curves through the Royal Gorge, Eagle River, and Glenwood Canyons; unsourced", "segments": [{"start": 1921, "end": 1949, "headway_min": 720, "note": "D&RGW took formal control Aug 1, 1921, the same genuine-ownership-change reorganization noted on the Colorado portion. This Grand Junction-Salt Lake City trackage carried the Scenic Limited/Royal Gorge (via the Colorado portion above) and, from 1934, also connected at Dotsero to the new Moffat Tunnel route. In 1949 it became the Utah leg of the jointly branded California Zephyr (Chicago, Burlington & Quincy / Denver & Rio Grande Western / Western Pacific) -- drawn here only through 1949; see california_zephyr_historical.geojson for the Zephyr-era service that continued over this same trackage afterward, through Amtrak's takeover in 1983 and to the present day. Frequency estimated, unsourced."}], "geometry_source": "", "geometry_quality": "Utah portion (Colorado-Utah state line - Green River - Price - Soldier Summit - Provo area - Salt Lake City) of the same real-traced OpenStreetMap route split out from the Colorado portion above; see that feature's geometry_quality for the tracing method. No leg is a straight-line placeholder."}, "geometry": {"type": "LineString", "coordinates": [[-109.04768, 39.11857], [-109.06549, 39.12291], [-109.07628, 39.12065], [-109.08064, 39.11768], [-109.08605, 39.11147], [-109.08772, 39.10377], [-109.11391, 39.08354], [-109.12517, 39.08124], [-109.14413, 39.07337], [-109.14853, 39.07385], [-109.1561, 39.07704], [-109.1718, 39.07868], [-109.17688, 39.07751], [-109.1795, 39.07526], [-109.1837, 39.06738], [-109.1904, 39.05861], [-109.20607, 39.04327], [-109.21087, 39.03241], [-109.22251, 39.02207], [-109.25162, 39.01147], [-109.26358, 39.00072], [-109.26834, 38.99309], [-109.27581, 38.98643], [-109.27844, 38.977], [-109.28025, 38.97485], [-109.28424, 38.9737], [-109.30265, 38.97516], [-109.33928, 38.9663], [-109.34667, 38.96183], [-109.35692, 38.94953], [-109.36327, 38.94624], [-109.38719, 38.94458], [-109.40304, 38.94893], [-109.41958, 38.93982], [-109.43055, 38.93865], [-109.43747, 38.93577], [-109.45395, 38.93629], [-109.52581, 38.95478], [-109.54205, 38.96054], [-109.59796, 38.96417], [-109.61954, 38.96039], [-109.64135, 38.96697], [-109.64913, 38.96227], [-109.6567, 38.96128], [-109.66617, 38.96386], [-109.67786, 38.96395], [-109.68046, 38.96243], [-109.68387, 38.95737], [-109.68729, 38.95626], [-109.69315, 38.95868], [-109.69717, 38.9656], [-109.70276, 38.96973], [-109.7238, 38.97214], [-109.73236, 38.97104], [-109.74235, 38.96777], [-109.75704, 38.96686], [-109.77056, 38.96322], [-109.78102, 38.96209], [-109.82271, 38.94251], [-109.83257, 38.93991], [-109.85278, 38.9366], [-109.86551, 38.93785], [-109.89202, 38.93607], [-109.92548, 38.92413], [-109.93066, 38.92367], [-109.958, 38.92996], [-109.96945, 38.9426], [-109.97679, 38.94577], [-109.98154, 38.95103], [-109.99918, 38.9607], [-110.00816, 38.96161], [-110.02606, 38.958], [-110.03194, 38.95831], [-110.04231, 38.96219], [-110.07103, 38.9775], [-110.07662, 38.97865], [-110.09052, 38.97868], [-110.11046, 38.9879], [-110.11567, 38.98753], [-110.12734, 38.98301], [-110.13521, 38.98231], [-110.15578, 38.98602], [-110.16566, 38.99207], [-110.16993, 38.99338], [-110.19291, 38.99304], [-110.22157, 38.99736], [-110.23673, 38.99541], [-110.2424, 38.99584], [-110.27319, 39.00497], [-110.29977, 39.02733], [-110.30287, 39.03104], [-110.30598, 39.03866], [-110.31936, 39.08976], [-110.3311, 39.12727], [-110.34061, 39.1393], [-110.34263, 39.14364], [-110.3449, 39.19209], [-110.34732, 39.19606], [-110.35493, 39.20206], [-110.3569, 39.20603], [-110.34928, 39.23591], [-110.34156, 39.24907], [-110.34114, 39.25469], [-110.34862, 39.26411], [-110.36176, 39.26868], [-110.37462, 39.28125], [-110.37953, 39.31419], [-110.38126, 39.31659], [-110.38742, 39.32022], [-110.38883, 39.32289], [-110.38418, 39.34836], [-110.40416, 39.37738], [-110.40868, 39.37829], [-110.41342, 39.37303], [-110.41743, 39.37213], [-110.4222, 39.3736], [-110.42794, 39.3791], [-110.43117, 39.37901], [-110.43622, 39.37669], [-110.43899, 39.37721], [-110.45401, 39.38606], [-110.45637, 39.39508], [-110.458, 39.39724], [-110.46955, 39.4012], [-110.47406, 39.40607], [-110.48309, 39.41151], [-110.49568, 39.42149], [-110.52101, 39.43569], [-110.5246, 39.44217], [-110.54563, 39.45665], [-110.55369, 39.46068], [-110.56143, 39.4613], [-110.57609, 39.45408], [-110.58556, 39.45309], [-110.60233, 39.46006], [-110.61877, 39.47257], [-110.62895, 39.47598], [-110.63817, 39.48386], [-110.64228, 39.49179], [-110.64508, 39.49459], [-110.6584, 39.49785], [-110.66523, 39.50256], [-110.67849, 39.50885], [-110.68434, 39.51556], [-110.69746, 39.52297], [-110.70867, 39.53383], [-110.74549, 39.54454], [-110.7807, 39.57018], [-110.78445, 39.57473], [-110.78901, 39.58398], [-110.793, 39.58799], [-110.81987, 39.60172], [-110.83224, 39.61719], [-110.85613, 39.63798], [-110.85915, 39.64402], [-110.85905, 39.64701], [-110.85517, 39.65254], [-110.8563, 39.66123], [-110.85534, 39.66507], [-110.85937, 39.67254], [-110.85372, 39.68237], [-110.85365, 39.68736], [-110.85613, 39.69179], [-110.86433, 39.69621], [-110.86495, 39.70255], [-110.86852, 39.70692], [-110.86633, 39.71097], [-110.8683, 39.71619], [-110.86472, 39.72144], [-110.86677, 39.7252], [-110.86554, 39.72883], [-110.87181, 39.73444], [-110.87494, 39.74049], [-110.88403, 39.74784], [-110.88458, 39.75076], [-110.89023, 39.75975], [-110.89604, 39.76377], [-110.90274, 39.76486], [-110.91219, 39.77629], [-110.92687, 39.78615], [-110.9307, 39.79163], [-110.93091, 39.79486], [-110.92266, 39.80125], [-110.92254, 39.80345], [-110.92465, 39.80439], [-110.93141, 39.80358], [-110.93563, 39.80154], [-110.94173, 39.80493], [-110.94206, 39.80789], [-110.9371, 39.81374], [-110.93732, 39.81776], [-110.94316, 39.82263], [-110.94401, 39.82609], [-110.95113, 39.82707], [-110.95412, 39.83349], [-110.96067, 39.83676], [-110.97119, 39.83521], [-110.9942, 39.84457], [-110.99715, 39.8438], [-111.00287, 39.83875], [-111.00696, 39.83927], [-111.01084, 39.84649], [-111.02587, 39.86011], [-111.03803, 39.87581], [-111.04936, 39.88502], [-111.05311, 39.8938], [-111.06862, 39.921], [-111.09653, 39.93253], [-111.11841, 39.93223], [-111.13297, 39.92997], [-111.13666, 39.9307], [-111.14872, 39.92955], [-111.15027, 39.92792], [-111.1493, 39.92486], [-111.15001, 39.922], [-111.15174, 39.92074], [-111.15625, 39.9237], [-111.16267, 39.92418], [-111.16728, 39.92273], [-111.17177, 39.92352], [-111.1842, 39.92179], [-111.18578, 39.92064], [-111.18799, 39.91514], [-111.19042, 39.91439], [-111.19207, 39.91642], [-111.18864, 39.91875], [-111.1876, 39.92242], [-111.16623, 39.92861], [-111.16487, 39.92998], [-111.16545, 39.93137], [-111.16758, 39.93203], [-111.18419, 39.92955], [-111.19677, 39.93086], [-111.198, 39.93222], [-111.19626, 39.9372], [-111.19786, 39.9445], [-111.20244, 39.94534], [-111.20589, 39.94788], [-111.21293, 39.94892], [-111.21692, 39.95146], [-111.22347, 39.95226], [-111.22828, 39.95473], [-111.2486, 39.95645], [-111.26096, 39.9531], [-111.26764, 39.95398], [-111.27272, 39.9516], [-111.2894, 39.952], [-111.29891, 39.9553], [-111.31015, 39.96545], [-111.3202, 39.96528], [-111.35715, 39.98123], [-111.36822, 39.98825], [-111.37879, 39.99091], [-111.3956, 39.99181], [-111.4051, 39.99648], [-111.41742, 39.9973], [-111.43148, 39.9955], [-111.44511, 39.9957], [-111.45157, 39.99419], [-111.47137, 39.99393], [-111.48333, 39.99877], [-111.49144, 39.99762], [-111.49547, 40.00081], [-111.49406, 40.01285], [-111.50381, 40.02713], [-111.5118, 40.02953], [-111.51735, 40.03325], [-111.54476, 40.04211], [-111.54835, 40.04583], [-111.54764, 40.05078], [-111.5491, 40.05333], [-111.56089, 40.05616], [-111.5676, 40.0597], [-111.57359, 40.06515], [-111.57697, 40.07119], [-111.58914, 40.08299], [-111.59215, 40.09474], [-111.61507, 40.12783], [-111.615, 40.13165], [-111.60588, 40.14367], [-111.60497, 40.14848], [-111.6074, 40.15276], [-111.61758, 40.16079], [-111.61825, 40.18193], [-111.63078, 40.20531], [-111.64594, 40.22004], [-111.65256, 40.22404], [-111.67091, 40.22596], [-111.67561, 40.22823], [-111.72001, 40.2737], [-111.76255, 40.33077], [-111.80022, 40.36857], [-111.80741, 40.37215], [-111.85364, 40.38227], [-111.85706, 40.39159], [-111.889, 40.41852], [-111.91159, 40.43952], [-111.92194, 40.44274], [-111.92297, 40.45039], [-111.93249, 40.45935], [-111.93313, 40.46291], [-111.93133, 40.47151], [-111.9053, 40.50923], [-111.90412, 40.51251], [-111.9047, 40.52915], [-111.90041, 40.56514], [-111.9045, 40.57491], [-111.90271, 40.59023], [-111.90686, 40.61426], [-111.90078, 40.63976], [-111.9001, 40.64954], [-111.89569, 40.66422], [-111.89738, 40.67986], [-111.90834, 40.71281], [-111.90878, 40.76002]]}}], "metadata": {"line_label_audit": "2026-08-24: line labels normalised repo-wide to \"<operating company>: <line name>\" -- the company's common display name (legal suffixes dropped), then the line as a passenger would have known it, or its two terminals where the line carried no advertised name. Long intermediate station lists were reduced to endpoints. For features spanning several operators the company shown is the one that ran the line for most of its drawn years. See CLAUDE.md Rule 6.", "sources": ["https://en.wikipedia.org/wiki/Royal_Gorge_Route_Railroad -- Wikipedia, \"Royal Gorge Route Railroad\"; lead paragraph confirms this article covers the railroad drawn in this layer. Added 2026-08-24 as a layer-level reference.", "https://utahrails.net/drgw/drgw-1881-1889.php and general web search -- Rio Grande Western Railway organization (July 21, 1881), Green River meet point (Mar 30, 1883), 1889 consolidation/rename, 1901 Gould stock control, Aug 1 1908 formal merger into D&RG", "General web search -- Aug 1, 1921 date D&RGW took formal control after the D&RG bankruptcy reorganization"], "not_yet_sourced": "Layer-level reference only. The specific dates, era boundaries and service levels asserted in the segment notes below have NOT been individually verified against it -- they came from earlier research in this repo with no citation recorded. Headways are estimates throughout. Anyone relying on a particular date here should re-check it.", "note": " RESTRUCTURED 2026-08-24: this file used to be a single feature spanning Denver to Salt Lake City, colored 'Denver and Rio Grande Western Railroad' for its entire 1882-1967 span even though that company name didn't exist until 1921, and even though a large western portion (Grand Junction-Salt Lake City) was run by the legally separate Rio Grande Western Railway until 1908. It's now six features: the Colorado portion split D&RG (1890-1921)/D&RGW (1921-1967), and the Utah portion split RGW (1883-1908)/D&RG (1908-1921)/D&RGW (1921-1949, handing off to california_zephyr_historical.geojson thereafter). The 1882-1890 segment previously on the Colorado portion, which the note itself flagged as the wrong alignment for those years, has been removed and is now correctly drawn in data/drg_marshall_pass_black_canyon.geojson."}}