{
 "type": "FeatureCollection",
 "metadata": {
  "note": "Passenger rail at Eau Claire, Wisconsin -- a city that had a great deal of it and now has none. The line reached Eau Claire in 1870 and became part of the Chicago, St. Paul, Minneapolis and Omaha Railway, the 'Omaha Road', when that company was formed by merger in 1880; by 1884 three railroads were running fourteen passenger trains a day through the city, the Omaha Road alone accounting for six between Chicago and St. Paul. Its best-known train was the Chicago and North Western's 400, which began on Jan 2 1935 and took its name from covering roughly 400 miles between Chicago and St. Paul in 400 minutes, stops included. Renamed the Twin Cities 400 in 1941 and streamlined throughout, it made its last call at Eau Claire on July 23 1963, and that was the end of passenger service on the line. The 1893 depot at 324 Putnam Street -- Charles Sumner Frost's Richardsonian Romanesque design in Lake Superior brownstone -- was demolished in 1987 despite being on the National Register of Historic Places. This layer draws the Omaha Road corridor the trains actually used, Wyeville west through Eau Claire to the Twin Cities; the 400's run east of Wyeville over the Chicago and North Western to Milwaukee and Chicago is not drawn here.",
  "sources": [
   "https://www.streamlinerschedules.com/concourse/track4/cnw400194106.html (Chicago and North Western '400', June 1941 timetable). Mileposts from Chicago used as the route check: Chicago 0.0, Evanston 12.0, Racine 61.9, Milwaukee 85.0, South Beaver Dam 148.0, Adams 209.5, Wyeville 238.9, Eau Claire 323.1, St. Paul 408.6, Minneapolis 419.2.",
   "https://en.wikipedia.org/wiki/Twin_Cities_400 (first service Jan 2 1935; ran on the Chicago and North Western from Chicago through Evanston, Racine, Milwaukee, Adams to Wyeville, and on the Chicago, St. Paul, Minneapolis and Omaha from Wyeville through Merrillan and Eau Claire to St. Paul Union Depot and the Great Northern Depot at Minneapolis; re-equipped 1939 with EMD E3A locomotives and lightweight streamlined cars; E6 power and the Twin Cities 400 name from 1941, E7 from 1947, E8 in the 1950s; derailed between Knapp and Menomonie July 30 1959, injuring 50 of 115 passengers, with trees along the elevated railway preventing the coaches from plummeting; last service July 23 1963).",
   "https://volumeone.org/news/2016/02/19/253300-passenger-rail-photos-from-eau-claire-in-the-mid and https://minds.wisconsin.edu/handle/1793/39007 ('Last Stop Eau Claire: The Discontinuation of the Twin Cities 400'): the Omaha Road line reached Eau Claire in 1870; as early as 1884 Eau Claire was served by three separate railroads operating 14 passenger trains per day, the Omaha Road alone running six daily through Eau Claire between Chicago and St. Paul; the Twin Cities 400 made its last stop in Eau Claire July 23 1963 and passenger service on the line ceased that year.",
   "https://en.wikipedia.org/wiki/Eau_Claire_station_(Wisconsin) (the Chicago, St. Paul, Minneapolis & Omaha depot, a subsidiary of the Chicago and North Western, built 1893 at 324 Putnam Street to a Charles Sumner Frost design in Richardsonian Romanesque style using Lake Superior brownstone; passenger service on the line ceased 1963; the depot was demolished in 1987 despite remaining on the National Register of Historic Places)."
  ],
  "not_yet_sourced": "All frequencies are estimates. The two railroads other than the Omaha Road that made up Eau Claire's fourteen daily trains in 1884 were not identified, so only the Omaha Road corridor is drawn. The company that actually built the line into Eau Claire in 1870, before the 1880 merger created the Omaha Road, was not established either, so the 1870-1880 segment is attributed to 'predecessors of the Omaha Road'. Nor are the Omaha Road's other named trains through Eau Claire covered here, only the 400. Modern proposals to restore Twin Cities-Eau Claire service are out of scope for this layer.",
  "geometry_sources": [
   "OpenStreetMap via Overpass API, shortest-path search over the OSM rail graph between the towns on the route, run three ways (plain rail, abandoned-preferring, and abandoned-preferring with a wide gap stitch) and merged. West of Eau Claire much of the old Omaha Road roadbed is now the Chippewa River and Red Cedar state trails, so that half depends on OSM's abandoned-railway coverage -- the abandoned-preferring pass is what traced it.",
   "Legs were validated by SPAN against the 1941 timetable mileposts. All three spans traced on real track with no straight-line approximations: Wyeville-Eau Claire 135.2 km against 135.5 booked (1.00x), Eau Claire-St. Paul 145.2 against 137.6 (1.06x), St. Paul-Minneapolis 15.4 against 17.1 (0.90x). Total 296 km against the booked 290 km Wyeville to Minneapolis, a 1.02x match.",
   "Per-span tracing result: ok Wyeville -> Eau Claire: 135.2km vs 135.5km booked (1.00x) [rail] via Merrillan, Humbird, Fairchild, Augusta, Fall Creek | ok Eau Claire -> Saint Paul: 145.2km vs 137.6km booked (1.06x) [abandoned] via Elk Mound, Menomonie, Knapp, Baldwin, Hudson | ok Saint Paul -> Minneapolis: 15.4km vs 17.1km booked (0.90x) [rail]"
  ],
  "pulled": "20260826",
  "color_audit": "2026-08-26: the Twin Cities 400 feature carried #C1440E while all seven other Chicago and North Western features in data/ use #E3B23C. Recoloured to #E3B23C per Rule 4 (one company, one colour; canonical colour chosen by most-used hex). Nothing else in this file was changed."
 },
 "features": [
  {
   "type": "Feature",
   "properties": {
    "company": "Chicago, St. Paul, Minneapolis and Omaha Railway",
    "line": "Omaha Road: Wyeville - Merrillan - Eau Claire - Menomonie - Hudson - St. Paul - Minneapolis",
    "id": "omaha-road-eau-claire",
    "color": "#E3B23C",
    "mode": "intercity_rail",
    "avg_speed_kmh": 40,
    "speed_source": "estimated: steam-era intercity service on the Omaha Road's Wisconsin main line; unsourced",
    "segments": [
     {
      "start": 1870,
      "end": 1880,
      "headway_min": 480,
      "note": "The line reached Eau Claire in 1870, built by predecessors of the Omaha Road; frequency estimated, unsourced"
     },
     {
      "start": 1880,
      "end": 1884,
      "headway_min": 360,
      "note": "The Chicago, St. Paul, Minneapolis and Omaha Railway was formed by merger in 1880 and took the line over (see chicago_stpaul_minneapolis_omaha.geojson for the Omaha Road's western end); frequency estimated, unsourced"
     },
     {
      "start": 1884,
      "end": 1935,
      "headway_min": 240,
      "note": "By 1884 Eau Claire was served by three separate railroads running fourteen passenger trains a day between them, the Omaha Road alone working six daily through the city between Chicago and St. Paul. Its 1893 depot at 324 Putnam Street, by Charles Sumner Frost, was Richardsonian Romanesque in Lake Superior brownstone; frequency estimated, unsourced"
     }
    ]
   },
   "geometry": {
    "type": "LineString",
    "coordinates": [
     [
      -90.3845,
      44.02819
     ],
     [
      -90.49958,
      44.13097
     ],
     [
      -90.52863,
      44.14297
     ],
     [
      -90.55059,
      44.1478
     ],
     [
      -90.57293,
      44.15495
     ],
     [
      -90.66816,
      44.20434
     ],
     [
      -90.76477,
      44.25072
     ],
     [
      -90.79599,
      44.27135
     ],
     [
      -90.8247,
      44.34109
     ],
     [
      -90.81965,
      44.36212
     ],
     [
      -90.81046,
      44.38555
     ],
     [
      -90.8124,
      44.40132
     ],
     [
      -90.8304,
      44.43801
     ],
     [
      -90.8399,
      44.45135
     ],
     [
      -90.87527,
      44.50316
     ],
     [
      -90.88065,
      44.52286
     ],
     [
      -90.88993,
      44.52857
     ],
     [
      -90.90067,
      44.53326
     ],
     [
      -90.91437,
      44.53642
     ],
     [
      -90.91838,
      44.53887
     ],
     [
      -90.92811,
      44.56519
     ],
     [
      -90.93248,
      44.56838
     ],
     [
      -90.94594,
      44.57118
     ],
     [
      -90.95035,
      44.57375
     ],
     [
      -90.96067,
      44.59802
     ],
     [
      -90.96376,
      44.60144
     ],
     [
      -90.98498,
      44.61552
     ],
     [
      -91.00714,
      44.62604
     ],
     [
      -91.12412,
      44.67574
     ],
     [
      -91.15691,
      44.69012
     ],
     [
      -91.21859,
      44.75012
     ],
     [
      -91.2761,
      44.76526
     ],
     [
      -91.29103,
      44.77752
     ],
     [
      -91.32427,
      44.79103
     ],
     [
      -91.39165,
      44.79718
     ],
     [
      -91.45203,
      44.81197
     ],
     [
      -91.46802,
      44.8181
     ],
     [
      -91.48181,
      44.81511
     ],
     [
      -91.49801,
      44.81693
     ],
     [
      -91.50033,
      44.81783
     ],
     [
      -91.50845,
      44.83016
     ],
     [
      -91.52169,
      44.83716
     ],
     [
      -91.5764,
      44.85078
     ],
     [
      -91.6081,
      44.84944
     ],
     [
      -91.65228,
      44.86543
     ],
     [
      -91.6823,
      44.87042
     ],
     [
      -91.6912,
      44.87374
     ],
     [
      -91.77941,
      44.9078
     ],
     [
      -91.90435,
      44.90896
     ],
     [
      -91.93126,
      44.91598
     ],
     [
      -91.92824,
      44.91319
     ],
     [
      -91.92919,
      44.88775
     ],
     [
      -91.92823,
      44.9129
     ],
     [
      -91.93019,
      44.9156
     ],
     [
      -91.95686,
      44.91945
     ],
     [
      -91.99449,
      44.93089
     ],
     [
      -92.0072,
      44.93688
     ],
     [
      -92.03093,
      44.9414
     ],
     [
      -92.06108,
      44.95616
     ],
     [
      -92.08237,
      44.95531
     ],
     [
      -92.11109,
      44.95191
     ],
     [
      -92.12566,
      44.95182
     ],
     [
      -92.14235,
      44.94659
     ],
     [
      -92.15971,
      44.95181
     ],
     [
      -92.17268,
      44.95121
     ],
     [
      -92.1981,
      44.9567
     ],
     [
      -92.20739,
      44.96091
     ],
     [
      -92.2313,
      44.96545
     ],
     [
      -92.27842,
      44.95741
     ],
     [
      -92.3197,
      44.95657
     ],
     [
      -92.3258,
      44.95752
     ],
     [
      -92.33905,
      44.963
     ],
     [
      -92.37443,
      44.96791
     ],
     [
      -92.39785,
      44.97192
     ],
     [
      -92.4346,
      44.9708
     ],
     [
      -92.45211,
      44.97691
     ],
     [
      -92.49458,
      44.98337
     ],
     [
      -92.51628,
      44.9818
     ],
     [
      -92.54981,
      44.98306
     ],
     [
      -92.58531,
      44.99015
     ],
     [
      -92.60935,
      44.9892
     ],
     [
      -92.63464,
      44.99706
     ],
     [
      -92.66381,
      44.99024
     ],
     [
      -92.69179,
      44.98906
     ],
     [
      -92.70864,
      44.99028
     ],
     [
      -92.72597,
      44.98756
     ],
     [
      -92.74255,
      44.98318
     ],
     [
      -92.75844,
      44.98647
     ],
     [
      -92.76322,
      44.98392
     ],
     [
      -92.7593,
      44.97927
     ],
     [
      -92.76009,
      44.98164
     ],
     [
      -92.76245,
      44.9827
     ],
     [
      -92.7681,
      44.98031
     ],
     [
      -92.77278,
      44.9809
     ],
     [
      -92.7785,
      44.99286
     ],
     [
      -92.80042,
      45.01391
     ],
     [
      -92.80707,
      45.01573
     ],
     [
      -92.88874,
      44.99659
     ],
     [
      -92.95923,
      44.99352
     ],
     [
      -92.98725,
      44.98694
     ],
     [
      -93.0291,
      44.97198
     ],
     [
      -93.03812,
      44.97141
     ],
     [
      -93.06147,
      44.96582
     ],
     [
      -93.08244,
      44.96483
     ],
     [
      -93.08543,
      44.96131
     ],
     [
      -93.07819,
      44.95457
     ],
     [
      -93.0767,
      44.95077
     ],
     [
      -93.08759,
      44.94535
     ],
     [
      -93.09543,
      44.94863
     ],
     [
      -93.09858,
      44.95167
     ],
     [
      -93.0965,
      44.95317
     ],
     [
      -93.09961,
      44.95587
     ],
     [
      -93.17633,
      44.95572
     ],
     [
      -93.21496,
      44.97091
     ],
     [
      -93.21543,
      44.97308
     ],
     [
      -93.22177,
      44.97562
     ],
     [
      -93.22391,
      44.97364
     ],
     [
      -93.23663,
      44.97365
     ],
     [
      -93.25172,
      44.97091
     ],
     [
      -93.25755,
      44.97527
     ],
     [
      -93.26106,
      44.97482
     ],
     [
      -93.26627,
      44.97702
     ]
    ]
   }
  },
  {
   "type": "Feature",
   "properties": {
    "company": "Chicago and North Western Railway",
    "line": "Chicago and North Western: Twin Cities 400 (Wyeville - Merrillan - Eau Claire - Menomonie - Hudson - St. Paul - Minneapolis)",
    "id": "twin-cities-400-eau-claire",
    "color": "#E3B23C",
    "mode": "intercity_rail",
    "avg_speed_kmh": 90,
    "speed_source": "estimated from the train's own billing -- 400 minutes for the 400-odd miles between Chicago and St. Paul, about 60 mph including stops; unsourced for other eras",
    "segments": [
     {
      "start": 1935,
      "end": 1939,
      "headway_min": 720,
      "note": "The 400 began Jan 2 1935, named for the 400 minutes it took to cover the roughly 400 miles between St. Paul and Chicago, station stops included. East of Wyeville it ran on the Chicago and North Western through Adams, Milwaukee and Racine to Chicago; that portion is not drawn here; frequency estimated, unsourced"
     },
     {
      "start": 1939,
      "end": 1963,
      "headway_min": 720,
      "note": "Re-equipped in 1939 with EMD E3A locomotives and lightweight streamlined cars, renamed the Twin Cities 400 in 1941 as the North Western spread the 400 name across a family of trains, with E6, E7 and later E8 power. On July 30 1959 it derailed between Knapp and Menomonie, injuring 50 of its 115 passengers; trees along the elevated roadbed kept the cars from going over the side. The last one called at Eau Claire on July 23 1963, ending passenger service on the line; frequency estimated, unsourced"
     }
    ]
   },
   "geometry": {
    "type": "LineString",
    "coordinates": [
     [
      -90.3845,
      44.02819
     ],
     [
      -90.49958,
      44.13097
     ],
     [
      -90.52863,
      44.14297
     ],
     [
      -90.55059,
      44.1478
     ],
     [
      -90.57293,
      44.15495
     ],
     [
      -90.66816,
      44.20434
     ],
     [
      -90.76477,
      44.25072
     ],
     [
      -90.79599,
      44.27135
     ],
     [
      -90.8247,
      44.34109
     ],
     [
      -90.81965,
      44.36212
     ],
     [
      -90.81046,
      44.38555
     ],
     [
      -90.8124,
      44.40132
     ],
     [
      -90.8304,
      44.43801
     ],
     [
      -90.8399,
      44.45135
     ],
     [
      -90.87527,
      44.50316
     ],
     [
      -90.88065,
      44.52286
     ],
     [
      -90.88993,
      44.52857
     ],
     [
      -90.90067,
      44.53326
     ],
     [
      -90.91437,
      44.53642
     ],
     [
      -90.91838,
      44.53887
     ],
     [
      -90.92811,
      44.56519
     ],
     [
      -90.93248,
      44.56838
     ],
     [
      -90.94594,
      44.57118
     ],
     [
      -90.95035,
      44.57375
     ],
     [
      -90.96067,
      44.59802
     ],
     [
      -90.96376,
      44.60144
     ],
     [
      -90.98498,
      44.61552
     ],
     [
      -91.00714,
      44.62604
     ],
     [
      -91.12412,
      44.67574
     ],
     [
      -91.15691,
      44.69012
     ],
     [
      -91.21859,
      44.75012
     ],
     [
      -91.2761,
      44.76526
     ],
     [
      -91.29103,
      44.77752
     ],
     [
      -91.32427,
      44.79103
     ],
     [
      -91.39165,
      44.79718
     ],
     [
      -91.45203,
      44.81197
     ],
     [
      -91.46802,
      44.8181
     ],
     [
      -91.48181,
      44.81511
     ],
     [
      -91.49801,
      44.81693
     ],
     [
      -91.50033,
      44.81783
     ],
     [
      -91.50845,
      44.83016
     ],
     [
      -91.52169,
      44.83716
     ],
     [
      -91.5764,
      44.85078
     ],
     [
      -91.6081,
      44.84944
     ],
     [
      -91.65228,
      44.86543
     ],
     [
      -91.6823,
      44.87042
     ],
     [
      -91.6912,
      44.87374
     ],
     [
      -91.77941,
      44.9078
     ],
     [
      -91.90435,
      44.90896
     ],
     [
      -91.93126,
      44.91598
     ],
     [
      -91.92824,
      44.91319
     ],
     [
      -91.92919,
      44.88775
     ],
     [
      -91.92823,
      44.9129
     ],
     [
      -91.93019,
      44.9156
     ],
     [
      -91.95686,
      44.91945
     ],
     [
      -91.99449,
      44.93089
     ],
     [
      -92.0072,
      44.93688
     ],
     [
      -92.03093,
      44.9414
     ],
     [
      -92.06108,
      44.95616
     ],
     [
      -92.08237,
      44.95531
     ],
     [
      -92.11109,
      44.95191
     ],
     [
      -92.12566,
      44.95182
     ],
     [
      -92.14235,
      44.94659
     ],
     [
      -92.15971,
      44.95181
     ],
     [
      -92.17268,
      44.95121
     ],
     [
      -92.1981,
      44.9567
     ],
     [
      -92.20739,
      44.96091
     ],
     [
      -92.2313,
      44.96545
     ],
     [
      -92.27842,
      44.95741
     ],
     [
      -92.3197,
      44.95657
     ],
     [
      -92.3258,
      44.95752
     ],
     [
      -92.33905,
      44.963
     ],
     [
      -92.37443,
      44.96791
     ],
     [
      -92.39785,
      44.97192
     ],
     [
      -92.4346,
      44.9708
     ],
     [
      -92.45211,
      44.97691
     ],
     [
      -92.49458,
      44.98337
     ],
     [
      -92.51628,
      44.9818
     ],
     [
      -92.54981,
      44.98306
     ],
     [
      -92.58531,
      44.99015
     ],
     [
      -92.60935,
      44.9892
     ],
     [
      -92.63464,
      44.99706
     ],
     [
      -92.66381,
      44.99024
     ],
     [
      -92.69179,
      44.98906
     ],
     [
      -92.70864,
      44.99028
     ],
     [
      -92.72597,
      44.98756
     ],
     [
      -92.74255,
      44.98318
     ],
     [
      -92.75844,
      44.98647
     ],
     [
      -92.76322,
      44.98392
     ],
     [
      -92.7593,
      44.97927
     ],
     [
      -92.76009,
      44.98164
     ],
     [
      -92.76245,
      44.9827
     ],
     [
      -92.7681,
      44.98031
     ],
     [
      -92.77278,
      44.9809
     ],
     [
      -92.7785,
      44.99286
     ],
     [
      -92.80042,
      45.01391
     ],
     [
      -92.80707,
      45.01573
     ],
     [
      -92.88874,
      44.99659
     ],
     [
      -92.95923,
      44.99352
     ],
     [
      -92.98725,
      44.98694
     ],
     [
      -93.0291,
      44.97198
     ],
     [
      -93.03812,
      44.97141
     ],
     [
      -93.06147,
      44.96582
     ],
     [
      -93.08244,
      44.96483
     ],
     [
      -93.08543,
      44.96131
     ],
     [
      -93.07819,
      44.95457
     ],
     [
      -93.0767,
      44.95077
     ],
     [
      -93.08759,
      44.94535
     ],
     [
      -93.09543,
      44.94863
     ],
     [
      -93.09858,
      44.95167
     ],
     [
      -93.0965,
      44.95317
     ],
     [
      -93.09961,
      44.95587
     ],
     [
      -93.17633,
      44.95572
     ],
     [
      -93.21496,
      44.97091
     ],
     [
      -93.21543,
      44.97308
     ],
     [
      -93.22177,
      44.97562
     ],
     [
      -93.22391,
      44.97364
     ],
     [
      -93.23663,
      44.97365
     ],
     [
      -93.25172,
      44.97091
     ],
     [
      -93.25755,
      44.97527
     ],
     [
      -93.26106,
      44.97482
     ],
     [
      -93.26627,
      44.97702
     ]
    ]
   }
  }
 ]
}
