{
 "type": "FeatureCollection",
 "metadata": {
  "note": "The Erie Railroad's Rochester Branch, Rochester to Avon, 19 miles. Built as the independent Rochester and Genesee Valley Railroad, which completed the six-foot-gauge line from Exchange Street in Rochester to Avon in 1853 and was worked by the Buffalo, Corning and New York; leased to the Buffalo, New York and Erie in 1858; under direct Erie operation from the Erie's 450-year lease of the BNY&E in 1863. At Avon the branch met three other Erie lines -- the Rochester Division main to Painted Post/Corning, the Mount Morris Branch and the Attica Branch -- and Avon was the division point and shop town from 1885. Four miles north of Avon the line crossed the Canandaigua and Niagara Falls Railroad (later the New York Central 'Peanut Line') at grade; that junction, originally Genesee Valley Junction, is the hamlet of Golah, and the diamond there is why a January 1918 federal proposal would have rerouted Erie Attica-branch traffic over the Peanut from Batavia to Golah. The Erie electrified the whole Rochester–Avon–Mount Morris route in 1906-07 and ran an hourly electric commuter service until de-electrification began in 1934. Passenger service ended September 30 1941; the four Erie lines at Avon quit passengers on different dates (Attica Branch April 30 1933, Mount Morris Branch January 20 1940, Rochester Branch September 30 1941, Rochester Division September 28 1947). SPLIT PER RULE 4: three features share this geometry, one per operating company -- Rochester and Genesee Valley 1853-1858, Buffalo, New York and Erie 1858-1863, Erie 1863-1941.",
  "sources": [
   "https://rgvrrm.org/erie-railroad-rochester-division-chapter-two/",
   "https://rgvrrm.org/erie-railroad-rochester-division-chapter-three/",
   "https://rgvrrm.org/the-end-of-erie-service-in-rochester/",
   "https://en.wikipedia.org/wiki/Avon_station_(Erie_Railroad)",
   "https://en.wikipedia.org/wiki/Erie_Railroad_Depot_(Rochester,_New_York)",
   "https://avon-ny.gov/documents/Avon-Railroads-Dedication-Brochure-9.25.20.pdf",
   "https://nyrails.org/railroads/new-york-central-railroad/new-york-central-railroad-tonawanda-branch/ (NYC 'Peanut Line', for the Golah crossing)"
  ],
  "geometry_sources": [
   "OpenStreetMap via Overpass API (maps.mail.ru mirror), bbox 42.86,-77.82,43.18,-77.55, all railway=* ways. Graph built from ways tagged old_railway_operator=Erie or operator=Livonia, Avon & Lakeville Railroad, with nodes merged at 25 m, corridor-weighted Dijkstra between the Court Street depot site and the Avon depot site. Result: 30.68 km / 19.06 mi, 181 points, no reversals, 2.65 km of it straight-line bridging (see geometry_quality).",
   "Nominatim geocoding for Golah (42.9703, -77.7161) and Avon (42.9120, -77.7455).",
   "Erie Railroad Depot coordinates 43.1530, -77.6102 from https://en.wikipedia.org/wiki/Erie_Railroad_Depot_(Rochester,_New_York)"
  ],
  "not_yet_sourced": "1853 vs 1854 for the first passenger train Rochester–Avon (Avon village history says 1853; the Democrat and Chronicle's 'eighty-seven years' in 1941 implies 1854). 1878 vs 1880 for the New York, Lake Erie and Western reorganisation. May 12 vs June 18 1907 for the start of electric operation. Whether the Erie's own approach into Rochester north of Elmwood Avenue followed the surviving east-bank Genesee corridor now tagged PRR/LV in OSM, or its own separate alignment -- the last 1.58 mi is drawn as a straight line for that reason. No period valuation map was consulted, so a relocation of the alignment between 1853 and 1941 cannot be ruled out. All headway_min values except the 1907-1934 hourly electric service are estimates.",
  "pulled": "20260824"
 },
 "features": [
  {
   "type": "Feature",
   "properties": {
    "id": "rgv-rochester-avon",
    "company": "Rochester and Genesee Valley Railroad",
    "line": "Rochester and Genesee Valley: Rochester – Avon",
    "color": "#5f9ea0",
    "mode": "intercity_rail",
    "avg_speed_kmh": 35,
    "geometry_quality": "Real-traced from OpenStreetMap for 17.5 of the 19.1 drawn miles: 13.5 mi of surviving track operated by the Livonia, Avon & Lakeville Railroad and tagged old_railway_operator=Erie, plus 1.3 mi of railway=abandoned tagged old_railway_operator=Erie north of Rush, plus 0.5 mi of untagged LA&L track and 0.1 mi of LA&L track tagged old_railway_operator=LV where the branch shares the ex-Lehigh Valley alignment near West Henrietta. APPROXIMATED, 2 legs: (a) a 1.58 mi straight line across Rochester from the last Erie-tagged abandoned right of way at Elmwood Avenue (43.1321, -77.6237) to the Erie's Court Street depot site (43.1530, -77.6102) -- the approach through the city is built over and carries no Erie tagging in OSM, and the corridor that does survive there (OSM ways tagged old_railway_operator=PRR and =LV along the east bank of the Genesee) was not used because it is not confirmed to be the Erie's own track rather than a neighbour's; (b) a 0.08 mi straight bridge across an untraced break at the Genesee Valley Park crossing (43.0936, -77.6492 to 43.0930, -77.6505). Traced+approximated total 19.06 mi against a documented 19 miles Exchange Street (Rochester) to Avon, and against the 34-mile Rochester-Mount Morris electrification figure less the 15-mile Avon-Mount Morris segment (= 19 mi). The drawn line is today's surviving alignment; no evidence was found of a relocation between 1853 and 1941, but this has not been checked against a period valuation map.",
    "segments": [
     {
      "start": 1853,
      "end": 1858,
      "headway_min": 240,
      "note": "The Rochester and Genesee Valley Railroad completed its 19-mile six-foot-gauge line from Exchange Street in Rochester south to Avon in 1853, giving Rochester a connection into the New York and Erie system; the Avon village history dates the first passenger train to 1853, while the Democrat and Chronicle's 1941 farewell called it 'eighty-seven years of Erie Railroad passenger service for Rochester', which back-dates to 1854 -- the conflict is unresolved and 1853 is drawn here. Four miles north of Avon the line crossed the Canandaigua and Niagara Falls Railroad at grade; that junction south of Rush was later named Golah. The R&GV was operated in this period by the Buffalo, Corning and New York Railroad, not by its own management. Headway and avg_speed_kmh are estimates, not taken from a timetable.",
      "sources": [
       "Segment-level: opening year, mileage, gauge, the Golah crossing and the Buffalo, Corning and New York operating arrangement are named in the RGVRRM Rochester Division history and the Avon village railroad brochure; headway and speed are unsourced estimates.",
       "https://rgvrrm.org/erie-railroad-rochester-division-chapter-two/",
       "https://avon-ny.gov/documents/Avon-Railroads-Dedication-Brochure-9.25.20.pdf"
      ],
      "speed_source": "Estimated. No timetable consulted for the 1850s."
     }
    ]
   },
   "geometry": {
    "type": "LineString",
    "coordinates": [
     [
      -77.6102,
      43.153
     ],
     [
      -77.6237,
      43.13211
     ],
     [
      -77.62422,
      43.13144
     ],
     [
      -77.62447,
      43.13111
     ],
     [
      -77.6396,
      43.11107
     ],
     [
      -77.64075,
      43.10914
     ],
     [
      -77.64248,
      43.10605
     ],
     [
      -77.64363,
      43.10388
     ],
     [
      -77.64808,
      43.09589
     ],
     [
      -77.64919,
      43.09361
     ],
     [
      -77.65053,
      43.09303
     ],
     [
      -77.64873,
      43.09193
     ],
     [
      -77.64823,
      43.09083
     ],
     [
      -77.64809,
      43.0906
     ],
     [
      -77.64779,
      43.09022
     ],
     [
      -77.6476,
      43.09001
     ],
     [
      -77.64743,
      43.08981
     ],
     [
      -77.64709,
      43.08947
     ],
     [
      -77.64676,
      43.08902
     ],
     [
      -77.64666,
      43.08877
     ],
     [
      -77.64661,
      43.08852
     ],
     [
      -77.64672,
      43.0879
     ],
     [
      -77.64689,
      43.08762
     ],
     [
      -77.6473,
      43.08728
     ],
     [
      -77.64775,
      43.08711
     ],
     [
      -77.6481,
      43.08704
     ],
     [
      -77.64852,
      43.08702
     ],
     [
      -77.64931,
      43.08702
     ],
     [
      -77.65038,
      43.08704
     ],
     [
      -77.65128,
      43.08716
     ],
     [
      -77.65166,
      43.08717
     ],
     [
      -77.65212,
      43.08708
     ],
     [
      -77.65255,
      43.0869
     ],
     [
      -77.6528,
      43.08672
     ],
     [
      -77.65301,
      43.08649
     ],
     [
      -77.65329,
      43.08595
     ],
     [
      -77.65535,
      43.08206
     ],
     [
      -77.66039,
      43.07243
     ],
     [
      -77.66296,
      43.06757
     ],
     [
      -77.66767,
      43.05852
     ],
     [
      -77.66954,
      43.05501
     ],
     [
      -77.67033,
      43.05346
     ],
     [
      -77.67057,
      43.05304
     ],
     [
      -77.67078,
      43.05269
     ],
     [
      -77.67096,
      43.05242
     ],
     [
      -77.67118,
      43.05211
     ],
     [
      -77.67145,
      43.05174
     ],
     [
      -77.67169,
      43.05143
     ],
     [
      -77.67193,
      43.05114
     ],
     [
      -77.67218,
      43.05086
     ],
     [
      -77.67245,
      43.05056
     ],
     [
      -77.67271,
      43.05028
     ],
     [
      -77.67299,
      43.05
     ],
     [
      -77.67327,
      43.04973
     ],
     [
      -77.67356,
      43.04945
     ],
     [
      -77.67386,
      43.04919
     ],
     [
      -77.67418,
      43.04892
     ],
     [
      -77.6745,
      43.04866
     ],
     [
      -77.67483,
      43.04841
     ],
     [
      -77.67517,
      43.04816
     ],
     [
      -77.67552,
      43.04792
     ],
     [
      -77.67952,
      43.04536
     ],
     [
      -77.68003,
      43.04505
     ],
     [
      -77.68085,
      43.04452
     ],
     [
      -77.6881,
      43.03991
     ],
     [
      -77.69914,
      43.0329
     ],
     [
      -77.70005,
      43.03233
     ],
     [
      -77.70262,
      43.0307
     ],
     [
      -77.71049,
      43.02569
     ],
     [
      -77.71514,
      43.02274
     ],
     [
      -77.71561,
      43.0224
     ],
     [
      -77.71584,
      43.02223
     ],
     [
      -77.71602,
      43.02205
     ],
     [
      -77.71624,
      43.02187
     ],
     [
      -77.71645,
      43.02168
     ],
     [
      -77.71665,
      43.02149
     ],
     [
      -77.71684,
      43.02129
     ],
     [
      -77.71702,
      43.02109
     ],
     [
      -77.7172,
      43.02089
     ],
     [
      -77.71736,
      43.02068
     ],
     [
      -77.71752,
      43.02047
     ],
     [
      -77.71766,
      43.02025
     ],
     [
      -77.7178,
      43.02003
     ],
     [
      -77.71792,
      43.01981
     ],
     [
      -77.71804,
      43.01958
     ],
     [
      -77.71815,
      43.01935
     ],
     [
      -77.71824,
      43.01912
     ],
     [
      -77.71833,
      43.01889
     ],
     [
      -77.7184,
      43.01866
     ],
     [
      -77.71846,
      43.01842
     ],
     [
      -77.71852,
      43.01818
     ],
     [
      -77.71869,
      43.01724
     ],
     [
      -77.71958,
      43.0123
     ],
     [
      -77.72048,
      43.00731
     ],
     [
      -77.72047,
      43.00619
     ],
     [
      -77.7209,
      43.00429
     ],
     [
      -77.72093,
      43.00336
     ],
     [
      -77.72204,
      42.99864
     ],
     [
      -77.72212,
      42.99817
     ],
     [
      -77.72219,
      42.99771
     ],
     [
      -77.72224,
      42.99724
     ],
     [
      -77.72229,
      42.99677
     ],
     [
      -77.72232,
      42.9963
     ],
     [
      -77.72235,
      42.99583
     ],
     [
      -77.72236,
      42.99536
     ],
     [
      -77.72237,
      42.99489
     ],
     [
      -77.72237,
      42.99442
     ],
     [
      -77.72235,
      42.99395
     ],
     [
      -77.72233,
      42.99348
     ],
     [
      -77.7223,
      42.99302
     ],
     [
      -77.72225,
      42.99255
     ],
     [
      -77.72218,
      42.99198
     ],
     [
      -77.72213,
      42.99161
     ],
     [
      -77.72206,
      42.99115
     ],
     [
      -77.72198,
      42.99068
     ],
     [
      -77.72188,
      42.99022
     ],
     [
      -77.72178,
      42.98975
     ],
     [
      -77.72167,
      42.98929
     ],
     [
      -77.72154,
      42.98883
     ],
     [
      -77.72053,
      42.98535
     ],
     [
      -77.71899,
      42.9803
     ],
     [
      -77.71627,
      42.97111
     ],
     [
      -77.71618,
      42.97083
     ],
     [
      -77.7161,
      42.97054
     ],
     [
      -77.71597,
      42.97005
     ],
     [
      -77.71593,
      42.9698
     ],
     [
      -77.7159,
      42.96955
     ],
     [
      -77.71588,
      42.9693
     ],
     [
      -77.71588,
      42.96904
     ],
     [
      -77.71588,
      42.96879
     ],
     [
      -77.71589,
      42.96854
     ],
     [
      -77.71592,
      42.96829
     ],
     [
      -77.71595,
      42.96804
     ],
     [
      -77.716,
      42.96779
     ],
     [
      -77.71605,
      42.96754
     ],
     [
      -77.71612,
      42.96729
     ],
     [
      -77.71619,
      42.96704
     ],
     [
      -77.71628,
      42.9668
     ],
     [
      -77.71638,
      42.96656
     ],
     [
      -77.71648,
      42.96632
     ],
     [
      -77.7166,
      42.96608
     ],
     [
      -77.71673,
      42.96584
     ],
     [
      -77.71686,
      42.96561
     ],
     [
      -77.71701,
      42.96538
     ],
     [
      -77.71716,
      42.96516
     ],
     [
      -77.71733,
      42.96494
     ],
     [
      -77.72317,
      42.95651
     ],
     [
      -77.72849,
      42.94891
     ],
     [
      -77.73278,
      42.94269
     ],
     [
      -77.73328,
      42.94197
     ],
     [
      -77.73377,
      42.94126
     ],
     [
      -77.73429,
      42.94052
     ],
     [
      -77.73643,
      42.93745
     ],
     [
      -77.73801,
      42.9352
     ],
     [
      -77.73822,
      42.93481
     ],
     [
      -77.73852,
      42.93445
     ],
     [
      -77.73886,
      42.934
     ],
     [
      -77.73921,
      42.93348
     ],
     [
      -77.73971,
      42.93272
     ],
     [
      -77.74017,
      42.93205
     ],
     [
      -77.74153,
      42.92991
     ],
     [
      -77.74205,
      42.92901
     ],
     [
      -77.7423,
      42.92856
     ],
     [
      -77.74265,
      42.92791
     ],
     [
      -77.74345,
      42.9263
     ],
     [
      -77.74403,
      42.92501
     ],
     [
      -77.7446,
      42.92358
     ],
     [
      -77.74482,
      42.92298
     ],
     [
      -77.74512,
      42.92215
     ],
     [
      -77.7455,
      42.92114
     ],
     [
      -77.74608,
      42.91972
     ],
     [
      -77.74616,
      42.91937
     ],
     [
      -77.74654,
      42.9185
     ],
     [
      -77.74719,
      42.91638
     ],
     [
      -77.74726,
      42.91605
     ],
     [
      -77.74746,
      42.91523
     ],
     [
      -77.74768,
      42.91456
     ],
     [
      -77.74808,
      42.91374
     ],
     [
      -77.74823,
      42.91341
     ],
     [
      -77.74852,
      42.91284
     ],
     [
      -77.7488,
      42.91243
     ]
    ]
   }
  },
  {
   "type": "Feature",
   "properties": {
    "id": "bnye-rochester-avon",
    "company": "Buffalo, New York and Erie Railroad",
    "line": "Buffalo, New York and Erie: Rochester – Avon",
    "color": "#b56576",
    "mode": "intercity_rail",
    "avg_speed_kmh": 38,
    "geometry_quality": "Real-traced from OpenStreetMap for 17.5 of the 19.1 drawn miles: 13.5 mi of surviving track operated by the Livonia, Avon & Lakeville Railroad and tagged old_railway_operator=Erie, plus 1.3 mi of railway=abandoned tagged old_railway_operator=Erie north of Rush, plus 0.5 mi of untagged LA&L track and 0.1 mi of LA&L track tagged old_railway_operator=LV where the branch shares the ex-Lehigh Valley alignment near West Henrietta. APPROXIMATED, 2 legs: (a) a 1.58 mi straight line across Rochester from the last Erie-tagged abandoned right of way at Elmwood Avenue (43.1321, -77.6237) to the Erie's Court Street depot site (43.1530, -77.6102) -- the approach through the city is built over and carries no Erie tagging in OSM, and the corridor that does survive there (OSM ways tagged old_railway_operator=PRR and =LV along the east bank of the Genesee) was not used because it is not confirmed to be the Erie's own track rather than a neighbour's; (b) a 0.08 mi straight bridge across an untraced break at the Genesee Valley Park crossing (43.0936, -77.6492 to 43.0930, -77.6505). Traced+approximated total 19.06 mi against a documented 19 miles Exchange Street (Rochester) to Avon, and against the 34-mile Rochester-Mount Morris electrification figure less the 15-mile Avon-Mount Morris segment (= 19 mi). The drawn line is today's surviving alignment; no evidence was found of a relocation between 1853 and 1941, but this has not been checked against a period valuation map.",
    "segments": [
     {
      "start": 1858,
      "end": 1863,
      "headway_min": 240,
      "note": "The Buffalo, New York and Erie Railroad leased the Rochester and Genesee Valley in 1858 and ran it as its Rochester line, feeding Erie trains at Avon. Drawn in the BNY&E's own colour rather than the Erie's because the BNY&E was still an independent lessee in these years; the Erie took the BNY&E itself on a 450-year lease in 1863. Headway and avg_speed_kmh are estimates, not taken from a timetable.",
      "sources": [
       "Segment-level: the 1858 lease of the R&GV to the Buffalo, New York and Erie, and the Erie's 1863 450-year lease of the BNY&E, are named in the RGVRRM Rochester Division history; headway and speed are unsourced estimates.",
       "https://rgvrrm.org/erie-railroad-rochester-division-chapter-two/"
      ],
      "speed_source": "Estimated. No timetable consulted."
     }
    ]
   },
   "geometry": {
    "type": "LineString",
    "coordinates": [
     [
      -77.6102,
      43.153
     ],
     [
      -77.6237,
      43.13211
     ],
     [
      -77.62422,
      43.13144
     ],
     [
      -77.62447,
      43.13111
     ],
     [
      -77.6396,
      43.11107
     ],
     [
      -77.64075,
      43.10914
     ],
     [
      -77.64248,
      43.10605
     ],
     [
      -77.64363,
      43.10388
     ],
     [
      -77.64808,
      43.09589
     ],
     [
      -77.64919,
      43.09361
     ],
     [
      -77.65053,
      43.09303
     ],
     [
      -77.64873,
      43.09193
     ],
     [
      -77.64823,
      43.09083
     ],
     [
      -77.64809,
      43.0906
     ],
     [
      -77.64779,
      43.09022
     ],
     [
      -77.6476,
      43.09001
     ],
     [
      -77.64743,
      43.08981
     ],
     [
      -77.64709,
      43.08947
     ],
     [
      -77.64676,
      43.08902
     ],
     [
      -77.64666,
      43.08877
     ],
     [
      -77.64661,
      43.08852
     ],
     [
      -77.64672,
      43.0879
     ],
     [
      -77.64689,
      43.08762
     ],
     [
      -77.6473,
      43.08728
     ],
     [
      -77.64775,
      43.08711
     ],
     [
      -77.6481,
      43.08704
     ],
     [
      -77.64852,
      43.08702
     ],
     [
      -77.64931,
      43.08702
     ],
     [
      -77.65038,
      43.08704
     ],
     [
      -77.65128,
      43.08716
     ],
     [
      -77.65166,
      43.08717
     ],
     [
      -77.65212,
      43.08708
     ],
     [
      -77.65255,
      43.0869
     ],
     [
      -77.6528,
      43.08672
     ],
     [
      -77.65301,
      43.08649
     ],
     [
      -77.65329,
      43.08595
     ],
     [
      -77.65535,
      43.08206
     ],
     [
      -77.66039,
      43.07243
     ],
     [
      -77.66296,
      43.06757
     ],
     [
      -77.66767,
      43.05852
     ],
     [
      -77.66954,
      43.05501
     ],
     [
      -77.67033,
      43.05346
     ],
     [
      -77.67057,
      43.05304
     ],
     [
      -77.67078,
      43.05269
     ],
     [
      -77.67096,
      43.05242
     ],
     [
      -77.67118,
      43.05211
     ],
     [
      -77.67145,
      43.05174
     ],
     [
      -77.67169,
      43.05143
     ],
     [
      -77.67193,
      43.05114
     ],
     [
      -77.67218,
      43.05086
     ],
     [
      -77.67245,
      43.05056
     ],
     [
      -77.67271,
      43.05028
     ],
     [
      -77.67299,
      43.05
     ],
     [
      -77.67327,
      43.04973
     ],
     [
      -77.67356,
      43.04945
     ],
     [
      -77.67386,
      43.04919
     ],
     [
      -77.67418,
      43.04892
     ],
     [
      -77.6745,
      43.04866
     ],
     [
      -77.67483,
      43.04841
     ],
     [
      -77.67517,
      43.04816
     ],
     [
      -77.67552,
      43.04792
     ],
     [
      -77.67952,
      43.04536
     ],
     [
      -77.68003,
      43.04505
     ],
     [
      -77.68085,
      43.04452
     ],
     [
      -77.6881,
      43.03991
     ],
     [
      -77.69914,
      43.0329
     ],
     [
      -77.70005,
      43.03233
     ],
     [
      -77.70262,
      43.0307
     ],
     [
      -77.71049,
      43.02569
     ],
     [
      -77.71514,
      43.02274
     ],
     [
      -77.71561,
      43.0224
     ],
     [
      -77.71584,
      43.02223
     ],
     [
      -77.71602,
      43.02205
     ],
     [
      -77.71624,
      43.02187
     ],
     [
      -77.71645,
      43.02168
     ],
     [
      -77.71665,
      43.02149
     ],
     [
      -77.71684,
      43.02129
     ],
     [
      -77.71702,
      43.02109
     ],
     [
      -77.7172,
      43.02089
     ],
     [
      -77.71736,
      43.02068
     ],
     [
      -77.71752,
      43.02047
     ],
     [
      -77.71766,
      43.02025
     ],
     [
      -77.7178,
      43.02003
     ],
     [
      -77.71792,
      43.01981
     ],
     [
      -77.71804,
      43.01958
     ],
     [
      -77.71815,
      43.01935
     ],
     [
      -77.71824,
      43.01912
     ],
     [
      -77.71833,
      43.01889
     ],
     [
      -77.7184,
      43.01866
     ],
     [
      -77.71846,
      43.01842
     ],
     [
      -77.71852,
      43.01818
     ],
     [
      -77.71869,
      43.01724
     ],
     [
      -77.71958,
      43.0123
     ],
     [
      -77.72048,
      43.00731
     ],
     [
      -77.72047,
      43.00619
     ],
     [
      -77.7209,
      43.00429
     ],
     [
      -77.72093,
      43.00336
     ],
     [
      -77.72204,
      42.99864
     ],
     [
      -77.72212,
      42.99817
     ],
     [
      -77.72219,
      42.99771
     ],
     [
      -77.72224,
      42.99724
     ],
     [
      -77.72229,
      42.99677
     ],
     [
      -77.72232,
      42.9963
     ],
     [
      -77.72235,
      42.99583
     ],
     [
      -77.72236,
      42.99536
     ],
     [
      -77.72237,
      42.99489
     ],
     [
      -77.72237,
      42.99442
     ],
     [
      -77.72235,
      42.99395
     ],
     [
      -77.72233,
      42.99348
     ],
     [
      -77.7223,
      42.99302
     ],
     [
      -77.72225,
      42.99255
     ],
     [
      -77.72218,
      42.99198
     ],
     [
      -77.72213,
      42.99161
     ],
     [
      -77.72206,
      42.99115
     ],
     [
      -77.72198,
      42.99068
     ],
     [
      -77.72188,
      42.99022
     ],
     [
      -77.72178,
      42.98975
     ],
     [
      -77.72167,
      42.98929
     ],
     [
      -77.72154,
      42.98883
     ],
     [
      -77.72053,
      42.98535
     ],
     [
      -77.71899,
      42.9803
     ],
     [
      -77.71627,
      42.97111
     ],
     [
      -77.71618,
      42.97083
     ],
     [
      -77.7161,
      42.97054
     ],
     [
      -77.71597,
      42.97005
     ],
     [
      -77.71593,
      42.9698
     ],
     [
      -77.7159,
      42.96955
     ],
     [
      -77.71588,
      42.9693
     ],
     [
      -77.71588,
      42.96904
     ],
     [
      -77.71588,
      42.96879
     ],
     [
      -77.71589,
      42.96854
     ],
     [
      -77.71592,
      42.96829
     ],
     [
      -77.71595,
      42.96804
     ],
     [
      -77.716,
      42.96779
     ],
     [
      -77.71605,
      42.96754
     ],
     [
      -77.71612,
      42.96729
     ],
     [
      -77.71619,
      42.96704
     ],
     [
      -77.71628,
      42.9668
     ],
     [
      -77.71638,
      42.96656
     ],
     [
      -77.71648,
      42.96632
     ],
     [
      -77.7166,
      42.96608
     ],
     [
      -77.71673,
      42.96584
     ],
     [
      -77.71686,
      42.96561
     ],
     [
      -77.71701,
      42.96538
     ],
     [
      -77.71716,
      42.96516
     ],
     [
      -77.71733,
      42.96494
     ],
     [
      -77.72317,
      42.95651
     ],
     [
      -77.72849,
      42.94891
     ],
     [
      -77.73278,
      42.94269
     ],
     [
      -77.73328,
      42.94197
     ],
     [
      -77.73377,
      42.94126
     ],
     [
      -77.73429,
      42.94052
     ],
     [
      -77.73643,
      42.93745
     ],
     [
      -77.73801,
      42.9352
     ],
     [
      -77.73822,
      42.93481
     ],
     [
      -77.73852,
      42.93445
     ],
     [
      -77.73886,
      42.934
     ],
     [
      -77.73921,
      42.93348
     ],
     [
      -77.73971,
      42.93272
     ],
     [
      -77.74017,
      42.93205
     ],
     [
      -77.74153,
      42.92991
     ],
     [
      -77.74205,
      42.92901
     ],
     [
      -77.7423,
      42.92856
     ],
     [
      -77.74265,
      42.92791
     ],
     [
      -77.74345,
      42.9263
     ],
     [
      -77.74403,
      42.92501
     ],
     [
      -77.7446,
      42.92358
     ],
     [
      -77.74482,
      42.92298
     ],
     [
      -77.74512,
      42.92215
     ],
     [
      -77.7455,
      42.92114
     ],
     [
      -77.74608,
      42.91972
     ],
     [
      -77.74616,
      42.91937
     ],
     [
      -77.74654,
      42.9185
     ],
     [
      -77.74719,
      42.91638
     ],
     [
      -77.74726,
      42.91605
     ],
     [
      -77.74746,
      42.91523
     ],
     [
      -77.74768,
      42.91456
     ],
     [
      -77.74808,
      42.91374
     ],
     [
      -77.74823,
      42.91341
     ],
     [
      -77.74852,
      42.91284
     ],
     [
      -77.7488,
      42.91243
     ]
    ]
   }
  },
  {
   "type": "Feature",
   "properties": {
    "id": "erie-rochester-branch",
    "company": "Erie Railroad",
    "line": "Erie Railroad: Rochester Branch",
    "color": "#22223B",
    "mode": "intercity_rail",
    "avg_speed_kmh": 45,
    "geometry_quality": "Real-traced from OpenStreetMap for 17.5 of the 19.1 drawn miles: 13.5 mi of surviving track operated by the Livonia, Avon & Lakeville Railroad and tagged old_railway_operator=Erie, plus 1.3 mi of railway=abandoned tagged old_railway_operator=Erie north of Rush, plus 0.5 mi of untagged LA&L track and 0.1 mi of LA&L track tagged old_railway_operator=LV where the branch shares the ex-Lehigh Valley alignment near West Henrietta. APPROXIMATED, 2 legs: (a) a 1.58 mi straight line across Rochester from the last Erie-tagged abandoned right of way at Elmwood Avenue (43.1321, -77.6237) to the Erie's Court Street depot site (43.1530, -77.6102) -- the approach through the city is built over and carries no Erie tagging in OSM, and the corridor that does survive there (OSM ways tagged old_railway_operator=PRR and =LV along the east bank of the Genesee) was not used because it is not confirmed to be the Erie's own track rather than a neighbour's; (b) a 0.08 mi straight bridge across an untraced break at the Genesee Valley Park crossing (43.0936, -77.6492 to 43.0930, -77.6505). Traced+approximated total 19.06 mi against a documented 19 miles Exchange Street (Rochester) to Avon, and against the 34-mile Rochester-Mount Morris electrification figure less the 15-mile Avon-Mount Morris segment (= 19 mi). The drawn line is today's surviving alignment; no evidence was found of a relocation between 1853 and 1941, but this has not been checked against a period valuation map.",
    "segments": [
     {
      "start": 1863,
      "end": 1880,
      "headway_min": 180,
      "note": "The Erie Railway leased the Buffalo, New York and Erie for 450 years in 1863, bringing the Rochester–Avon line under direct Erie operation. Through the Civil War years the number of passenger trains doubled and eventually included sleeping cars working through to New York. Headway and avg_speed_kmh are estimates, not taken from a timetable.",
      "sources": [
       "Segment-level: the 1863 lease and the post-Civil-War doubling of passenger trains (including sleepers) are stated in the RGVRRM Rochester Division history; headway and speed are unsourced estimates.",
       "https://rgvrrm.org/erie-railroad-rochester-division-chapter-two/",
       "https://rgvrrm.org/erie-railroad-rochester-division-chapter-three/"
      ],
      "speed_source": "Estimated."
     },
     {
      "start": 1880,
      "end": 1895,
      "headway_min": 150,
      "note": "New York, Lake Erie and Western Railroad era. The 1880s were probably the high-water mark of passenger service between Rochester and Corning; by 1887 the Erie's new Court Street depot in Rochester (opened May 14 1887, George E. Archer architect) handled roughly 60 train movements a day. Avon became the division point and shop town of the formal Rochester Division in 1885, with the Rochester Branch, the Mount Morris Branch, the Attica Branch and the Corning main all converging there. NOTE: the sibling layer avon_geneseo_mount_morris_railroad.geojson also dates the NY,LE&W era from 1880; other sources put the reorganisation at 1878. Headway and avg_speed_kmh are estimates, not taken from a timetable.",
      "sources": [
       "Segment-level: the 1885 division reorganisation with Avon as division point, the 1887 depot and its ~60 daily movements, and the 1880s peak are stated in the RGVRRM Rochester Division history and the Erie Railroad Depot article; headway and speed are unsourced estimates.",
       "https://rgvrrm.org/erie-railroad-rochester-division-chapter-two/",
       "https://rgvrrm.org/erie-railroad-rochester-division-chapter-three/",
       "https://en.wikipedia.org/wiki/Erie_Railroad_Depot_(Rochester,_New_York)"
      ],
      "speed_source": "Estimated."
     },
     {
      "start": 1895,
      "end": 1907,
      "headway_min": 180,
      "note": "Erie Railroad era (the NY,LE&W was reorganised under that name in 1895), worked by steam. By the First World War the Corning and Attica branches were down to two passenger trains each way; a January 1918 federal proposal would have shut the Erie's Attica branch between Batavia and Avon and diverted the traffic onto the New York Central 'Peanut' branch from Batavia to Golah, where the Peanut crossed this line. Headway and avg_speed_kmh are estimates, not taken from a timetable.",
      "sources": [
       "Segment-level: the wartime two-trains-each-way figure and the 1918 Batavia–Golah diversion proposal are stated in the RGVRRM Rochester Division history; headway and speed are unsourced estimates.",
       "https://rgvrrm.org/erie-railroad-rochester-division-chapter-three/"
      ],
      "speed_source": "Estimated."
     },
     {
      "start": 1907,
      "end": 1934,
      "headway_min": 60,
      "note": "Electric era. The Erie electrified the whole route from its Court Street terminus in Rochester through Avon to Mount Morris in late 1906 - March 1907, and ran it as an hourly electric commuter service from about 6am to 11:30pm, Rochester to Mount Morris in roughly 1h10m over 34 miles. The Court Street depot was one of the very few electrified Erie stations. Headway here is the sourced hourly service; the speed figure is derived from the 34 miles / 1h10m timing.",
      "sources": [
       "Segment-level: hourly 6am-11:30pm electric service, the 1906-07 electrification of Rochester–Mount Morris and the ~1h10m running time are cited in the sibling layer avon_geneseo_mount_morris_railroad.geojson and in the Erie Railroad Depot and Avon station articles (which give June 18 1907 for the start of electric operation, against May 12 1907 elsewhere -- conflict unresolved).",
       "https://en.wikipedia.org/wiki/Erie_Railroad_Depot_(Rochester,_New_York)",
       "https://en.wikipedia.org/wiki/Avon_station_(Erie_Railroad)"
      ],
      "speed_source": "Derived from the sourced 34 miles in about 1h10m Rochester–Mount Morris, including stops."
     },
     {
      "start": 1934,
      "end": 1941,
      "headway_min": 180,
      "note": "De-electrification began in 1934 and the branch finished out on gas-electric motor cars. The Erie got Public Service Commission approval to drop the service for poor financial return, with buses authorised as a substitute: the last passenger train left Court Street station at 6:15pm on September 30 1941, ending Erie passenger service in Rochester, and the depot was demolished in 1942. Freight continued over the route long afterwards and most of it is still worked today by the Livonia, Avon & Lakeville Railroad -- that is context, not passenger service, and is not drawn. Headway and avg_speed_kmh are estimates, not taken from a timetable.",
      "sources": [
       "Segment-level: the September 30 1941 end of service, the 6:15pm final departure from Court Street, the PSC approval and bus substitution, and the 1942 demolition are stated in the RGVRRM article on the end of Erie service in Rochester, the Erie Railroad Depot article and the Avon station article; headway and speed are unsourced estimates.",
       "https://rgvrrm.org/the-end-of-erie-service-in-rochester/",
       "https://en.wikipedia.org/wiki/Erie_Railroad_Depot_(Rochester,_New_York)",
       "https://en.wikipedia.org/wiki/Avon_station_(Erie_Railroad)"
      ],
      "speed_source": "Estimated."
     }
    ]
   },
   "geometry": {
    "type": "LineString",
    "coordinates": [
     [
      -77.6102,
      43.153
     ],
     [
      -77.6237,
      43.13211
     ],
     [
      -77.62422,
      43.13144
     ],
     [
      -77.62447,
      43.13111
     ],
     [
      -77.6396,
      43.11107
     ],
     [
      -77.64075,
      43.10914
     ],
     [
      -77.64248,
      43.10605
     ],
     [
      -77.64363,
      43.10388
     ],
     [
      -77.64808,
      43.09589
     ],
     [
      -77.64919,
      43.09361
     ],
     [
      -77.65053,
      43.09303
     ],
     [
      -77.64873,
      43.09193
     ],
     [
      -77.64823,
      43.09083
     ],
     [
      -77.64809,
      43.0906
     ],
     [
      -77.64779,
      43.09022
     ],
     [
      -77.6476,
      43.09001
     ],
     [
      -77.64743,
      43.08981
     ],
     [
      -77.64709,
      43.08947
     ],
     [
      -77.64676,
      43.08902
     ],
     [
      -77.64666,
      43.08877
     ],
     [
      -77.64661,
      43.08852
     ],
     [
      -77.64672,
      43.0879
     ],
     [
      -77.64689,
      43.08762
     ],
     [
      -77.6473,
      43.08728
     ],
     [
      -77.64775,
      43.08711
     ],
     [
      -77.6481,
      43.08704
     ],
     [
      -77.64852,
      43.08702
     ],
     [
      -77.64931,
      43.08702
     ],
     [
      -77.65038,
      43.08704
     ],
     [
      -77.65128,
      43.08716
     ],
     [
      -77.65166,
      43.08717
     ],
     [
      -77.65212,
      43.08708
     ],
     [
      -77.65255,
      43.0869
     ],
     [
      -77.6528,
      43.08672
     ],
     [
      -77.65301,
      43.08649
     ],
     [
      -77.65329,
      43.08595
     ],
     [
      -77.65535,
      43.08206
     ],
     [
      -77.66039,
      43.07243
     ],
     [
      -77.66296,
      43.06757
     ],
     [
      -77.66767,
      43.05852
     ],
     [
      -77.66954,
      43.05501
     ],
     [
      -77.67033,
      43.05346
     ],
     [
      -77.67057,
      43.05304
     ],
     [
      -77.67078,
      43.05269
     ],
     [
      -77.67096,
      43.05242
     ],
     [
      -77.67118,
      43.05211
     ],
     [
      -77.67145,
      43.05174
     ],
     [
      -77.67169,
      43.05143
     ],
     [
      -77.67193,
      43.05114
     ],
     [
      -77.67218,
      43.05086
     ],
     [
      -77.67245,
      43.05056
     ],
     [
      -77.67271,
      43.05028
     ],
     [
      -77.67299,
      43.05
     ],
     [
      -77.67327,
      43.04973
     ],
     [
      -77.67356,
      43.04945
     ],
     [
      -77.67386,
      43.04919
     ],
     [
      -77.67418,
      43.04892
     ],
     [
      -77.6745,
      43.04866
     ],
     [
      -77.67483,
      43.04841
     ],
     [
      -77.67517,
      43.04816
     ],
     [
      -77.67552,
      43.04792
     ],
     [
      -77.67952,
      43.04536
     ],
     [
      -77.68003,
      43.04505
     ],
     [
      -77.68085,
      43.04452
     ],
     [
      -77.6881,
      43.03991
     ],
     [
      -77.69914,
      43.0329
     ],
     [
      -77.70005,
      43.03233
     ],
     [
      -77.70262,
      43.0307
     ],
     [
      -77.71049,
      43.02569
     ],
     [
      -77.71514,
      43.02274
     ],
     [
      -77.71561,
      43.0224
     ],
     [
      -77.71584,
      43.02223
     ],
     [
      -77.71602,
      43.02205
     ],
     [
      -77.71624,
      43.02187
     ],
     [
      -77.71645,
      43.02168
     ],
     [
      -77.71665,
      43.02149
     ],
     [
      -77.71684,
      43.02129
     ],
     [
      -77.71702,
      43.02109
     ],
     [
      -77.7172,
      43.02089
     ],
     [
      -77.71736,
      43.02068
     ],
     [
      -77.71752,
      43.02047
     ],
     [
      -77.71766,
      43.02025
     ],
     [
      -77.7178,
      43.02003
     ],
     [
      -77.71792,
      43.01981
     ],
     [
      -77.71804,
      43.01958
     ],
     [
      -77.71815,
      43.01935
     ],
     [
      -77.71824,
      43.01912
     ],
     [
      -77.71833,
      43.01889
     ],
     [
      -77.7184,
      43.01866
     ],
     [
      -77.71846,
      43.01842
     ],
     [
      -77.71852,
      43.01818
     ],
     [
      -77.71869,
      43.01724
     ],
     [
      -77.71958,
      43.0123
     ],
     [
      -77.72048,
      43.00731
     ],
     [
      -77.72047,
      43.00619
     ],
     [
      -77.7209,
      43.00429
     ],
     [
      -77.72093,
      43.00336
     ],
     [
      -77.72204,
      42.99864
     ],
     [
      -77.72212,
      42.99817
     ],
     [
      -77.72219,
      42.99771
     ],
     [
      -77.72224,
      42.99724
     ],
     [
      -77.72229,
      42.99677
     ],
     [
      -77.72232,
      42.9963
     ],
     [
      -77.72235,
      42.99583
     ],
     [
      -77.72236,
      42.99536
     ],
     [
      -77.72237,
      42.99489
     ],
     [
      -77.72237,
      42.99442
     ],
     [
      -77.72235,
      42.99395
     ],
     [
      -77.72233,
      42.99348
     ],
     [
      -77.7223,
      42.99302
     ],
     [
      -77.72225,
      42.99255
     ],
     [
      -77.72218,
      42.99198
     ],
     [
      -77.72213,
      42.99161
     ],
     [
      -77.72206,
      42.99115
     ],
     [
      -77.72198,
      42.99068
     ],
     [
      -77.72188,
      42.99022
     ],
     [
      -77.72178,
      42.98975
     ],
     [
      -77.72167,
      42.98929
     ],
     [
      -77.72154,
      42.98883
     ],
     [
      -77.72053,
      42.98535
     ],
     [
      -77.71899,
      42.9803
     ],
     [
      -77.71627,
      42.97111
     ],
     [
      -77.71618,
      42.97083
     ],
     [
      -77.7161,
      42.97054
     ],
     [
      -77.71597,
      42.97005
     ],
     [
      -77.71593,
      42.9698
     ],
     [
      -77.7159,
      42.96955
     ],
     [
      -77.71588,
      42.9693
     ],
     [
      -77.71588,
      42.96904
     ],
     [
      -77.71588,
      42.96879
     ],
     [
      -77.71589,
      42.96854
     ],
     [
      -77.71592,
      42.96829
     ],
     [
      -77.71595,
      42.96804
     ],
     [
      -77.716,
      42.96779
     ],
     [
      -77.71605,
      42.96754
     ],
     [
      -77.71612,
      42.96729
     ],
     [
      -77.71619,
      42.96704
     ],
     [
      -77.71628,
      42.9668
     ],
     [
      -77.71638,
      42.96656
     ],
     [
      -77.71648,
      42.96632
     ],
     [
      -77.7166,
      42.96608
     ],
     [
      -77.71673,
      42.96584
     ],
     [
      -77.71686,
      42.96561
     ],
     [
      -77.71701,
      42.96538
     ],
     [
      -77.71716,
      42.96516
     ],
     [
      -77.71733,
      42.96494
     ],
     [
      -77.72317,
      42.95651
     ],
     [
      -77.72849,
      42.94891
     ],
     [
      -77.73278,
      42.94269
     ],
     [
      -77.73328,
      42.94197
     ],
     [
      -77.73377,
      42.94126
     ],
     [
      -77.73429,
      42.94052
     ],
     [
      -77.73643,
      42.93745
     ],
     [
      -77.73801,
      42.9352
     ],
     [
      -77.73822,
      42.93481
     ],
     [
      -77.73852,
      42.93445
     ],
     [
      -77.73886,
      42.934
     ],
     [
      -77.73921,
      42.93348
     ],
     [
      -77.73971,
      42.93272
     ],
     [
      -77.74017,
      42.93205
     ],
     [
      -77.74153,
      42.92991
     ],
     [
      -77.74205,
      42.92901
     ],
     [
      -77.7423,
      42.92856
     ],
     [
      -77.74265,
      42.92791
     ],
     [
      -77.74345,
      42.9263
     ],
     [
      -77.74403,
      42.92501
     ],
     [
      -77.7446,
      42.92358
     ],
     [
      -77.74482,
      42.92298
     ],
     [
      -77.74512,
      42.92215
     ],
     [
      -77.7455,
      42.92114
     ],
     [
      -77.74608,
      42.91972
     ],
     [
      -77.74616,
      42.91937
     ],
     [
      -77.74654,
      42.9185
     ],
     [
      -77.74719,
      42.91638
     ],
     [
      -77.74726,
      42.91605
     ],
     [
      -77.74746,
      42.91523
     ],
     [
      -77.74768,
      42.91456
     ],
     [
      -77.74808,
      42.91374
     ],
     [
      -77.74823,
      42.91341
     ],
     [
      -77.74852,
      42.91284
     ],
     [
      -77.7488,
      42.91243
     ]
    ]
   }
  }
 ]
}
