{"type": "FeatureCollection", "metadata": {"title": "Evansville, Indiana \u2014 steam-road hub", "note": "The six railroads that radiated from Evansville in 1900, plus the two twentieth-century additions (the Big Four\u2019s Mount Carmel line of 1911). Evansville was one of the larger rail centres of the lower Midwest and had no coverage in this map at all; the nearest existing feature was 46 km away. Features are split at ownership changes per Rule 4, so most corridors appear twice or three times with identical geometry and different companies/colours. Electric lines \u2014 the city streetcars, the Evansville Suburban and Newburgh, and the Evansville and Ohio Valley interurbans \u2014 are NOT in this file; none of them survive in OpenStreetMap and they need street-grid tracing.", "geometry_method": "Corridor-constrained shortest path over OpenStreetMap ways filtered on old_railway_operator (C&EI, L&N, Southern, NYC, IC), which is well populated across south-west Indiana. Every feature carries its own geometry_quality naming its traced length, the documented mileage where one is known, and every straight-line leg.", "not_yet_sourced": ["Last passenger train on the Evansville\u2013Terre Haute line of the Evansville, Indianapolis and Terre Haute (Big Four). The drawn end year of 1942 is borrowed from the Big Four\u2019s Mount Carmel line and is unverified.", "Last passenger train on the Illinois Central\u2019s Evansville\u2013Olney (ex-PD&E) line. 1938 is inferred from a source that dates the last passenger train on the Peoria\u2013Mattoon end to the \"late 1930s\".", "Whether Southern Railway passenger service between Louisville and Princeton ended with the June 1953 Princeton\u2013St. Louis discontinuance or on a different date.", "Every headway_min and avg_speed_kmh in this file is an estimate; no Official Guide or company timetable was consulted for any segment.", "The PD&E north of Olney (Newton\u2013Mattoon\u2013Decatur\u2013Peoria) is not drawn at all \u2014 the grade is gone and is not mapped in OSM."], "freight_only_audit": "Rule 1 check: nothing freight-only was added. The Evansville Belt Railway, the Algers Winslow and Western, and the modern Evansville Western / Indiana Southern / Indiana Southwestern short lines were all deliberately left out. Where a corridor outlived its passenger service the feature ends at the passenger date and the note says what happened afterwards.", "horsecar_audit": "Rule 5 check: no animal-powered operation is drawn; every feature here is a steam railroad.", "sources": ["https://historicevansville.com/railroad.php", "https://www.evansvilleliving.com/ln-helped-build-evansville/", "https://en.wikipedia.org/wiki/Evansville_and_Crawfordsville_Railroad", "https://en.wikipedia.org/wiki/Wikipedia:WikiProject_Trains/ICC_valuations/Evansville_and_Indianapolis_Railroad", "https://www.abandonedrails.com/evansville-mount-carmel-and-northern-railroad", "http://industrialscenery.blogspot.com/2014/11/peoria-decatur-evansville-railway.html", "https://www.westkentuckynrhs.org/history-of-evansville-henderson-nashville/"]}, "features": [{"type": "Feature", "properties": {"id": "evv-eth-evansville-terre-haute", "company": "Evansville and Terre Haute Railroad", "line": "Evansville and Terre Haute: Evansville \u2013 Terre Haute", "color": "#B84A62", "mode": "intercity_rail", "avg_speed_kmh": 45, "geometry_quality": "Traced from OSM ways tagged old_railway_operator=C&EI (CSX CE&D Subdivision and its abandoned sections) by corridor-constrained shortest path through Princeton, Vincennes and Sullivan. Traced length 108.2 mi against a documented 109 mi (Evansville\u2013Vincennes 51 + Vincennes\u2013Terre Haute 58). No straight-line approximation longer than 1.2 km. Drawn on the surviving alignment, which is the same one the E&TH used.", "speed_source": "Estimated. No timetable was consulted; 45 km/h is a general figure for a 19th-century Indiana trunk line.", "segments": [{"start": 1854, "end": 1877, "headway_min": 240, "note": "Opened as the Evansville and Crawfordsville Railroad: through traffic to Vincennes and on to Terre Haute from 23 November 1853, completed 1854. Renamed Evansville and Terre Haute Railroad in 1877. Headway is an estimate for a mid-century trunk line, not a timetable figure.", "sources": ["Segment-level: opening and 1877 rename from the Evansville and Crawfordsville Railroad article.", "https://en.wikipedia.org/wiki/Evansville_and_Crawfordsville_Railroad", "https://historicevansville.com/railroad.php"]}, {"start": 1877, "end": 1911, "headway_min": 200, "note": "Evansville and Terre Haute Railroad. Absorbed into the Chicago and Eastern Illinois in 1911; the post-1911 years are drawn as a separate C&EI feature on the same geometry. Headway estimated.", "sources": ["Segment-level: 1877 rename and 1911 consolidation into the C&EI.", "https://en.wikipedia.org/wiki/Evansville_and_Crawfordsville_Railroad", "https://historicevansville.com/railroad.php"]}]}, "geometry": {"type": "LineString", "coordinates": [[-87.559708, 37.976302], [-87.550964, 37.981101], [-87.54862, 37.985316], [-87.546881, 37.990992], [-87.544365, 37.993267], [-87.540297, 38.000955], [-87.539441, 38.032752], [-87.540155, 38.036522], [-87.55761, 38.086234], [-87.564873, 38.170684], [-87.565747, 38.173536], [-87.571147, 38.17952], [-87.581582, 38.264338], [-87.575592, 38.307956], [-87.575094, 38.327772], [-87.569227, 38.338819], [-87.569019, 38.342498], [-87.571304, 38.353278], [-87.584403, 38.361497], [-87.588632, 38.368955], [-87.589909, 38.374144], [-87.589888, 38.391792], [-87.587159, 38.398794], [-87.587164, 38.405517], [-87.584766, 38.408881], [-87.583054, 38.413405], [-87.574333, 38.425829], [-87.574027, 38.428217], [-87.575218, 38.432026], [-87.574569, 38.433795], [-87.555633, 38.449291], [-87.555121, 38.451131], [-87.555238, 38.469528], [-87.554378, 38.473587], [-87.547284, 38.484528], [-87.535446, 38.494393], [-87.534158, 38.497715], [-87.533298, 38.510625], [-87.53204, 38.512649], [-87.528084, 38.516219], [-87.527077, 38.518573], [-87.522949, 38.539921], [-87.523365, 38.547926], [-87.527435, 38.565491], [-87.527604, 38.569537], [-87.511792, 38.628588], [-87.523231, 38.665521], [-87.526007, 38.670592], [-87.524621, 38.673417], [-87.519242, 38.67725], [-87.515004, 38.685129], [-87.505036, 38.691416], [-87.503182, 38.693993], [-87.503845, 38.699323], [-87.511447, 38.715909], [-87.511259, 38.720042], [-87.507207, 38.725903], [-87.502697, 38.72923], [-87.498419, 38.736305], [-87.490208, 38.739956], [-87.487321, 38.742603], [-87.486195, 38.7465], [-87.488979, 38.760107], [-87.488659, 38.762341], [-87.487461, 38.764021], [-87.48275, 38.767144], [-87.454683, 38.807939], [-87.446514, 38.855674], [-87.44497, 38.861321], [-87.398368, 38.950368], [-87.396824, 38.954558], [-87.390953, 39.009092], [-87.391827, 39.015368], [-87.395855, 39.026265], [-87.39684, 39.031084], [-87.397352, 39.085343], [-87.405246, 39.108905], [-87.404344, 39.135723], [-87.403588, 39.141014], [-87.379751, 39.231031], [-87.378788, 39.361365], [-87.37551, 39.394744], [-87.376212, 39.399059], [-87.384156, 39.416097], [-87.393251, 39.452834], [-87.394635, 39.45517], [-87.40194, 39.462926], [-87.402586, 39.466891]]}}, {"type": "Feature", "properties": {"id": "evv-cei-evansville-terre-haute", "company": "Chicago and Eastern Illinois Railroad", "line": "Chicago and Eastern Illinois: Evansville \u2013 Terre Haute", "color": "#D1495B", "mode": "intercity_rail", "avg_speed_kmh": 60, "geometry_quality": "Traced from OSM ways tagged old_railway_operator=C&EI (CSX CE&D Subdivision and its abandoned sections) by corridor-constrained shortest path through Princeton, Vincennes and Sullivan. Traced length 108.2 mi against a documented 109 mi (Evansville\u2013Vincennes 51 + Vincennes\u2013Terre Haute 58). No straight-line approximation longer than 1.2 km. Drawn on the surviving alignment, which is the same one the E&TH used.", "speed_source": "Estimated for a 20th-century secondary main line; no timetable consulted.", "segments": [{"start": 1911, "end": 1971, "headway_min": 180, "note": "C&EI Evansville Division, the southern end of the Chicago\u2013Evansville main line. Carried the \"Whippoorwill\" (Chicago\u2013Evansville) and the C&EI section of the L&N \"Georgian\". Passenger service ended when Amtrak took over on 1 May 1971 and did not include Evansville. Headway estimated.", "sources": ["Segment-level: C&EI Chicago\u2013Evansville passenger service and its 1971 end.", "https://en.wikipedia.org/wiki/Whippoorwill_(train)", "https://www.american-rails.com/cei.html"]}]}, "geometry": {"type": "LineString", "coordinates": [[-87.559708, 37.976302], [-87.550964, 37.981101], [-87.54862, 37.985316], [-87.546881, 37.990992], [-87.544365, 37.993267], [-87.540297, 38.000955], [-87.539441, 38.032752], [-87.540155, 38.036522], [-87.55761, 38.086234], [-87.564873, 38.170684], [-87.565747, 38.173536], [-87.571147, 38.17952], [-87.581582, 38.264338], [-87.575592, 38.307956], [-87.575094, 38.327772], [-87.569227, 38.338819], [-87.569019, 38.342498], [-87.571304, 38.353278], [-87.584403, 38.361497], [-87.588632, 38.368955], [-87.589909, 38.374144], [-87.589888, 38.391792], [-87.587159, 38.398794], [-87.587164, 38.405517], [-87.584766, 38.408881], [-87.583054, 38.413405], [-87.574333, 38.425829], [-87.574027, 38.428217], [-87.575218, 38.432026], [-87.574569, 38.433795], [-87.555633, 38.449291], [-87.555121, 38.451131], [-87.555238, 38.469528], [-87.554378, 38.473587], [-87.547284, 38.484528], [-87.535446, 38.494393], [-87.534158, 38.497715], [-87.533298, 38.510625], [-87.53204, 38.512649], [-87.528084, 38.516219], [-87.527077, 38.518573], [-87.522949, 38.539921], [-87.523365, 38.547926], [-87.527435, 38.565491], [-87.527604, 38.569537], [-87.511792, 38.628588], [-87.523231, 38.665521], [-87.526007, 38.670592], [-87.524621, 38.673417], [-87.519242, 38.67725], [-87.515004, 38.685129], [-87.505036, 38.691416], [-87.503182, 38.693993], [-87.503845, 38.699323], [-87.511447, 38.715909], [-87.511259, 38.720042], [-87.507207, 38.725903], [-87.502697, 38.72923], [-87.498419, 38.736305], [-87.490208, 38.739956], [-87.487321, 38.742603], [-87.486195, 38.7465], [-87.488979, 38.760107], [-87.488659, 38.762341], [-87.487461, 38.764021], [-87.48275, 38.767144], [-87.454683, 38.807939], [-87.446514, 38.855674], [-87.44497, 38.861321], [-87.398368, 38.950368], [-87.396824, 38.954558], [-87.390953, 39.009092], [-87.391827, 39.015368], [-87.395855, 39.026265], [-87.39684, 39.031084], [-87.397352, 39.085343], [-87.405246, 39.108905], [-87.404344, 39.135723], [-87.403588, 39.141014], [-87.379751, 39.231031], [-87.378788, 39.361365], [-87.37551, 39.394744], [-87.376212, 39.399059], [-87.384156, 39.416097], [-87.393251, 39.452834], [-87.394635, 39.45517], [-87.40194, 39.462926], [-87.402586, 39.466891]]}}, {"type": "Feature", "properties": {"id": "evv-ehn-henderson-nashville", "company": "Evansville, Henderson and Nashville Railroad", "line": "Evansville, Henderson and Nashville: Henderson \u2013 Nashville", "color": "#3D8C6E", "mode": "intercity_rail", "avg_speed_kmh": 40, "geometry_quality": "Traced from OSM ways tagged old_railway_operator=L&N (CSX Henderson Subdivision and the Nashville Terminal Subdivision) through Madisonville, Hopkinsville, Guthrie and Springfield. Traced length 144.0 mi Henderson\u2013Nashville; largest straight-line bridge 2.15 km. This is the surviving alignment, which is the one the EH&N built.", "speed_source": "Estimated. No L&N timetable was consulted.", "segments": [{"start": 1871, "end": 1872, "headway_min": 300, "note": "Opened April 1871, built by Evansville business interests for a direct line south. Drawn from Henderson, not Evansville: the Ohio River was not bridged until 1885 and Evansville passengers crossed by ferry. Acquired by the St. Louis and Southeastern in 1872. Headway estimated.", "sources": ["Segment-level: 1871 opening and 1872 acquisition by the StL&SE.", "https://www.westkentuckynrhs.org/history-of-evansville-henderson-nashville/"]}]}, "geometry": {"type": "LineString", "coordinates": [[-87.579375, 37.839013], [-87.577827, 37.837721], [-87.576736, 37.835443], [-87.576755, 37.809381], [-87.574236, 37.797772], [-87.577723, 37.782321], [-87.577452, 37.777508], [-87.558583, 37.699536], [-87.544434, 37.668037], [-87.542537, 37.658718], [-87.538704, 37.650485], [-87.536765, 37.643729], [-87.526285, 37.622116], [-87.526592, 37.619008], [-87.530227, 37.61123], [-87.5313, 37.604533], [-87.532745, 37.600567], [-87.53001, 37.591225], [-87.525559, 37.585732], [-87.524574, 37.582972], [-87.524874, 37.568692], [-87.528132, 37.555548], [-87.528014, 37.553375], [-87.52589, 37.55063], [-87.495149, 37.531177], [-87.491328, 37.526756], [-87.489619, 37.521815], [-87.489916, 37.516966], [-87.498947, 37.483994], [-87.499533, 37.476806], [-87.497026, 37.460442], [-87.494529, 37.454157], [-87.494686, 37.448885], [-87.492906, 37.442242], [-87.483491, 37.426549], [-87.482611, 37.412813], [-87.483788, 37.410493], [-87.494939, 37.402205], [-87.496616, 37.399977], [-87.499616, 37.383768], [-87.499574, 37.373861], [-87.498668, 37.370653], [-87.49206, 37.360373], [-87.494118, 37.349611], [-87.493869, 37.347308], [-87.485295, 37.335923], [-87.480515, 37.324045], [-87.4727, 37.309976], [-87.46753, 37.281813], [-87.463954, 37.272989], [-87.468086, 37.255001], [-87.47515, 37.241935], [-87.4737, 37.23471], [-87.475294, 37.227756], [-87.471808, 37.217057], [-87.461898, 37.208477], [-87.456874, 37.202873], [-87.454523, 37.191512], [-87.455405, 37.189027], [-87.462933, 37.181426], [-87.462975, 37.177401], [-87.465585, 37.171483], [-87.463963, 37.159134], [-87.466211, 37.149707], [-87.472399, 37.140552], [-87.476591, 37.129393], [-87.480821, 37.122853], [-87.48085, 37.120094], [-87.47761, 37.115449], [-87.477339, 37.114092], [-87.481432, 37.098319], [-87.497918, 37.079809], [-87.498971, 37.077604], [-87.496499, 37.072668], [-87.491923, 37.069575], [-87.49037, 37.066573], [-87.489318, 37.059744], [-87.482017, 37.033011], [-87.466428, 37.012094], [-87.465698, 37.010102], [-87.470029, 36.997707], [-87.473897, 36.992846], [-87.474921, 36.987399], [-87.479369, 36.979658], [-87.47731, 36.970172], [-87.476174, 36.952661], [-87.479159, 36.947947], [-87.486259, 36.940543], [-87.489349, 36.931143], [-87.487037, 36.922295], [-87.480167, 36.917645], [-87.476333, 36.91223], [-87.476655, 36.906154], [-87.472673, 36.896461], [-87.474871, 36.890257], [-87.476883, 36.875869], [-87.487404, 36.860337], [-87.488178, 36.857526], [-87.487741, 36.85484], [-87.484619, 36.851111], [-87.41055, 36.802859], [-87.381281, 36.789451], [-87.246694, 36.716404], [-87.163103, 36.648027], [-87.165108, 36.64667], [-87.163103, 36.648027], [-87.104081, 36.599665], [-87.016947, 36.557033], [-86.963358, 36.538506], [-86.945568, 36.526024], [-86.935746, 36.519934], [-86.931868, 36.519002], [-86.908869, 36.517596], [-86.905717, 36.515868], [-86.896599, 36.508381], [-86.888862, 36.505699], [-86.86423, 36.494433], [-86.861702, 36.491801], [-86.859422, 36.484285], [-86.856887, 36.480502], [-86.811656, 36.4429], [-86.809127, 36.43906], [-86.801067, 36.422355], [-86.794845, 36.418349], [-86.781644, 36.415539], [-86.779197, 36.41422], [-86.777891, 36.411142], [-86.779455, 36.406989], [-86.779167, 36.404141], [-86.771869, 36.39111], [-86.770918, 36.386774], [-86.768419, 36.383578], [-86.766056, 36.377573], [-86.763693, 36.375069], [-86.756382, 36.369526], [-86.732405, 36.357664], [-86.729636, 36.35556], [-86.72746, 36.35201], [-86.726142, 36.344352], [-86.724495, 36.340779], [-86.722609, 36.338924], [-86.714327, 36.333727], [-86.711541, 36.330123], [-86.709433, 36.325097], [-86.705347, 36.309727], [-86.710042, 36.277655], [-86.711988, 36.270836], [-86.728398, 36.237123], [-86.73832, 36.211259], [-86.745157, 36.206132], [-86.751198, 36.196805], [-86.755813, 36.192588], [-86.766448, 36.176614], [-86.781446, 36.170173], [-86.786195, 36.16904]]}}, {"type": "Feature", "properties": {"id": "evv-stlse-henderson-nashville", "company": "St. Louis and Southeastern Railway", "line": "St. Louis and Southeastern: Henderson \u2013 Nashville", "color": "#2A6F7F", "mode": "intercity_rail", "avg_speed_kmh": 40, "geometry_quality": "Traced from OSM ways tagged old_railway_operator=L&N (CSX Henderson Subdivision and the Nashville Terminal Subdivision) through Madisonville, Hopkinsville, Guthrie and Springfield. Traced length 144.0 mi Henderson\u2013Nashville; largest straight-line bridge 2.15 km. This is the surviving alignment, which is the one the EH&N built.", "speed_source": "Estimated. No L&N timetable was consulted.", "segments": [{"start": 1872, "end": 1880, "headway_min": 300, "note": "Operated as the StL&SE Kentucky Division. Still Henderson\u2013Nashville only; the Evansville bridge came in 1885. Leased to the L&N on 1 May 1880. Headway estimated.", "sources": ["Segment-level: StL&SE ownership 1872\u20131880 and the 1 May 1880 L&N lease.", "https://www.westkentuckynrhs.org/history-of-evansville-henderson-nashville/"]}]}, "geometry": {"type": "LineString", "coordinates": [[-87.579375, 37.839013], [-87.577827, 37.837721], [-87.576736, 37.835443], [-87.576755, 37.809381], [-87.574236, 37.797772], [-87.577723, 37.782321], [-87.577452, 37.777508], [-87.558583, 37.699536], [-87.544434, 37.668037], [-87.542537, 37.658718], [-87.538704, 37.650485], [-87.536765, 37.643729], [-87.526285, 37.622116], [-87.526592, 37.619008], [-87.530227, 37.61123], [-87.5313, 37.604533], [-87.532745, 37.600567], [-87.53001, 37.591225], [-87.525559, 37.585732], [-87.524574, 37.582972], [-87.524874, 37.568692], [-87.528132, 37.555548], [-87.528014, 37.553375], [-87.52589, 37.55063], [-87.495149, 37.531177], [-87.491328, 37.526756], [-87.489619, 37.521815], [-87.489916, 37.516966], [-87.498947, 37.483994], [-87.499533, 37.476806], [-87.497026, 37.460442], [-87.494529, 37.454157], [-87.494686, 37.448885], [-87.492906, 37.442242], [-87.483491, 37.426549], [-87.482611, 37.412813], [-87.483788, 37.410493], [-87.494939, 37.402205], [-87.496616, 37.399977], [-87.499616, 37.383768], [-87.499574, 37.373861], [-87.498668, 37.370653], [-87.49206, 37.360373], [-87.494118, 37.349611], [-87.493869, 37.347308], [-87.485295, 37.335923], [-87.480515, 37.324045], [-87.4727, 37.309976], [-87.46753, 37.281813], [-87.463954, 37.272989], [-87.468086, 37.255001], [-87.47515, 37.241935], [-87.4737, 37.23471], [-87.475294, 37.227756], [-87.471808, 37.217057], [-87.461898, 37.208477], [-87.456874, 37.202873], [-87.454523, 37.191512], [-87.455405, 37.189027], [-87.462933, 37.181426], [-87.462975, 37.177401], [-87.465585, 37.171483], [-87.463963, 37.159134], [-87.466211, 37.149707], [-87.472399, 37.140552], [-87.476591, 37.129393], [-87.480821, 37.122853], [-87.48085, 37.120094], [-87.47761, 37.115449], [-87.477339, 37.114092], [-87.481432, 37.098319], [-87.497918, 37.079809], [-87.498971, 37.077604], [-87.496499, 37.072668], [-87.491923, 37.069575], [-87.49037, 37.066573], [-87.489318, 37.059744], [-87.482017, 37.033011], [-87.466428, 37.012094], [-87.465698, 37.010102], [-87.470029, 36.997707], [-87.473897, 36.992846], [-87.474921, 36.987399], [-87.479369, 36.979658], [-87.47731, 36.970172], [-87.476174, 36.952661], [-87.479159, 36.947947], [-87.486259, 36.940543], [-87.489349, 36.931143], [-87.487037, 36.922295], [-87.480167, 36.917645], [-87.476333, 36.91223], [-87.476655, 36.906154], [-87.472673, 36.896461], [-87.474871, 36.890257], [-87.476883, 36.875869], [-87.487404, 36.860337], [-87.488178, 36.857526], [-87.487741, 36.85484], [-87.484619, 36.851111], [-87.41055, 36.802859], [-87.381281, 36.789451], [-87.246694, 36.716404], [-87.163103, 36.648027], [-87.165108, 36.64667], [-87.163103, 36.648027], [-87.104081, 36.599665], [-87.016947, 36.557033], [-86.963358, 36.538506], [-86.945568, 36.526024], [-86.935746, 36.519934], [-86.931868, 36.519002], [-86.908869, 36.517596], [-86.905717, 36.515868], [-86.896599, 36.508381], [-86.888862, 36.505699], [-86.86423, 36.494433], [-86.861702, 36.491801], [-86.859422, 36.484285], [-86.856887, 36.480502], [-86.811656, 36.4429], [-86.809127, 36.43906], [-86.801067, 36.422355], [-86.794845, 36.418349], [-86.781644, 36.415539], [-86.779197, 36.41422], [-86.777891, 36.411142], [-86.779455, 36.406989], [-86.779167, 36.404141], [-86.771869, 36.39111], [-86.770918, 36.386774], [-86.768419, 36.383578], [-86.766056, 36.377573], [-86.763693, 36.375069], [-86.756382, 36.369526], [-86.732405, 36.357664], [-86.729636, 36.35556], [-86.72746, 36.35201], [-86.726142, 36.344352], [-86.724495, 36.340779], [-86.722609, 36.338924], [-86.714327, 36.333727], [-86.711541, 36.330123], [-86.709433, 36.325097], [-86.705347, 36.309727], [-86.710042, 36.277655], [-86.711988, 36.270836], [-86.728398, 36.237123], [-86.73832, 36.211259], [-86.745157, 36.206132], [-86.751198, 36.196805], [-86.755813, 36.192588], [-86.766448, 36.176614], [-86.781446, 36.170173], [-86.786195, 36.16904]]}}, {"type": "Feature", "properties": {"id": "evv-ln-henderson-nashville", "company": "Louisville and Nashville Railroad", "line": "Louisville and Nashville: Henderson \u2013 Nashville", "color": "#7A4419", "mode": "intercity_rail", "avg_speed_kmh": 55, "geometry_quality": "Traced from OSM ways tagged old_railway_operator=L&N (CSX Henderson Subdivision and the Nashville Terminal Subdivision) through Madisonville, Hopkinsville, Guthrie and Springfield. Traced length 144.0 mi Henderson\u2013Nashville; largest straight-line bridge 2.15 km. This is the surviving alignment, which is the one the EH&N built.", "speed_source": "Estimated. No L&N timetable was consulted.", "segments": [{"start": 1880, "end": 1971, "headway_min": 180, "note": "L&N St. Louis Division / Henderson Subdivision, part of the Chicago\u2013Florida \"Dixie Route\" once the Evansville bridge opened in 1885. The last regularly scheduled passenger train reached Evansville on 30 April 1971; Amtrak did not pick up the route. Headway estimated.", "sources": ["Segment-level: 1880 L&N lease and the 30 April 1971 last train.", "https://www.evansvilleliving.com/ln-helped-build-evansville/", "https://historicevansville.com/railroad.php"]}]}, "geometry": {"type": "LineString", "coordinates": [[-87.579375, 37.839013], [-87.577827, 37.837721], [-87.576736, 37.835443], [-87.576755, 37.809381], [-87.574236, 37.797772], [-87.577723, 37.782321], [-87.577452, 37.777508], [-87.558583, 37.699536], [-87.544434, 37.668037], [-87.542537, 37.658718], [-87.538704, 37.650485], [-87.536765, 37.643729], [-87.526285, 37.622116], [-87.526592, 37.619008], [-87.530227, 37.61123], [-87.5313, 37.604533], [-87.532745, 37.600567], [-87.53001, 37.591225], [-87.525559, 37.585732], [-87.524574, 37.582972], [-87.524874, 37.568692], [-87.528132, 37.555548], [-87.528014, 37.553375], [-87.52589, 37.55063], [-87.495149, 37.531177], [-87.491328, 37.526756], [-87.489619, 37.521815], [-87.489916, 37.516966], [-87.498947, 37.483994], [-87.499533, 37.476806], [-87.497026, 37.460442], [-87.494529, 37.454157], [-87.494686, 37.448885], [-87.492906, 37.442242], [-87.483491, 37.426549], [-87.482611, 37.412813], [-87.483788, 37.410493], [-87.494939, 37.402205], [-87.496616, 37.399977], [-87.499616, 37.383768], [-87.499574, 37.373861], [-87.498668, 37.370653], [-87.49206, 37.360373], [-87.494118, 37.349611], [-87.493869, 37.347308], [-87.485295, 37.335923], [-87.480515, 37.324045], [-87.4727, 37.309976], [-87.46753, 37.281813], [-87.463954, 37.272989], [-87.468086, 37.255001], [-87.47515, 37.241935], [-87.4737, 37.23471], [-87.475294, 37.227756], [-87.471808, 37.217057], [-87.461898, 37.208477], [-87.456874, 37.202873], [-87.454523, 37.191512], [-87.455405, 37.189027], [-87.462933, 37.181426], [-87.462975, 37.177401], [-87.465585, 37.171483], [-87.463963, 37.159134], [-87.466211, 37.149707], [-87.472399, 37.140552], [-87.476591, 37.129393], [-87.480821, 37.122853], [-87.48085, 37.120094], [-87.47761, 37.115449], [-87.477339, 37.114092], [-87.481432, 37.098319], [-87.497918, 37.079809], [-87.498971, 37.077604], [-87.496499, 37.072668], [-87.491923, 37.069575], [-87.49037, 37.066573], [-87.489318, 37.059744], [-87.482017, 37.033011], [-87.466428, 37.012094], [-87.465698, 37.010102], [-87.470029, 36.997707], [-87.473897, 36.992846], [-87.474921, 36.987399], [-87.479369, 36.979658], [-87.47731, 36.970172], [-87.476174, 36.952661], [-87.479159, 36.947947], [-87.486259, 36.940543], [-87.489349, 36.931143], [-87.487037, 36.922295], [-87.480167, 36.917645], [-87.476333, 36.91223], [-87.476655, 36.906154], [-87.472673, 36.896461], [-87.474871, 36.890257], [-87.476883, 36.875869], [-87.487404, 36.860337], [-87.488178, 36.857526], [-87.487741, 36.85484], [-87.484619, 36.851111], [-87.41055, 36.802859], [-87.381281, 36.789451], [-87.246694, 36.716404], [-87.163103, 36.648027], [-87.165108, 36.64667], [-87.163103, 36.648027], [-87.104081, 36.599665], [-87.016947, 36.557033], [-86.963358, 36.538506], [-86.945568, 36.526024], [-86.935746, 36.519934], [-86.931868, 36.519002], [-86.908869, 36.517596], [-86.905717, 36.515868], [-86.896599, 36.508381], [-86.888862, 36.505699], [-86.86423, 36.494433], [-86.861702, 36.491801], [-86.859422, 36.484285], [-86.856887, 36.480502], [-86.811656, 36.4429], [-86.809127, 36.43906], [-86.801067, 36.422355], [-86.794845, 36.418349], [-86.781644, 36.415539], [-86.779197, 36.41422], [-86.777891, 36.411142], [-86.779455, 36.406989], [-86.779167, 36.404141], [-86.771869, 36.39111], [-86.770918, 36.386774], [-86.768419, 36.383578], [-86.766056, 36.377573], [-86.763693, 36.375069], [-86.756382, 36.369526], [-86.732405, 36.357664], [-86.729636, 36.35556], [-86.72746, 36.35201], [-86.726142, 36.344352], [-86.724495, 36.340779], [-86.722609, 36.338924], [-86.714327, 36.333727], [-86.711541, 36.330123], [-86.709433, 36.325097], [-86.705347, 36.309727], [-86.710042, 36.277655], [-86.711988, 36.270836], [-86.728398, 36.237123], [-86.73832, 36.211259], [-86.745157, 36.206132], [-86.751198, 36.196805], [-86.755813, 36.192588], [-86.766448, 36.176614], [-86.781446, 36.170173], [-86.786195, 36.16904]]}}, {"type": "Feature", "properties": {"id": "evv-ln-evansville-henderson", "company": "Louisville and Nashville Railroad", "line": "Louisville and Nashville: Evansville \u2013 Henderson", "color": "#7A4419", "mode": "intercity_rail", "avg_speed_kmh": 50, "geometry_quality": "Traced from OSM L&N-tagged ways (CSX Evansville Terminal and Henderson Subdivisions). 12.7 mi, no bridging longer than 0.6 km. Drawn on the modern bridge alignment, which is the 1885 crossing rebuilt in place.", "speed_source": "Estimated; a terminal-approach figure, not a timetable speed.", "segments": [{"start": 1885, "end": 1971, "headway_min": 180, "note": "The Ohio River bridge at Henderson opened in 1885 and put Evansville on the L&N system; before that, southbound passengers ferried across. Drawn separately from the Henderson\u2013Nashville trunk because the trunk carried passengers from 1871 and this link did not exist until 1885. Ended with the last train on 30 April 1971. Headway estimated.", "sources": ["Segment-level: 1885 Ohio River bridge; 1971 end of service.", "https://www.evansvilleliving.com/ln-helped-build-evansville/", "https://historicevansville.com/railroad.php"]}]}, "geometry": {"type": "LineString", "coordinates": [[-87.571645, 37.977643], [-87.574406, 37.977506], [-87.576388, 37.976637], [-87.583525, 37.976695], [-87.586416, 37.975936], [-87.589375, 37.976688], [-87.598755, 37.976754], [-87.600198, 37.97593], [-87.602718, 37.97224], [-87.606176, 37.970142], [-87.610457, 37.959142], [-87.616368, 37.95527], [-87.623435, 37.949215], [-87.627089, 37.94422], [-87.63193, 37.929243], [-87.631395, 37.917898], [-87.630473, 37.911901], [-87.607832, 37.851865], [-87.603453, 37.84826], [-87.579375, 37.839013]]}}, {"type": "Feature", "properties": {"id": "evv-stlse-east-st-louis", "company": "St. Louis and Southeastern Railway", "line": "St. Louis and Southeastern: Evansville \u2013 East St. Louis", "color": "#2A6F7F", "mode": "intercity_rail", "avg_speed_kmh": 40, "geometry_quality": "Traced from OSM ways tagged old_railway_operator=L&N (today\u2019s Evansville Western Railway) for the first 146.2 mi, Evansville to near Lebanon, Illinois. THE LAST 15.5 mi INTO EAST ST. LOUIS IS AN APPROXIMATION: no OSM way in that terminal area carries the L&N tag, so it follows rails in the same corridor that are tagged to other companies. Total traced 161.8 mi. Largest straight-line bridge 2.45 km. Straight-line repair 2026-08-29: 1 ruled segment totalling 10 mi replaced with OpenStreetMap-traced rail geometry (see geometry_repairs for the OSM lines each one followed).", "speed_source": "Estimated for an 1870s prairie main line; no timetable consulted.", "segments": [{"start": 1871, "end": 1880, "headway_min": 300, "note": "Chartered 1869 to link East St. Louis with Evansville and opened in late 1871, reaching Evansville from Mount Vernon, Illinois. Reorganized as the South East and St. Louis Railway and leased to the L&N on 1 May 1880. Headway estimated.", "sources": ["Segment-level: 1869 charter, late-1871 opening, 1 May 1880 L&N lease.", "https://www.american-rails.com/nashville.html", "https://historicevansville.com/railroad.php"]}], "geometry_repairs": [{"date": "2026-08-29", "from": [-89.391637, 38.348268], "to": [-89.550146, 38.422116], "chord_mi": 10.0, "traced_mi": 9.99, "snap_m": [0, 0], "bridged_mi": 0.0, "osm_lines": ["Evansville Western Railway (9.99 mi)"], "method": "Overpass rail graph, 8.0 km corridor, Dijkstra, simplified to 3.0 m"}]}, "geometry": {"type": "LineString", "coordinates": [[-87.571645, 37.977643], [-87.574406, 37.977506], [-87.576388, 37.976637], [-87.583525, 37.976695], [-87.586416, 37.975936], [-87.589375, 37.976688], [-87.598755, 37.976754], [-87.600198, 37.97593], [-87.603093, 37.971944], [-87.607452, 37.97041], [-87.612305, 37.97188], [-87.616173, 37.973862], [-87.631664, 37.986638], [-87.6346, 37.988169], [-87.645318, 37.989388], [-87.655906, 37.9862], [-87.659697, 37.985753], [-87.662182, 37.986518], [-87.667221, 37.990026], [-87.669702, 37.990666], [-87.673355, 37.990008], [-87.692214, 37.981353], [-87.695925, 37.980491], [-87.747268, 37.981493], [-87.775274, 37.982809], [-87.779261, 37.981194], [-87.788366, 37.972423], [-87.827245, 37.952682], [-87.867156, 37.942763], [-87.888912, 37.94081], [-87.900433, 37.938243], [-87.90568, 37.938648], [-87.930792, 37.948001], [-87.941571, 37.953337], [-87.947018, 37.957625], [-87.949786, 37.957989], [-87.95403, 37.957115], [-87.95728, 37.958027], [-87.969234, 37.971853], [-87.979373, 37.980936], [-87.984964, 37.986822], [-87.9874, 37.99487], [-87.9888, 37.997144], [-88.011878, 38.014247], [-88.031963, 38.024752], [-88.084108, 38.060289], [-88.125849, 38.079186], [-88.152755, 38.095738], [-88.156352, 38.095673], [-88.173514, 38.088672], [-88.176973, 38.087995], [-88.191013, 38.08851], [-88.214936, 38.091292], [-88.235685, 38.088995], [-88.294692, 38.08868], [-88.309072, 38.090207], [-88.314378, 38.091307], [-88.32844, 38.096612], [-88.332382, 38.097127], [-88.343462, 38.097121], [-88.349461, 38.100756], [-88.364317, 38.112225], [-88.377123, 38.116858], [-88.394244, 38.120202], [-88.40302, 38.124904], [-88.414634, 38.125325], [-88.428829, 38.123692], [-88.441311, 38.11954], [-88.444531, 38.119124], [-88.460439, 38.120516], [-88.470906, 38.122938], [-88.478649, 38.12358], [-88.486764, 38.125241], [-88.497654, 38.125648], [-88.500394, 38.125289], [-88.514661, 38.119558], [-88.528731, 38.112117], [-88.529692, 38.110537], [-88.530159, 38.102894], [-88.533728, 38.098698], [-88.535511, 38.097651], [-88.542888, 38.097761], [-88.54467, 38.098794], [-88.577717, 38.131285], [-88.62825, 38.165138], [-88.689346, 38.202127], [-88.695897, 38.205105], [-88.709004, 38.216568], [-88.8317, 38.282256], [-88.851387, 38.290366], [-88.867273, 38.298422], [-88.899114, 38.312618], [-88.905525, 38.314744], [-88.91965, 38.321514], [-88.933646, 38.324461], [-88.937712, 38.328756], [-88.939494, 38.32971], [-88.942045, 38.329814], [-88.946111, 38.328739], [-88.962659, 38.327664], [-89.000051, 38.33034], [-89.014856, 38.328816], [-89.025314, 38.329687], [-89.044227, 38.329661], [-89.054043, 38.32695], [-89.082922, 38.324634], [-89.089277, 38.320733], [-89.092514, 38.319663], [-89.105106, 38.320613], [-89.113341, 38.318398], [-89.116394, 38.319244], [-89.123239, 38.324624], [-89.126015, 38.325815], [-89.150745, 38.326189], [-89.192041, 38.330681], [-89.215512, 38.336324], [-89.271015, 38.348134], [-89.295001, 38.351182], [-89.365461, 38.350692], [-89.380612, 38.349018], [-89.386337, 38.347868], [-89.3916372, 38.3482678], [-89.394229, 38.349104], [-89.400075, 38.351773], [-89.4085606, 38.3558551], [-89.4204842, 38.3614186], [-89.42308, 38.362578], [-89.430271, 38.365956], [-89.440776, 38.370766], [-89.4512812, 38.3758894], [-89.5501463, 38.4221161], [-89.607735, 38.441164], [-89.637852, 38.45208], [-89.664414, 38.455481], [-89.726001, 38.468534], [-89.772544, 38.484938], [-89.819743, 38.485495], [-89.930834, 38.499804], [-89.936235, 38.501168], [-89.952717, 38.509329], [-89.97249, 38.497415], [-89.977326, 38.499992], [-89.988586, 38.509191], [-89.995158, 38.511156], [-89.999697, 38.514883], [-90.004681, 38.517351], [-90.051902, 38.54586], [-90.056078, 38.550574], [-90.057726, 38.551614], [-90.065004, 38.552085], [-90.078574, 38.558985], [-90.080445, 38.559455], [-90.084162, 38.559086], [-90.092386, 38.555087], [-90.094958, 38.554792], [-90.096695, 38.555335], [-90.097867, 38.556407], [-90.098277, 38.558046], [-90.095539, 38.562505], [-90.096114, 38.564647], [-90.102652, 38.567882], [-90.12311, 38.590004], [-90.158511, 38.619937]]}}, {"type": "Feature", "properties": {"id": "evv-ln-east-st-louis", "company": "Louisville and Nashville Railroad", "line": "Louisville and Nashville: Evansville \u2013 East St. Louis", "color": "#7A4419", "mode": "intercity_rail", "avg_speed_kmh": 55, "geometry_quality": "Traced from OSM ways tagged old_railway_operator=L&N (today\u2019s Evansville Western Railway) for the first 146.2 mi, Evansville to near Lebanon, Illinois. THE LAST 15.5 mi INTO EAST ST. LOUIS IS AN APPROXIMATION: no OSM way in that terminal area carries the L&N tag, so it follows rails in the same corridor that are tagged to other companies. Total traced 161.8 mi. Largest straight-line bridge 2.45 km. Straight-line repair 2026-08-29: 1 ruled segment totalling 10 mi replaced with OpenStreetMap-traced rail geometry (see geometry_repairs for the OSM lines each one followed).", "speed_source": "Estimated. No L&N timetable was consulted.", "segments": [{"start": 1880, "end": 1971, "headway_min": 240, "note": "L&N St. Louis Division. A St. Louis\u2013Evansville train ran to the end; Amtrak declined it on 1 May 1971 along with the Evansville\u2013Atlanta service. Headway estimated.", "sources": ["Segment-level: 1880 lease; 1971 discontinuance of the St. Louis\u2013Evansville train.", "https://www.chicagorailfan.com/routestl.html", "https://historicevansville.com/railroad.php"]}], "geometry_repairs": [{"date": "2026-08-29", "from": [-89.391637, 38.348268], "to": [-89.550146, 38.422116], "chord_mi": 10.0, "traced_mi": 9.99, "snap_m": [0, 0], "bridged_mi": 0.0, "osm_lines": ["Evansville Western Railway (9.99 mi)"], "method": "Overpass rail graph, 8.0 km corridor, Dijkstra, simplified to 3.0 m"}]}, "geometry": {"type": "LineString", "coordinates": [[-87.571645, 37.977643], [-87.574406, 37.977506], [-87.576388, 37.976637], [-87.583525, 37.976695], [-87.586416, 37.975936], [-87.589375, 37.976688], [-87.598755, 37.976754], [-87.600198, 37.97593], [-87.603093, 37.971944], [-87.607452, 37.97041], [-87.612305, 37.97188], [-87.616173, 37.973862], [-87.631664, 37.986638], [-87.6346, 37.988169], [-87.645318, 37.989388], [-87.655906, 37.9862], [-87.659697, 37.985753], [-87.662182, 37.986518], [-87.667221, 37.990026], [-87.669702, 37.990666], [-87.673355, 37.990008], [-87.692214, 37.981353], [-87.695925, 37.980491], [-87.747268, 37.981493], [-87.775274, 37.982809], [-87.779261, 37.981194], [-87.788366, 37.972423], [-87.827245, 37.952682], [-87.867156, 37.942763], [-87.888912, 37.94081], [-87.900433, 37.938243], [-87.90568, 37.938648], [-87.930792, 37.948001], [-87.941571, 37.953337], [-87.947018, 37.957625], [-87.949786, 37.957989], [-87.95403, 37.957115], [-87.95728, 37.958027], [-87.969234, 37.971853], [-87.979373, 37.980936], [-87.984964, 37.986822], [-87.9874, 37.99487], [-87.9888, 37.997144], [-88.011878, 38.014247], [-88.031963, 38.024752], [-88.084108, 38.060289], [-88.125849, 38.079186], [-88.152755, 38.095738], [-88.156352, 38.095673], [-88.173514, 38.088672], [-88.176973, 38.087995], [-88.191013, 38.08851], [-88.214936, 38.091292], [-88.235685, 38.088995], [-88.294692, 38.08868], [-88.309072, 38.090207], [-88.314378, 38.091307], [-88.32844, 38.096612], [-88.332382, 38.097127], [-88.343462, 38.097121], [-88.349461, 38.100756], [-88.364317, 38.112225], [-88.377123, 38.116858], [-88.394244, 38.120202], [-88.40302, 38.124904], [-88.414634, 38.125325], [-88.428829, 38.123692], [-88.441311, 38.11954], [-88.444531, 38.119124], [-88.460439, 38.120516], [-88.470906, 38.122938], [-88.478649, 38.12358], [-88.486764, 38.125241], [-88.497654, 38.125648], [-88.500394, 38.125289], [-88.514661, 38.119558], [-88.528731, 38.112117], [-88.529692, 38.110537], [-88.530159, 38.102894], [-88.533728, 38.098698], [-88.535511, 38.097651], [-88.542888, 38.097761], [-88.54467, 38.098794], [-88.577717, 38.131285], [-88.62825, 38.165138], [-88.689346, 38.202127], [-88.695897, 38.205105], [-88.709004, 38.216568], [-88.8317, 38.282256], [-88.851387, 38.290366], [-88.867273, 38.298422], [-88.899114, 38.312618], [-88.905525, 38.314744], [-88.91965, 38.321514], [-88.933646, 38.324461], [-88.937712, 38.328756], [-88.939494, 38.32971], [-88.942045, 38.329814], [-88.946111, 38.328739], [-88.962659, 38.327664], [-89.000051, 38.33034], [-89.014856, 38.328816], [-89.025314, 38.329687], [-89.044227, 38.329661], [-89.054043, 38.32695], [-89.082922, 38.324634], [-89.089277, 38.320733], [-89.092514, 38.319663], [-89.105106, 38.320613], [-89.113341, 38.318398], [-89.116394, 38.319244], [-89.123239, 38.324624], [-89.126015, 38.325815], [-89.150745, 38.326189], [-89.192041, 38.330681], [-89.215512, 38.336324], [-89.271015, 38.348134], [-89.295001, 38.351182], [-89.365461, 38.350692], [-89.380612, 38.349018], [-89.386337, 38.347868], [-89.3916372, 38.3482678], [-89.394229, 38.349104], [-89.400075, 38.351773], [-89.4085606, 38.3558551], [-89.4204842, 38.3614186], [-89.42308, 38.362578], [-89.430271, 38.365956], [-89.440776, 38.370766], [-89.4512812, 38.3758894], [-89.5501463, 38.4221161], [-89.607735, 38.441164], [-89.637852, 38.45208], [-89.664414, 38.455481], [-89.726001, 38.468534], [-89.772544, 38.484938], [-89.819743, 38.485495], [-89.930834, 38.499804], [-89.936235, 38.501168], [-89.952717, 38.509329], [-89.97249, 38.497415], [-89.977326, 38.499992], [-89.988586, 38.509191], [-89.995158, 38.511156], [-89.999697, 38.514883], [-90.004681, 38.517351], [-90.051902, 38.54586], [-90.056078, 38.550574], [-90.057726, 38.551614], [-90.065004, 38.552085], [-90.078574, 38.558985], [-90.080445, 38.559455], [-90.084162, 38.559086], [-90.092386, 38.555087], [-90.094958, 38.554792], [-90.096695, 38.555335], [-90.097867, 38.556407], [-90.098277, 38.558046], [-90.095539, 38.562505], [-90.096114, 38.564647], [-90.102652, 38.567882], [-90.12311, 38.590004], [-90.158511, 38.619937]]}}, {"type": "Feature", "properties": {"id": "evv-lestl-evansville-huntingburg", "company": "Louisville, Evansville and St. Louis Railroad", "line": "Louisville, Evansville and St. Louis: Evansville \u2013 Huntingburg", "color": "#9B6A9E", "mode": "intercity_rail", "avg_speed_kmh": 40, "geometry_quality": "Traced from OSM ways tagged old_railway_operator=Southern and named \"Evansville Branch\" \u2014 a single connected chain, 47.4 mi Evansville to Huntingburg, largest straight-line bridge 1.19 km.", "speed_source": "Estimated for an 1880s Indiana line; no timetable consulted.", "segments": [{"start": 1882, "end": 1901, "headway_min": 300, "note": "The \"Air Line\" reached Evansville as part of the New Albany\u2013Mount Vernon, Illinois main line opened in 1882. Consolidated as the Louisville, Evansville and St. Louis Consolidated Railway in 1889, into receivership 1894, and into the Southern Railway on 1 January 1901. Headway estimated.", "sources": ["Segment-level: 1882 opening, 1889 consolidation, 1 January 1901 transfer to the Southern.", "https://www.duboiscountyherald.com/spencer_county_news/news/when-the-railroad-brought-together-southern-indiana/article_ff785b6b-a741-5d75-af83-72b1c8ad0d96.html"]}]}, "geometry": {"type": "LineString", "coordinates": [[-87.561153, 37.977672], [-87.546854, 37.978245], [-87.542524, 37.980049], [-87.537162, 37.980349], [-87.532731, 37.982392], [-87.524272, 37.983401], [-87.520562, 37.985684], [-87.461682, 37.997277], [-87.409253, 38.025636], [-87.400665, 38.027276], [-87.389405, 38.033539], [-87.372178, 38.039759], [-87.342313, 38.045905], [-87.309433, 38.043059], [-87.299783, 38.044173], [-87.266753, 38.045844], [-87.259478, 38.045279], [-87.256269, 38.046097], [-87.249397, 38.050532], [-87.24557, 38.051744], [-87.192009, 38.055679], [-87.131142, 38.079014], [-87.105992, 38.084457], [-87.085076, 38.099169], [-87.082248, 38.100274], [-87.042462, 38.101726], [-87.033463, 38.103578], [-87.008282, 38.106812], [-87.004409, 38.108129], [-87.002384, 38.110293], [-87.001332, 38.115873], [-86.983411, 38.147527], [-86.982503, 38.150788], [-86.982249, 38.157018], [-86.980824, 38.159133], [-86.971463, 38.166731], [-86.968228, 38.170842], [-86.967686, 38.176575], [-86.969752, 38.180599], [-86.970156, 38.182976], [-86.969709, 38.191307], [-86.959553, 38.205956], [-86.959236, 38.208128], [-86.959946, 38.211414], [-86.955422, 38.217783], [-86.953708, 38.228114], [-86.945316, 38.239572], [-86.936485, 38.247253], [-86.932773, 38.252525], [-86.930474, 38.281007], [-86.932124, 38.288017], [-86.93373, 38.289821], [-86.948402, 38.29782], [-86.95075, 38.298572]]}}, {"type": "Feature", "properties": {"id": "evv-sou-evansville-huntingburg", "company": "Southern Railway", "line": "Southern Railway: Evansville \u2013 Huntingburg", "color": "#006747", "mode": "intercity_rail", "avg_speed_kmh": 45, "geometry_quality": "Traced from OSM ways tagged old_railway_operator=Southern and named \"Evansville Branch\" \u2014 a single connected chain, 47.4 mi Evansville to Huntingburg, largest straight-line bridge 1.19 km.", "speed_source": "Estimated; no Southern timetable consulted.", "segments": [{"start": 1901, "end": 1939, "headway_min": 300, "note": "Southern Railway St. Louis Division. Under the Southern this became a branch off the Princeton main line rather than the through route. Passenger service on the Evansville branch ended in April 1939. Headway estimated.", "sources": ["Segment-level: Southern takeover 1901 and the April 1939 end of Evansville branch passenger service.", "https://www.duboiscountyherald.com/spencer_county_news/news/when-the-railroad-brought-together-southern-indiana/article_ff785b6b-a741-5d75-af83-72b1c8ad0d96.html"]}]}, "geometry": {"type": "LineString", "coordinates": [[-87.561153, 37.977672], [-87.546854, 37.978245], [-87.542524, 37.980049], [-87.537162, 37.980349], [-87.532731, 37.982392], [-87.524272, 37.983401], [-87.520562, 37.985684], [-87.461682, 37.997277], [-87.409253, 38.025636], [-87.400665, 38.027276], [-87.389405, 38.033539], [-87.372178, 38.039759], [-87.342313, 38.045905], [-87.309433, 38.043059], [-87.299783, 38.044173], [-87.266753, 38.045844], [-87.259478, 38.045279], [-87.256269, 38.046097], [-87.249397, 38.050532], [-87.24557, 38.051744], [-87.192009, 38.055679], [-87.131142, 38.079014], [-87.105992, 38.084457], [-87.085076, 38.099169], [-87.082248, 38.100274], [-87.042462, 38.101726], [-87.033463, 38.103578], [-87.008282, 38.106812], [-87.004409, 38.108129], [-87.002384, 38.110293], [-87.001332, 38.115873], [-86.983411, 38.147527], [-86.982503, 38.150788], [-86.982249, 38.157018], [-86.980824, 38.159133], [-86.971463, 38.166731], [-86.968228, 38.170842], [-86.967686, 38.176575], [-86.969752, 38.180599], [-86.970156, 38.182976], [-86.969709, 38.191307], [-86.959553, 38.205956], [-86.959236, 38.208128], [-86.959946, 38.211414], [-86.955422, 38.217783], [-86.953708, 38.228114], [-86.945316, 38.239572], [-86.936485, 38.247253], [-86.932773, 38.252525], [-86.930474, 38.281007], [-86.932124, 38.288017], [-86.93373, 38.289821], [-86.948402, 38.29782], [-86.95075, 38.298572]]}}, {"type": "Feature", "properties": {"id": "evv-lestl-huntingburg-new-albany", "company": "Louisville, Evansville and St. Louis Railroad", "line": "Louisville, Evansville and St. Louis: Huntingburg \u2013 New Albany", "color": "#9B6A9E", "mode": "intercity_rail", "avg_speed_kmh": 40, "geometry_quality": "Traced from OSM ways tagged old_railway_operator=Southern (\"Southern-East District\"), 68.6 mi Huntingburg to New Albany, largest straight-line bridge 1.31 km. Stops at New Albany: the Ohio River crossing into Louisville over the K&I bridge is NOT drawn, so the line is about 4 mi short of Louisville Union Station.", "speed_source": "Estimated; no timetable consulted.", "segments": [{"start": 1882, "end": 1901, "headway_min": 300, "note": "Eastern half of the \"Air Line\" main, New Albany to Huntingburg, opened 1882. Trains ran through to Louisville over the Ohio River bridge at New Albany. Headway estimated.", "sources": ["Segment-level: 1882 opening of the New Albany\u2013Mount Vernon main line.", "https://www.loc.gov/item/98688702/"]}]}, "geometry": {"type": "LineString", "coordinates": [[-86.953761, 38.299665], [-86.950323, 38.298507], [-86.938179, 38.297532], [-86.899345, 38.299607], [-86.892281, 38.299003], [-86.876646, 38.302437], [-86.861759, 38.300688], [-86.856631, 38.30269], [-86.851595, 38.302756], [-86.84042, 38.306903], [-86.832999, 38.308339], [-86.829006, 38.307772], [-86.812564, 38.301219], [-86.810277, 38.300774], [-86.788825, 38.303742], [-86.780677, 38.305865], [-86.772097, 38.306179], [-86.762896, 38.308335], [-86.754731, 38.308953], [-86.748513, 38.307345], [-86.741769, 38.303522], [-86.735096, 38.302094], [-86.729762, 38.303854], [-86.72561, 38.309039], [-86.715099, 38.318415], [-86.710506, 38.320408], [-86.708649, 38.320204], [-86.69691, 38.316057], [-86.694659, 38.315829], [-86.687462, 38.319162], [-86.682546, 38.323175], [-86.677384, 38.32553], [-86.672139, 38.32542], [-86.667334, 38.326037], [-86.661728, 38.324499], [-86.652792, 38.326852], [-86.648414, 38.326272], [-86.639802, 38.327639], [-86.634644, 38.326281], [-86.627316, 38.325847], [-86.620049, 38.326825], [-86.618209, 38.325823], [-86.614584, 38.32186], [-86.612611, 38.320885], [-86.606469, 38.319293], [-86.591426, 38.317657], [-86.587463, 38.318476], [-86.583763, 38.320287], [-86.581722, 38.322258], [-86.577801, 38.32816], [-86.566853, 38.33524], [-86.563664, 38.335201], [-86.558427, 38.332924], [-86.5541, 38.332501], [-86.551906, 38.332796], [-86.548344, 38.334756], [-86.546063, 38.334737], [-86.544328, 38.333894], [-86.539753, 38.3293], [-86.536885, 38.328574], [-86.534727, 38.329096], [-86.53095, 38.33245], [-86.527672, 38.334058], [-86.51663, 38.335231], [-86.513202, 38.337384], [-86.508599, 38.338854], [-86.503069, 38.33834], [-86.499636, 38.336518], [-86.494286, 38.336209], [-86.488066, 38.333305], [-86.484072, 38.32987], [-86.477116, 38.327812], [-86.472812, 38.328839], [-86.470178, 38.330693], [-86.466391, 38.331503], [-86.462467, 38.333616], [-86.456992, 38.334286], [-86.45231, 38.336428], [-86.447947, 38.340169], [-86.442828, 38.340709], [-86.43619, 38.344406], [-86.429368, 38.34661], [-86.425723, 38.34671], [-86.414274, 38.344044], [-86.407967, 38.34392], [-86.404236, 38.344665], [-86.400461, 38.346446], [-86.394308, 38.353981], [-86.389959, 38.356116], [-86.385954, 38.359457], [-86.378557, 38.362208], [-86.374673, 38.362488], [-86.367754, 38.364801], [-86.363094, 38.364288], [-86.347021, 38.36469], [-86.344254, 38.36595], [-86.340535, 38.369293], [-86.337024, 38.37019], [-86.330396, 38.368996], [-86.3096, 38.354056], [-86.305383, 38.353355], [-86.300506, 38.350706], [-86.291575, 38.348899], [-86.271504, 38.346578], [-86.246856, 38.336258], [-86.24337, 38.336271], [-86.228552, 38.339075], [-86.226183, 38.33891], [-86.210189, 38.331911], [-86.204712, 38.330246], [-86.196886, 38.325106], [-86.19444, 38.324265], [-86.181771, 38.322865], [-86.154515, 38.322372], [-86.148608, 38.321416], [-86.097984, 38.302437], [-86.071252, 38.287895], [-86.067342, 38.287212], [-86.060319, 38.287684], [-86.05006, 38.284117], [-86.040506, 38.283085], [-86.029007, 38.280905], [-86.020592, 38.277491], [-86.017007, 38.274449], [-86.015491, 38.273874], [-86.012538, 38.27453], [-86.006431, 38.280405], [-86.00039, 38.28337], [-85.997413, 38.290132], [-85.995337, 38.292407], [-85.991941, 38.294203], [-85.98796, 38.295034], [-85.982418, 38.293912], [-85.967587, 38.29336], [-85.958355, 38.295911], [-85.955034, 38.295963], [-85.948849, 38.294247], [-85.933018, 38.287629], [-85.929906, 38.287021], [-85.926893, 38.287216], [-85.916396, 38.29009], [-85.900608, 38.286273], [-85.888473, 38.287486], [-85.883362, 38.287408], [-85.878209, 38.286079], [-85.873513, 38.283779], [-85.842282, 38.273429], [-85.837198, 38.273769], [-85.8313, 38.278532], [-85.825671, 38.281353]]}}, {"type": "Feature", "properties": {"id": "evv-sou-huntingburg-new-albany", "company": "Southern Railway", "line": "Southern Railway: Huntingburg \u2013 New Albany", "color": "#006747", "mode": "intercity_rail", "avg_speed_kmh": 50, "geometry_quality": "Traced from OSM ways tagged old_railway_operator=Southern (\"Southern-East District\"), 68.6 mi Huntingburg to New Albany, largest straight-line bridge 1.31 km. Stops at New Albany: the Ohio River crossing into Louisville over the K&I bridge is NOT drawn, so the line is about 4 mi short of Louisville Union Station.", "speed_source": "Estimated; no Southern timetable consulted.", "segments": [{"start": 1901, "end": 1953, "headway_min": 300, "note": "Southern Railway St. Louis Division main line. Southern ended the Princeton\u2013St. Louis through passenger run in June 1953; the Louisville end is drawn to the same year. Headway estimated.", "sources": ["NOT SOURCED AT SEGMENT LEVEL: June 1953 is documented for the Princeton\u2013St. Louis run; whether the Louisville\u2013Princeton portion ended in the same month was not checked.", "https://www.duboiscountyherald.com/spencer_county_news/news/when-the-railroad-brought-together-southern-indiana/article_ff785b6b-a741-5d75-af83-72b1c8ad0d96.html"]}]}, "geometry": {"type": "LineString", "coordinates": [[-86.953761, 38.299665], [-86.950323, 38.298507], [-86.938179, 38.297532], [-86.899345, 38.299607], [-86.892281, 38.299003], [-86.876646, 38.302437], [-86.861759, 38.300688], [-86.856631, 38.30269], [-86.851595, 38.302756], [-86.84042, 38.306903], [-86.832999, 38.308339], [-86.829006, 38.307772], [-86.812564, 38.301219], [-86.810277, 38.300774], [-86.788825, 38.303742], [-86.780677, 38.305865], [-86.772097, 38.306179], [-86.762896, 38.308335], [-86.754731, 38.308953], [-86.748513, 38.307345], [-86.741769, 38.303522], [-86.735096, 38.302094], [-86.729762, 38.303854], [-86.72561, 38.309039], [-86.715099, 38.318415], [-86.710506, 38.320408], [-86.708649, 38.320204], [-86.69691, 38.316057], [-86.694659, 38.315829], [-86.687462, 38.319162], [-86.682546, 38.323175], [-86.677384, 38.32553], [-86.672139, 38.32542], [-86.667334, 38.326037], [-86.661728, 38.324499], [-86.652792, 38.326852], [-86.648414, 38.326272], [-86.639802, 38.327639], [-86.634644, 38.326281], [-86.627316, 38.325847], [-86.620049, 38.326825], [-86.618209, 38.325823], [-86.614584, 38.32186], [-86.612611, 38.320885], [-86.606469, 38.319293], [-86.591426, 38.317657], [-86.587463, 38.318476], [-86.583763, 38.320287], [-86.581722, 38.322258], [-86.577801, 38.32816], [-86.566853, 38.33524], [-86.563664, 38.335201], [-86.558427, 38.332924], [-86.5541, 38.332501], [-86.551906, 38.332796], [-86.548344, 38.334756], [-86.546063, 38.334737], [-86.544328, 38.333894], [-86.539753, 38.3293], [-86.536885, 38.328574], [-86.534727, 38.329096], [-86.53095, 38.33245], [-86.527672, 38.334058], [-86.51663, 38.335231], [-86.513202, 38.337384], [-86.508599, 38.338854], [-86.503069, 38.33834], [-86.499636, 38.336518], [-86.494286, 38.336209], [-86.488066, 38.333305], [-86.484072, 38.32987], [-86.477116, 38.327812], [-86.472812, 38.328839], [-86.470178, 38.330693], [-86.466391, 38.331503], [-86.462467, 38.333616], [-86.456992, 38.334286], [-86.45231, 38.336428], [-86.447947, 38.340169], [-86.442828, 38.340709], [-86.43619, 38.344406], [-86.429368, 38.34661], [-86.425723, 38.34671], [-86.414274, 38.344044], [-86.407967, 38.34392], [-86.404236, 38.344665], [-86.400461, 38.346446], [-86.394308, 38.353981], [-86.389959, 38.356116], [-86.385954, 38.359457], [-86.378557, 38.362208], [-86.374673, 38.362488], [-86.367754, 38.364801], [-86.363094, 38.364288], [-86.347021, 38.36469], [-86.344254, 38.36595], [-86.340535, 38.369293], [-86.337024, 38.37019], [-86.330396, 38.368996], [-86.3096, 38.354056], [-86.305383, 38.353355], [-86.300506, 38.350706], [-86.291575, 38.348899], [-86.271504, 38.346578], [-86.246856, 38.336258], [-86.24337, 38.336271], [-86.228552, 38.339075], [-86.226183, 38.33891], [-86.210189, 38.331911], [-86.204712, 38.330246], [-86.196886, 38.325106], [-86.19444, 38.324265], [-86.181771, 38.322865], [-86.154515, 38.322372], [-86.148608, 38.321416], [-86.097984, 38.302437], [-86.071252, 38.287895], [-86.067342, 38.287212], [-86.060319, 38.287684], [-86.05006, 38.284117], [-86.040506, 38.283085], [-86.029007, 38.280905], [-86.020592, 38.277491], [-86.017007, 38.274449], [-86.015491, 38.273874], [-86.012538, 38.27453], [-86.006431, 38.280405], [-86.00039, 38.28337], [-85.997413, 38.290132], [-85.995337, 38.292407], [-85.991941, 38.294203], [-85.98796, 38.295034], [-85.982418, 38.293912], [-85.967587, 38.29336], [-85.958355, 38.295911], [-85.955034, 38.295963], [-85.948849, 38.294247], [-85.933018, 38.287629], [-85.929906, 38.287021], [-85.926893, 38.287216], [-85.916396, 38.29009], [-85.900608, 38.286273], [-85.888473, 38.287486], [-85.883362, 38.287408], [-85.878209, 38.286079], [-85.873513, 38.283779], [-85.842282, 38.273429], [-85.837198, 38.273769], [-85.8313, 38.278532], [-85.825671, 38.281353]]}}, {"type": "Feature", "properties": {"id": "evv-lestl-huntingburg-mount-carmel", "company": "Louisville, Evansville and St. Louis Railroad", "line": "Louisville, Evansville and St. Louis: Huntingburg \u2013 Mount Carmel", "color": "#9B6A9E", "mode": "intercity_rail", "avg_speed_kmh": 40, "geometry_quality": "Traced from OSM Southern-tagged ways (\"Southern West District\"), 48.3 mi Huntingburg to Mount Carmel, Illinois via Princeton, largest straight-line bridge 2.26 km. Drawn only as far as Mount Carmel; the continuation across Illinois to Mount Vernon and St. Louis is not traced.", "speed_source": "Estimated; no timetable consulted.", "segments": [{"start": 1882, "end": 1901, "headway_min": 360, "note": "The western arm of the Air Line, running Huntingburg\u2013Princeton\u2013Mount Carmel and on toward Mount Vernon, Illinois. The Princeton\u2013Albion, Illinois portion dates from 1872 under the St. Louis Air Line Railway; 1882 is used here as the year the through main opened. Headway estimated.", "sources": ["Segment-level: 1872 Princeton\u2013Albion opening and the 1882 through main line.", "https://southern.railfan.net/tree/guiderr_updated.htm"]}]}, "geometry": {"type": "LineString", "coordinates": [[-86.953761, 38.299665], [-86.95842, 38.303377], [-86.989493, 38.314125], [-87.018638, 38.325677], [-87.039821, 38.330317], [-87.043205, 38.332499], [-87.049022, 38.338887], [-87.055628, 38.343712], [-87.079867, 38.345988], [-87.106367, 38.357095], [-87.110663, 38.358367], [-87.139944, 38.360715], [-87.14194, 38.361888], [-87.147593, 38.368247], [-87.153612, 38.372448], [-87.174523, 38.378011], [-87.192222, 38.378931], [-87.210888, 38.376259], [-87.234166, 38.37867], [-87.24321, 38.378826], [-87.247543, 38.38019], [-87.251031, 38.380055], [-87.253446, 38.378995], [-87.269397, 38.367848], [-87.284459, 38.354613], [-87.287334, 38.352971], [-87.31136, 38.343112], [-87.322572, 38.339899], [-87.342381, 38.339372], [-87.347155, 38.338316], [-87.361866, 38.333271], [-87.372356, 38.333195], [-87.388265, 38.337115], [-87.406014, 38.33395], [-87.429262, 38.334237], [-87.434648, 38.335238], [-87.442242, 38.335545], [-87.47353, 38.33055], [-87.48019, 38.328663], [-87.486047, 38.328682], [-87.495017, 38.330164], [-87.509602, 38.330413], [-87.518894, 38.331626], [-87.521868, 38.333048], [-87.526641, 38.338101], [-87.529114, 38.339099], [-87.548818, 38.342061], [-87.567506, 38.342289], [-87.569172, 38.343636], [-87.570606, 38.351769], [-87.571913, 38.353909], [-87.586372, 38.362386], [-87.60297, 38.362831], [-87.611807, 38.360207], [-87.617697, 38.360532], [-87.745711, 38.396269], [-87.749295, 38.397849], [-87.757496, 38.403511], [-87.761086, 38.404247]]}}, {"type": "Feature", "properties": {"id": "evv-sou-huntingburg-mount-carmel", "company": "Southern Railway", "line": "Southern Railway: Huntingburg \u2013 Mount Carmel", "color": "#006747", "mode": "intercity_rail", "avg_speed_kmh": 50, "geometry_quality": "Traced from OSM Southern-tagged ways (\"Southern West District\"), 48.3 mi Huntingburg to Mount Carmel, Illinois via Princeton, largest straight-line bridge 2.26 km. Drawn only as far as Mount Carmel; the continuation across Illinois to Mount Vernon and St. Louis is not traced.", "speed_source": "Estimated; no Southern timetable consulted.", "segments": [{"start": 1901, "end": 1953, "headway_min": 300, "note": "Southern Railway St. Louis Division main line west of Huntingburg. Southern ended the Princeton\u2013St. Louis passenger run in June 1953. Headway estimated.", "sources": ["Segment-level: June 1953 end of the Princeton\u2013St. Louis passenger service.", "https://www.duboiscountyherald.com/spencer_county_news/news/when-the-railroad-brought-together-southern-indiana/article_ff785b6b-a741-5d75-af83-72b1c8ad0d96.html"]}]}, "geometry": {"type": "LineString", "coordinates": [[-86.953761, 38.299665], [-86.95842, 38.303377], [-86.989493, 38.314125], [-87.018638, 38.325677], [-87.039821, 38.330317], [-87.043205, 38.332499], [-87.049022, 38.338887], [-87.055628, 38.343712], [-87.079867, 38.345988], [-87.106367, 38.357095], [-87.110663, 38.358367], [-87.139944, 38.360715], [-87.14194, 38.361888], [-87.147593, 38.368247], [-87.153612, 38.372448], [-87.174523, 38.378011], [-87.192222, 38.378931], [-87.210888, 38.376259], [-87.234166, 38.37867], [-87.24321, 38.378826], [-87.247543, 38.38019], [-87.251031, 38.380055], [-87.253446, 38.378995], [-87.269397, 38.367848], [-87.284459, 38.354613], [-87.287334, 38.352971], [-87.31136, 38.343112], [-87.322572, 38.339899], [-87.342381, 38.339372], [-87.347155, 38.338316], [-87.361866, 38.333271], [-87.372356, 38.333195], [-87.388265, 38.337115], [-87.406014, 38.33395], [-87.429262, 38.334237], [-87.434648, 38.335238], [-87.442242, 38.335545], [-87.47353, 38.33055], [-87.48019, 38.328663], [-87.486047, 38.328682], [-87.495017, 38.330164], [-87.509602, 38.330413], [-87.518894, 38.331626], [-87.521868, 38.333048], [-87.526641, 38.338101], [-87.529114, 38.339099], [-87.548818, 38.342061], [-87.567506, 38.342289], [-87.569172, 38.343636], [-87.570606, 38.351769], [-87.571913, 38.353909], [-87.586372, 38.362386], [-87.60297, 38.362831], [-87.611807, 38.360207], [-87.617697, 38.360532], [-87.745711, 38.396269], [-87.749295, 38.397849], [-87.757496, 38.403511], [-87.761086, 38.404247]]}}, {"type": "Feature", "properties": {"id": "evv-ei-evansville-terre-haute", "company": "Evansville and Indianapolis Railroad", "line": "Evansville and Indianapolis: Evansville \u2013 Terre Haute", "color": "#3F6BA0", "mode": "intercity_rail", "avg_speed_kmh": 40, "geometry_quality": "Traced from OSM ways tagged old_railway_operator=NYC (today\u2019s Indiana Southern Railroad and its abandoned sections) through Oakland City, Washington, Elnora and Worthington. Traced length 133.7 mi against the ICC valuation\u2019s 133.77 mi of main line. WARNING: a 22.8 km (14.2 mi) leg between Worthington and Jasonville is a STRAIGHT LINE \u2014 that stretch of grade is not mapped in OSM. Remaining bridges are 4.4 km or less. The Evansville end uses the C&EI alignment the E&I actually entered town on under trackage rights. Straight-line repair 2026-08-29: 1 ruled segment totalling 11 mi replaced with OpenStreetMap-traced rail geometry (see geometry_repairs for the OSM lines each one followed).", "speed_source": "Estimated; no timetable consulted.", "segments": [{"start": 1885, "end": 1911, "headway_min": 300, "note": "Incorporated 7 November 1885 from three predecessors, about 60 mi of it laid on the abandoned Wabash and Erie Canal towpath. Entered Evansville over roughly 4 mi of C&EI track under trackage rights. Headway estimated.", "sources": ["Segment-level: 1885 incorporation, mileage and the C&EI trackage rights, from the ICC valuation.", "https://en.wikipedia.org/wiki/Wikipedia:WikiProject_Trains/ICC_valuations/Evansville_and_Indianapolis_Railroad"]}, {"start": 1911, "end": 1920, "headway_min": 300, "note": "Controlled by the C&EI, which owned the entire capital stock and operated it as agent from 1911. Sold to the Big Four in 1920 and renamed the Evansville, Indianapolis and Terre Haute. Headway estimated.", "sources": ["Segment-level: C&EI control from 1911; 1920 sale to the Big Four.", "https://en.wikipedia.org/wiki/Wikipedia:WikiProject_Trains/ICC_valuations/Evansville_and_Indianapolis_Railroad", "http://industrialscenery.blogspot.com/2017/07/evansville-indianapolis-terre-haute.html"]}], "geometry_repairs": [{"date": "2026-08-29", "from": [-87.538855, 38.018213], "to": [-87.442078, 38.165157], "chord_mi": 11.41, "traced_mi": 11.86, "snap_m": [0, 0], "bridged_mi": 0.0, "osm_lines": ["Indiana Southern Railroad (11.86 mi)"], "method": "Overpass rail graph, 8.0 km corridor, Dijkstra, simplified to 3.0 m"}]}, "geometry": {"type": "LineString", "coordinates": [[-87.589377, 37.97767], [-87.589218, 37.979962], [-87.590827, 37.985098], [-87.593134, 37.989249], [-87.587517, 38.003309], [-87.586985, 38.00617], [-87.538855, 38.018213], [-87.53208, 38.028519], [-87.53159, 38.029135], [-87.528179, 38.034322], [-87.527855, 38.034769], [-87.527401, 38.035208], [-87.526858, 38.035583], [-87.526122, 38.03594], [-87.525406, 38.036167], [-87.5248077, 38.0362857], [-87.5239, 38.036351], [-87.51938, 38.036294], [-87.518556, 38.036396], [-87.51804, 38.036521], [-87.517265, 38.036802], [-87.516583, 38.037172], [-87.515907, 38.037701], [-87.515381, 38.03831], [-87.515024, 38.038939], [-87.514777, 38.03982], [-87.5144916, 38.0460015], [-87.514411, 38.0465893], [-87.5141559, 38.0474235], [-87.5136678, 38.0483352], [-87.51313, 38.0490152], [-87.5102552, 38.0517222], [-87.5099453, 38.0520677], [-87.5095355, 38.0527191], [-87.5093072, 38.0533735], [-87.5092279, 38.0540001], [-87.5092432, 38.0543401], [-87.5093406, 38.054841], [-87.5094925, 38.0552675], [-87.5097839, 38.0557902], [-87.5110257, 38.0573991], [-87.5112692, 38.0578865], [-87.5113944, 38.0582776], [-87.5114698, 38.0588251], [-87.511444, 38.0593087], [-87.5112883, 38.0599232], [-87.5110667, 38.060388], [-87.4420778, 38.165157], [-87.378521, 38.276405], [-87.372185, 38.292607], [-87.339982, 38.345868], [-87.325339, 38.369834], [-87.300099, 38.404315], [-87.297871, 38.411078], [-87.298488, 38.417579], [-87.301051, 38.422682], [-87.307493, 38.431293], [-87.307918, 38.434985], [-87.305535, 38.438299], [-87.295697, 38.444473], [-87.286084, 38.456512], [-87.283823, 38.466356], [-87.285568, 38.482504], [-87.28524, 38.487758], [-87.283127, 38.491311], [-87.277751, 38.508606], [-87.276702, 38.509393], [-87.273391, 38.509828], [-87.269014, 38.512305], [-87.265303, 38.513309], [-87.262035, 38.51998], [-87.255645, 38.52558], [-87.253565, 38.526261], [-87.247003, 38.526167], [-87.243795, 38.527326], [-87.242319, 38.531033], [-87.242049, 38.535406], [-87.239608, 38.538552], [-87.234445, 38.540917], [-87.232522, 38.540894], [-87.230569, 38.540367], [-87.228734, 38.538284], [-87.226607, 38.537526], [-87.224656, 38.538263], [-87.223489, 38.540106], [-87.224338, 38.544171], [-87.222149, 38.55002], [-87.217466, 38.557089], [-87.218288, 38.56616], [-87.221633, 38.569244], [-87.231958, 38.573923], [-87.23454, 38.576528], [-87.235348, 38.579201], [-87.239438, 38.585717], [-87.242803, 38.587484], [-87.2464, 38.591034], [-87.246293, 38.592145], [-87.242746, 38.596683], [-87.240538, 38.597846], [-87.235234, 38.59878], [-87.231541, 38.612061], [-87.232401, 38.61459], [-87.237672, 38.618165], [-87.239892, 38.621077], [-87.241348, 38.626468], [-87.239947, 38.628402], [-87.236097, 38.63129], [-87.234236, 38.635443], [-87.231474, 38.637775], [-87.228086, 38.647654], [-87.224178, 38.65604], [-87.216259, 38.664021], [-87.210904, 38.680291], [-87.204621, 38.694244], [-87.197887, 38.702531], [-87.196143, 38.709529], [-87.196593, 38.726489], [-87.195735, 38.730239], [-87.196667, 38.733664], [-87.19534, 38.745153], [-87.175766, 38.7825], [-87.156163, 38.804139], [-87.150614, 38.814449], [-87.144169, 38.829068], [-87.124915, 38.842266], [-87.120912, 38.849144], [-87.111636, 38.857299], [-87.110138, 38.860407], [-87.096551, 38.867749], [-87.088092, 38.878464], [-87.071934, 38.887524], [-87.068592, 38.890295], [-87.061885, 38.899567], [-87.059149, 38.904768], [-87.055347, 38.907708], [-87.05065, 38.909554], [-87.048761, 38.911401], [-87.049729, 38.914491], [-87.049439, 38.915772], [-87.042465, 38.919219], [-87.038275, 38.922515], [-87.034779, 38.923125], [-87.027597, 38.926539], [-87.022118, 38.927786], [-87.015968, 38.926976], [-87.01035, 38.927259], [-87.003449, 38.930612], [-86.998243, 38.935471], [-86.995507, 38.938899], [-86.994805, 38.942591], [-86.993182, 38.944888], [-86.992649, 38.948918], [-86.983496, 38.959859], [-86.979113, 38.971786], [-86.972336, 38.979993], [-86.970601, 38.987985], [-86.971662, 39.013654], [-86.970727, 39.016165], [-86.973914, 39.021787], [-86.972849, 39.023725], [-86.968498, 39.027921], [-86.96839, 39.030234], [-86.969694, 39.032748], [-86.971325, 39.033532], [-86.974136, 39.033586], [-86.97751, 39.032136], [-86.97935, 39.031965], [-86.985863, 39.032922], [-86.989655, 39.036845], [-86.990055, 39.038275], [-86.988255, 39.05895], [-87.000317, 39.077183], [-86.999894, 39.080954], [-86.990463, 39.101752], [-87.115105, 39.282479], [-87.116272, 39.293657], [-87.121961, 39.312181], [-87.127994, 39.358184], [-87.129962, 39.361952], [-87.159105, 39.380222], [-87.161687, 39.381234], [-87.174036, 39.38368], [-87.178349, 39.383357], [-87.184335, 39.384659], [-87.199818, 39.382014], [-87.203985, 39.381798], [-87.274906, 39.383203], [-87.29605, 39.388155], [-87.324114, 39.403092], [-87.326125, 39.402833], [-87.343729, 39.396406], [-87.354317, 39.396853], [-87.359602, 39.396057], [-87.365274, 39.397735], [-87.371077, 39.401211], [-87.414533, 39.441377], [-87.41646, 39.444828], [-87.416611, 39.455935], [-87.418259, 39.473098]]}}, {"type": "Feature", "properties": {"id": "evv-bigfour-evansville-terre-haute", "company": "Cleveland, Cincinnati, Chicago and St. Louis Railway", "line": "Big Four: Evansville \u2013 Terre Haute", "color": "#5C677D", "mode": "intercity_rail", "avg_speed_kmh": 50, "geometry_quality": "Traced from OSM ways tagged old_railway_operator=NYC (today\u2019s Indiana Southern Railroad and its abandoned sections) through Oakland City, Washington, Elnora and Worthington. Traced length 133.7 mi against the ICC valuation\u2019s 133.77 mi of main line. WARNING: a 22.8 km (14.2 mi) leg between Worthington and Jasonville is a STRAIGHT LINE \u2014 that stretch of grade is not mapped in OSM. Remaining bridges are 4.4 km or less. The Evansville end uses the C&EI alignment the E&I actually entered town on under trackage rights. Straight-line repair 2026-08-29: 1 ruled segment totalling 11 mi replaced with OpenStreetMap-traced rail geometry (see geometry_repairs for the OSM lines each one followed).", "speed_source": "Estimated; no timetable consulted.", "segments": [{"start": 1920, "end": 1942, "headway_min": 360, "note": "Operated as the Evansville, Indianapolis and Terre Haute under Big Four (NYC) ownership from 1920; stations were Evansville, Oakland City, Washington, Elnora, Ellison, Worthington, Clay City, Spring Hill and Terre Haute. THE 1942 END YEAR IS NOT SOURCED FOR THIS LINE \u2014 see metadata.not_yet_sourced. Headway estimated.", "sources": ["NOT SOURCED AT SEGMENT LEVEL: the 1920 sale and the station list are sourced, but no source was found for the last passenger train on the Evansville\u2013Terre Haute line. 1942 is carried over from the Big Four\u2019s other Evansville line (Mount Carmel), which is documented, and should be treated as unverified.", "http://industrialscenery.blogspot.com/2017/07/evansville-indianapolis-terre-haute.html", "https://historicevansville.com/railroad.php"]}], "geometry_repairs": [{"date": "2026-08-29", "from": [-87.538855, 38.018213], "to": [-87.442078, 38.165157], "chord_mi": 11.41, "traced_mi": 11.86, "snap_m": [0, 0], "bridged_mi": 0.0, "osm_lines": ["Indiana Southern Railroad (11.86 mi)"], "method": "Overpass rail graph, 8.0 km corridor, Dijkstra, simplified to 3.0 m"}]}, "geometry": {"type": "LineString", "coordinates": [[-87.589377, 37.97767], [-87.589218, 37.979962], [-87.590827, 37.985098], [-87.593134, 37.989249], [-87.587517, 38.003309], [-87.586985, 38.00617], [-87.538855, 38.018213], [-87.53208, 38.028519], [-87.53159, 38.029135], [-87.528179, 38.034322], [-87.527855, 38.034769], [-87.527401, 38.035208], [-87.526858, 38.035583], [-87.526122, 38.03594], [-87.525406, 38.036167], [-87.5248077, 38.0362857], [-87.5239, 38.036351], [-87.51938, 38.036294], [-87.518556, 38.036396], [-87.51804, 38.036521], [-87.517265, 38.036802], [-87.516583, 38.037172], [-87.515907, 38.037701], [-87.515381, 38.03831], [-87.515024, 38.038939], [-87.514777, 38.03982], [-87.5144916, 38.0460015], [-87.514411, 38.0465893], [-87.5141559, 38.0474235], [-87.5136678, 38.0483352], [-87.51313, 38.0490152], [-87.5102552, 38.0517222], [-87.5099453, 38.0520677], [-87.5095355, 38.0527191], [-87.5093072, 38.0533735], [-87.5092279, 38.0540001], [-87.5092432, 38.0543401], [-87.5093406, 38.054841], [-87.5094925, 38.0552675], [-87.5097839, 38.0557902], [-87.5110257, 38.0573991], [-87.5112692, 38.0578865], [-87.5113944, 38.0582776], [-87.5114698, 38.0588251], [-87.511444, 38.0593087], [-87.5112883, 38.0599232], [-87.5110667, 38.060388], [-87.4420778, 38.165157], [-87.378521, 38.276405], [-87.372185, 38.292607], [-87.339982, 38.345868], [-87.325339, 38.369834], [-87.300099, 38.404315], [-87.297871, 38.411078], [-87.298488, 38.417579], [-87.301051, 38.422682], [-87.307493, 38.431293], [-87.307918, 38.434985], [-87.305535, 38.438299], [-87.295697, 38.444473], [-87.286084, 38.456512], [-87.283823, 38.466356], [-87.285568, 38.482504], [-87.28524, 38.487758], [-87.283127, 38.491311], [-87.277751, 38.508606], [-87.276702, 38.509393], [-87.273391, 38.509828], [-87.269014, 38.512305], [-87.265303, 38.513309], [-87.262035, 38.51998], [-87.255645, 38.52558], [-87.253565, 38.526261], [-87.247003, 38.526167], [-87.243795, 38.527326], [-87.242319, 38.531033], [-87.242049, 38.535406], [-87.239608, 38.538552], [-87.234445, 38.540917], [-87.232522, 38.540894], [-87.230569, 38.540367], [-87.228734, 38.538284], [-87.226607, 38.537526], [-87.224656, 38.538263], [-87.223489, 38.540106], [-87.224338, 38.544171], [-87.222149, 38.55002], [-87.217466, 38.557089], [-87.218288, 38.56616], [-87.221633, 38.569244], [-87.231958, 38.573923], [-87.23454, 38.576528], [-87.235348, 38.579201], [-87.239438, 38.585717], [-87.242803, 38.587484], [-87.2464, 38.591034], [-87.246293, 38.592145], [-87.242746, 38.596683], [-87.240538, 38.597846], [-87.235234, 38.59878], [-87.231541, 38.612061], [-87.232401, 38.61459], [-87.237672, 38.618165], [-87.239892, 38.621077], [-87.241348, 38.626468], [-87.239947, 38.628402], [-87.236097, 38.63129], [-87.234236, 38.635443], [-87.231474, 38.637775], [-87.228086, 38.647654], [-87.224178, 38.65604], [-87.216259, 38.664021], [-87.210904, 38.680291], [-87.204621, 38.694244], [-87.197887, 38.702531], [-87.196143, 38.709529], [-87.196593, 38.726489], [-87.195735, 38.730239], [-87.196667, 38.733664], [-87.19534, 38.745153], [-87.175766, 38.7825], [-87.156163, 38.804139], [-87.150614, 38.814449], [-87.144169, 38.829068], [-87.124915, 38.842266], [-87.120912, 38.849144], [-87.111636, 38.857299], [-87.110138, 38.860407], [-87.096551, 38.867749], [-87.088092, 38.878464], [-87.071934, 38.887524], [-87.068592, 38.890295], [-87.061885, 38.899567], [-87.059149, 38.904768], [-87.055347, 38.907708], [-87.05065, 38.909554], [-87.048761, 38.911401], [-87.049729, 38.914491], [-87.049439, 38.915772], [-87.042465, 38.919219], [-87.038275, 38.922515], [-87.034779, 38.923125], [-87.027597, 38.926539], [-87.022118, 38.927786], [-87.015968, 38.926976], [-87.01035, 38.927259], [-87.003449, 38.930612], [-86.998243, 38.935471], [-86.995507, 38.938899], [-86.994805, 38.942591], [-86.993182, 38.944888], [-86.992649, 38.948918], [-86.983496, 38.959859], [-86.979113, 38.971786], [-86.972336, 38.979993], [-86.970601, 38.987985], [-86.971662, 39.013654], [-86.970727, 39.016165], [-86.973914, 39.021787], [-86.972849, 39.023725], [-86.968498, 39.027921], [-86.96839, 39.030234], [-86.969694, 39.032748], [-86.971325, 39.033532], [-86.974136, 39.033586], [-86.97751, 39.032136], [-86.97935, 39.031965], [-86.985863, 39.032922], [-86.989655, 39.036845], [-86.990055, 39.038275], [-86.988255, 39.05895], [-87.000317, 39.077183], [-86.999894, 39.080954], [-86.990463, 39.101752], [-87.115105, 39.282479], [-87.116272, 39.293657], [-87.121961, 39.312181], [-87.127994, 39.358184], [-87.129962, 39.361952], [-87.159105, 39.380222], [-87.161687, 39.381234], [-87.174036, 39.38368], [-87.178349, 39.383357], [-87.184335, 39.384659], [-87.199818, 39.382014], [-87.203985, 39.381798], [-87.274906, 39.383203], [-87.29605, 39.388155], [-87.324114, 39.403092], [-87.326125, 39.402833], [-87.343729, 39.396406], [-87.354317, 39.396853], [-87.359602, 39.396057], [-87.365274, 39.397735], [-87.371077, 39.401211], [-87.414533, 39.441377], [-87.41646, 39.444828], [-87.416611, 39.455935], [-87.418259, 39.473098]]}}, {"type": "Feature", "properties": {"id": "evv-pde-evansville-olney", "company": "Peoria, Decatur and Evansville Railway", "line": "Peoria, Decatur and Evansville: Evansville \u2013 Olney", "color": "#C77D3B", "mode": "intercity_rail", "avg_speed_kmh": 40, "geometry_quality": "Traced from OSM ways tagged old_railway_operator=IC (today\u2019s Indiana Southwestern Railway and abandoned grade) through Stewartsville, Poseyville, Browns and Grayville. Traced length 68.1 mi Evansville to Olney; largest straight-line bridge 4.57 km, at the collapsed Wabash River crossing near Grayville. Drawn only as far as Olney: the PD&E continued via Newton, Mattoon and Decatur to Peoria, but that grade was lifted and is not in OSM, so it is not drawn rather than approximated.", "speed_source": "Estimated for an 1880s branch; no timetable consulted.", "segments": [{"start": 1881, "end": 1900, "headway_min": 360, "note": "Completed Parkersburg to Evansville in 1881, giving Evansville a through route to Decatur and Peoria. Bankrupt and sold at auction to the Illinois Central, which leased it from 1 September 1900. Headway estimated.", "sources": ["Segment-level: 1881 completion and the 1900 sale/1 September 1900 IC lease.", "http://industrialscenery.blogspot.com/2014/11/peoria-decatur-evansville-railway.html", "https://en.wikipedia.org/wiki/Wikipedia:WikiProject_Trains/ICC_valuations/Illinois_Central_Railroad"]}]}, "geometry": {"type": "LineString", "coordinates": [[-87.551051, 37.978128], [-87.587306, 38.007626], [-87.601253, 38.03266], [-87.612216, 38.04721], [-87.614168, 38.05155], [-87.616399, 38.060888], [-87.620448, 38.068311], [-87.620873, 38.071874], [-87.622214, 38.074533], [-87.622234, 38.078499], [-87.624129, 38.080151], [-87.629386, 38.082053], [-87.631202, 38.083458], [-87.633064, 38.086556], [-87.633856, 38.091501], [-87.642881, 38.105951], [-87.675856, 38.126541], [-87.706339, 38.135468], [-87.716606, 38.140945], [-87.734639, 38.144208], [-87.741885, 38.147684], [-87.805817, 38.17266], [-87.823582, 38.177357], [-87.850009, 38.177758], [-87.855785, 38.179134], [-87.857146, 38.179928], [-87.860027, 38.185072], [-87.865871, 38.191941], [-87.868606, 38.200014], [-87.870938, 38.202123], [-87.873815, 38.203342], [-87.879454, 38.203873], [-87.939212, 38.204462], [-87.976957, 38.22779], [-87.986048, 38.232153], [-87.987178, 38.23321], [-87.989083, 38.239134], [-87.985953, 38.243734], [-87.984339, 38.247488], [-87.98596, 38.25115], [-87.991444, 38.256771], [-87.991995, 38.260389], [-87.99393, 38.265389], [-87.989239, 38.276974], [-87.985097, 38.28208], [-87.983762, 38.290908], [-87.979842, 38.305161], [-87.980782, 38.363642], [-87.995235, 38.436706], [-87.995386, 38.453341], [-88.003546, 38.484378], [-88.013789, 38.499845], [-88.015115, 38.502946], [-88.015383, 38.505522], [-88.014259, 38.511526], [-88.01483, 38.52771], [-88.01807, 38.537889], [-88.020101, 38.540844], [-88.044383, 38.565629], [-88.053873, 38.582922], [-88.053964, 38.592467], [-88.052012, 38.602512], [-88.05183, 38.615855], [-88.047521, 38.633747], [-88.047565, 38.66332], [-88.04893, 38.675141], [-88.05233, 38.679314], [-88.063431, 38.689438], [-88.070576, 38.694267], [-88.084747, 38.706098], [-88.08637, 38.710357], [-88.086051, 38.723709]]}}, {"type": "Feature", "properties": {"id": "evv-ic-evansville-olney", "company": "Illinois Central Railroad", "line": "Illinois Central: Evansville \u2013 Olney", "color": "#F4801F", "mode": "intercity_rail", "avg_speed_kmh": 45, "geometry_quality": "Traced from OSM ways tagged old_railway_operator=IC (today\u2019s Indiana Southwestern Railway and abandoned grade) through Stewartsville, Poseyville, Browns and Grayville. Traced length 68.1 mi Evansville to Olney; largest straight-line bridge 4.57 km, at the collapsed Wabash River crossing near Grayville. Drawn only as far as Olney: the PD&E continued via Newton, Mattoon and Decatur to Peoria, but that grade was lifted and is not in OSM, so it is not drawn rather than approximated.", "speed_source": "Estimated; no IC timetable consulted.", "segments": [{"start": 1900, "end": 1938, "headway_min": 360, "note": "Illinois Central, by lease from 1 September 1900 and by conveyance from 8 April 1905. THE 1938 END YEAR IS NOT SOURCED FOR THIS SEGMENT \u2014 see metadata.not_yet_sourced. Headway estimated.", "sources": ["NOT SOURCED AT SEGMENT LEVEL: the IC lease and conveyance dates are sourced; the end of passenger service is not. Sources place the last passenger train on the Peoria\u2013Decatur\u2013Mattoon end of the PD&E in the \"late 1930s\"; 1938 is a reading of that phrase applied to the Evansville end, and is unverified.", "http://industrialscenery.blogspot.com/2014/11/peoria-decatur-evansville-railway.html"]}]}, "geometry": {"type": "LineString", "coordinates": [[-87.551051, 37.978128], [-87.587306, 38.007626], [-87.601253, 38.03266], [-87.612216, 38.04721], [-87.614168, 38.05155], [-87.616399, 38.060888], [-87.620448, 38.068311], [-87.620873, 38.071874], [-87.622214, 38.074533], [-87.622234, 38.078499], [-87.624129, 38.080151], [-87.629386, 38.082053], [-87.631202, 38.083458], [-87.633064, 38.086556], [-87.633856, 38.091501], [-87.642881, 38.105951], [-87.675856, 38.126541], [-87.706339, 38.135468], [-87.716606, 38.140945], [-87.734639, 38.144208], [-87.741885, 38.147684], [-87.805817, 38.17266], [-87.823582, 38.177357], [-87.850009, 38.177758], [-87.855785, 38.179134], [-87.857146, 38.179928], [-87.860027, 38.185072], [-87.865871, 38.191941], [-87.868606, 38.200014], [-87.870938, 38.202123], [-87.873815, 38.203342], [-87.879454, 38.203873], [-87.939212, 38.204462], [-87.976957, 38.22779], [-87.986048, 38.232153], [-87.987178, 38.23321], [-87.989083, 38.239134], [-87.985953, 38.243734], [-87.984339, 38.247488], [-87.98596, 38.25115], [-87.991444, 38.256771], [-87.991995, 38.260389], [-87.99393, 38.265389], [-87.989239, 38.276974], [-87.985097, 38.28208], [-87.983762, 38.290908], [-87.979842, 38.305161], [-87.980782, 38.363642], [-87.995235, 38.436706], [-87.995386, 38.453341], [-88.003546, 38.484378], [-88.013789, 38.499845], [-88.015115, 38.502946], [-88.015383, 38.505522], [-88.014259, 38.511526], [-88.01483, 38.52771], [-88.01807, 38.537889], [-88.020101, 38.540844], [-88.044383, 38.565629], [-88.053873, 38.582922], [-88.053964, 38.592467], [-88.052012, 38.602512], [-88.05183, 38.615855], [-88.047521, 38.633747], [-88.047565, 38.66332], [-88.04893, 38.675141], [-88.05233, 38.679314], [-88.063431, 38.689438], [-88.070576, 38.694267], [-88.084747, 38.706098], [-88.08637, 38.710357], [-88.086051, 38.723709]]}}, {"type": "Feature", "properties": {"id": "evv-bigfour-mount-carmel", "company": "Cleveland, Cincinnati, Chicago and St. Louis Railway", "line": "Big Four: Evansville \u2013 Mount Carmel", "color": "#5C677D", "mode": "intercity_rail", "avg_speed_kmh": 50, "geometry_quality": "Traced from OSM ways tagged old_railway_operator=NYC north-west of Evansville, 34.0 mi to Mount Carmel, Illinois. Largest straight-line bridge 3.9 km, on the section Conrail abandoned north of Evansville toward Skelton, which is only partly mapped. Straight-line repair 2026-08-29: 1 ruled segment totalling 10 mi replaced with OpenStreetMap-traced rail geometry (see geometry_repairs for the OSM lines each one followed).", "speed_source": "Estimated; no timetable consulted.", "segments": [{"start": 1911, "end": 1942, "headway_min": 360, "note": "The Evansville, Mount Carmel and Northern opened in July 1911 as a Big Four subsidiary, running northwest out of Evansville along Pigeon Creek. At its peak it carried a through sleeper to Chicago. Passenger service was discontinued in 1942. Headway estimated.", "sources": ["Segment-level: July 1911 opening as a Big Four subsidiary and the 1942 end of passenger service.", "https://www.abandonedrails.com/evansville-mount-carmel-and-northern-railroad", "https://historicevansville.com/railroad.php"]}], "geometry_repairs": [{"date": "2026-08-29", "from": [-87.615466, 38.104294], "to": [-87.722423, 38.225231], "chord_mi": 10.18, "traced_mi": 10.18, "snap_m": [0, 0], "bridged_mi": 0.0, "osm_lines": ["NYC [abandoned] (10.08 mi)", "NYC [dismantled] (0.11 mi)"], "method": "Overpass rail graph, 8.0 km corridor, Dijkstra, simplified to 3.0 m"}]}, "geometry": {"type": "LineString", "coordinates": [[-87.589377, 37.97767], [-87.589218, 37.979962], [-87.590944, 37.985453], [-87.593155, 37.988927], [-87.587009, 38.005595], [-87.589528, 38.06198], [-87.59511, 38.085816], [-87.597768, 38.089547], [-87.6154658, 38.1042943], [-87.7040157, 38.2031109], [-87.7168408, 38.2174871], [-87.7195875, 38.2203411], [-87.7207615, 38.2219595], [-87.7217139, 38.2236648], [-87.7224227, 38.2252309], [-87.736887, 38.266877], [-87.739789, 38.270929], [-87.759037, 38.288265], [-87.762338, 38.29388], [-87.796363, 38.392245], [-87.795106, 38.396706], [-87.791929, 38.399808], [-87.771314, 38.411061], [-87.768434, 38.413564]]}}]}