{
 "type": "FeatureCollection",
 "metadata": {
  "title": "Evansville, Indiana — electric railways",
  "note": "The interurbans radiating from Evansville, and the Evansville Suburban and Newburgh that they ran into town over. Companion to evansville_hub.geojson, which holds the steam roads.",
  "geometry_method": "ROAD-GRID APPROXIMATION THROUGHOUT. Unlike the steam layer, none of these lines survive in OpenStreetMap under any railway tag — a full-tag sweep of the Evansville area found no traction, tram or interurban geometry at all. Each line is therefore drawn along the modern road corridor it is documented to have followed, and checked against its documented mileage: 10.1 mi vs 11 (ES&N), 31.8 vs 31 (E&E), 30.1 vs 28 (Princeton), 21.6 vs 20 (Mount Vernon). Treat every alignment here as indicative, not surveyed.",
  "horsecar_audit": "Rule 5 check. Evansville’s street railway was organised the year after the Civil War for mule-drawn cars and none of those years are drawn anywhere in this repo. The ES&N is drawn from 1889, when it opened under steam; every other feature here was electric from the day it opened.",
  "freight_only_audit": "Rule 1 check. The ES&N is drawn to 1930, when its passenger service ended, not to the 1948 abandonment — it hauled only freight in between, and its note says so without drawing it.",
  "interurban_audit": "Rule 7: every electric feature here links separate communities — Evansville to Newburgh, Rockport, Mount Vernon and Princeton — so all are tagged interurban and draw dashed. The ES&N’s pre-1905 steam years are tagged intercity_rail instead, since it was not yet an electric railway.",
  "not_yet_sourced": [
   "The Evansville city streetcar system (electrified 1892, last car 1 February 1939) is NOT DRAWN. Its lines ran on city streets and a street-by-street route list was not obtained — only two routes surfaced (West Heights: Fulton–Franklin–Barker–Broadway, 3.75 mi; Oak Summit: Fulton–Franklin–Mt Vernon Ave–Harmony Way). Drawing two of a dozen-odd routes would misrepresent the system, so none are drawn.",
   "The Evansville, Henderson and Owensboro Railway (1912–1928) is NOT DRAWN. Its Evansville–Henderson link was a steel ferry across the Ohio rather than a rail crossing, and a road-grid trace of its Kentucky rail portion failed to route.",
   "Who operated the Evansville–Princeton interurban after 1906.",
   "Every headway_min and avg_speed_kmh here is an estimate; no interurban timetable was consulted."
  ],
  "sources": [
   "https://historicevansville.com/railroad.php",
   "https://en.wikipedia.org/wiki/Evansville_and_Ohio_Valley_Railway",
   "https://en.wikipedia.org/wiki/Evansville_and_Eastern_Electric_Railway",
   "https://www.american-rails.com/interbrnhsty.html"
  ]
 },
 "features": [
  {
   "type": "Feature",
   "properties": {
    "id": "evv-esn-newburgh-steam",
    "company": "Evansville Suburban and Newburgh Railway",
    "line": "Evansville Suburban and Newburgh: Evansville – Newburgh",
    "color": "#357F6B",
    "mode": "intercity_rail",
    "avg_speed_kmh": 30,
    "geometry_quality": "APPROXIMATED, NOT TRACED FROM THE RAILWAY. No part of this line survives in OpenStreetMap, so the route is drawn along the modern road corridor the interurban is documented to have connected — it shows where the line went, not the exact right of way, and departs from it wherever the road was later realigned. Drawn Evansville–Newburgh along the Covert Avenue / IN-662 corridor: 10.1 mi against a documented 11 mi.",
    "speed_source": "Estimated. Interurban schedules for these lines were not consulted; 30–35 km/h is a typical average for an Indiana interurban with frequent stops.",
    "segments": [
     {
      "start": 1889,
      "end": 1905,
      "headway_min": 120,
      "note": "Chartered December 1887 and open to Newburgh within a few years, worked by steam. Drawn as a steam railroad for these years and as an interurban from 1905, when the line was electrified — the two features share the same geometry. Headway estimated.",
      "sources": [
       "Segment-level: 1887 charter, 1905 electrification, 1930 end of passenger service, 1948 abandonment.",
       "https://www.american-rails.com/interbrnhsty.html",
       "https://historicevansville.com/railroad.php"
      ]
     }
    ]
   },
   "geometry": {
    "type": "LineString",
    "coordinates": [
     [
      -87.571112,
      37.971581
     ],
     [
      -87.570397,
      37.970707
     ],
     [
      -87.568241,
      37.971813
     ],
     [
      -87.567567,
      37.970977
     ],
     [
      -87.561904,
      37.973774
     ],
     [
      -87.510954,
      37.973407
     ],
     [
      -87.510948,
      37.973835
     ],
     [
      -87.511027,
      37.96977
     ],
     [
      -87.484227,
      37.969371
     ],
     [
      -87.474998,
      37.966015
     ],
     [
      -87.465286,
      37.959949
     ],
     [
      -87.455863,
      37.959001
     ],
     [
      -87.451602,
      37.958125
     ],
     [
      -87.450859,
      37.957508
     ],
     [
      -87.451121,
      37.955045
     ],
     [
      -87.446016,
      37.954964
     ],
     [
      -87.431301,
      37.951786
     ],
     [
      -87.423505,
      37.950606
     ],
     [
      -87.419885,
      37.949543
     ],
     [
      -87.414934,
      37.949103
     ],
     [
      -87.412933,
      37.947623
     ],
     [
      -87.412058,
      37.946257
     ],
     [
      -87.405327,
      37.944558
     ]
    ]
   }
  },
  {
   "type": "Feature",
   "properties": {
    "id": "evv-esn-newburgh-electric",
    "company": "Evansville Suburban and Newburgh Railway",
    "line": "Evansville Suburban and Newburgh: Evansville – Newburgh",
    "color": "#357F6B",
    "mode": "interurban",
    "avg_speed_kmh": 32,
    "geometry_quality": "APPROXIMATED, NOT TRACED FROM THE RAILWAY. No part of this line survives in OpenStreetMap, so the route is drawn along the modern road corridor the interurban is documented to have connected — it shows where the line went, not the exact right of way, and departs from it wherever the road was later realigned. Drawn Evansville–Newburgh along the Covert Avenue / IN-662 corridor: 10.1 mi against a documented 11 mi.",
    "speed_source": "Estimated. Interurban schedules for these lines were not consulted; 30–35 km/h is a typical average for an Indiana interurban with frequent stops.",
    "segments": [
     {
      "start": 1905,
      "end": 1930,
      "headway_min": 60,
      "note": "Electrified in 1905 and run as an 11-mile interurban. Passenger service ended in 1930 as highways took the traffic; the company carried freight only until the mines closed, and the route was abandoned in May 1948 — those later years are deliberately not drawn (Rule 1). Evansville & Eastern cars kept running over this track to Evansville until 1938, which is drawn as a separate feature. Headway estimated.",
      "sources": [
       "Segment-level: 1887 charter, 1905 electrification, 1930 end of passenger service, 1948 abandonment.",
       "https://www.american-rails.com/interbrnhsty.html",
       "https://historicevansville.com/railroad.php"
      ]
     }
    ]
   },
   "geometry": {
    "type": "LineString",
    "coordinates": [
     [
      -87.571112,
      37.971581
     ],
     [
      -87.570397,
      37.970707
     ],
     [
      -87.568241,
      37.971813
     ],
     [
      -87.567567,
      37.970977
     ],
     [
      -87.561904,
      37.973774
     ],
     [
      -87.510954,
      37.973407
     ],
     [
      -87.510948,
      37.973835
     ],
     [
      -87.511027,
      37.96977
     ],
     [
      -87.484227,
      37.969371
     ],
     [
      -87.474998,
      37.966015
     ],
     [
      -87.465286,
      37.959949
     ],
     [
      -87.455863,
      37.959001
     ],
     [
      -87.451602,
      37.958125
     ],
     [
      -87.450859,
      37.957508
     ],
     [
      -87.451121,
      37.955045
     ],
     [
      -87.446016,
      37.954964
     ],
     [
      -87.431301,
      37.951786
     ],
     [
      -87.423505,
      37.950606
     ],
     [
      -87.419885,
      37.949543
     ],
     [
      -87.414934,
      37.949103
     ],
     [
      -87.412933,
      37.947623
     ],
     [
      -87.412058,
      37.946257
     ],
     [
      -87.405327,
      37.944558
     ]
    ]
   }
  },
  {
   "type": "Feature",
   "properties": {
    "id": "evv-ee-rockport",
    "company": "Evansville and Eastern Electric Railway",
    "line": "Evansville and Eastern Electric: Evansville – Rockport",
    "color": "#C98442",
    "mode": "interurban",
    "avg_speed_kmh": 35,
    "geometry_quality": "APPROXIMATED, NOT TRACED FROM THE RAILWAY. No part of this line survives in OpenStreetMap, so the route is drawn along the modern road corridor the interurban is documented to have connected — it shows where the line went, not the exact right of way, and departs from it wherever the road was later realigned. Drawn Evansville–Newburgh–Yankeetown–Hatfield–Rockport along IN-662 and IN-66: 31.8 mi against a documented 31 mi Evansville–Rockport (21 mi of it the company’s own Newburgh–Rockport main). The 3-mile Richland spur is not drawn.",
    "speed_source": "Estimated. Interurban schedules for these lines were not consulted; 30–35 km/h is a typical average for an Indiana interurban with frequent stops.",
    "segments": [
     {
      "start": 1906,
      "end": 1918,
      "headway_min": 120,
      "note": "Opened 10 June 1906. The company’s own line was the 21 miles Newburgh–Rockport, through Yankeetown and Hatfield; a traffic agreement let its cars run the rest of the way into Evansville over the Evansville Suburban and Newburgh, making a 31-mile electric route against 51 miles by steam. One of the very few American electric lines that paralleled no steam railroad. Consolidated into the Evansville and Ohio Valley in 1918. Headway estimated.",
      "sources": [
       "Segment-level: 10 June 1906 opening, 21-mile Newburgh–Rockport main, through cars to Evansville over the ES&N, and the 17 October 1938 abandonment of the Rockport line.",
       "https://en.wikipedia.org/wiki/Evansville_and_Eastern_Electric_Railway",
       "https://en.wikipedia.org/wiki/Evansville_and_Ohio_Valley_Railway"
      ]
     }
    ]
   },
   "geometry": {
    "type": "LineString",
    "coordinates": [
     [
      -87.571112,
      37.971581
     ],
     [
      -87.570397,
      37.970707
     ],
     [
      -87.568241,
      37.971813
     ],
     [
      -87.567567,
      37.970977
     ],
     [
      -87.561904,
      37.973774
     ],
     [
      -87.510954,
      37.973407
     ],
     [
      -87.510948,
      37.973835
     ],
     [
      -87.511027,
      37.96977
     ],
     [
      -87.484227,
      37.969371
     ],
     [
      -87.474998,
      37.966015
     ],
     [
      -87.465286,
      37.959949
     ],
     [
      -87.455863,
      37.959001
     ],
     [
      -87.451602,
      37.958125
     ],
     [
      -87.450859,
      37.957508
     ],
     [
      -87.451121,
      37.955045
     ],
     [
      -87.446016,
      37.954964
     ],
     [
      -87.431301,
      37.951786
     ],
     [
      -87.423505,
      37.950606
     ],
     [
      -87.419885,
      37.949543
     ],
     [
      -87.414934,
      37.949103
     ],
     [
      -87.412933,
      37.947623
     ],
     [
      -87.412058,
      37.946257
     ],
     [
      -87.405327,
      37.944558
     ],
     [
      -87.394098,
      37.940613
     ],
     [
      -87.385589,
      37.93859
     ],
     [
      -87.378673,
      37.935813
     ],
     [
      -87.373782,
      37.935587
     ],
     [
      -87.366043,
      37.93222
     ],
     [
      -87.359824,
      37.932738
     ],
     [
      -87.350039,
      37.931526
     ],
     [
      -87.343396,
      37.932586
     ],
     [
      -87.328755,
      37.932419
     ],
     [
      -87.323849,
      37.931664
     ],
     [
      -87.311875,
      37.928083
     ],
     [
      -87.298626,
      37.927576
     ],
     [
      -87.287286,
      37.926561
     ],
     [
      -87.250009,
      37.911907
     ],
     [
      -87.249903,
      37.912615
     ],
     [
      -87.241673,
      37.912366
     ],
     [
      -87.241678,
      37.910564
     ],
     [
      -87.223327,
      37.90998
     ],
     [
      -87.22422,
      37.906807
     ],
     [
      -87.221892,
      37.906263
     ],
     [
      -87.221895,
      37.905444
     ],
     [
      -87.215029,
      37.905274
     ],
     [
      -87.215034,
      37.902461
     ],
     [
      -87.207148,
      37.902222
     ],
     [
      -87.206315,
      37.901395
     ],
     [
      -87.202838,
      37.902166
     ],
     [
      -87.178386,
      37.901876
     ],
     [
      -87.166851,
      37.902443
     ],
     [
      -87.118706,
      37.90145
     ],
     [
      -87.11881,
      37.894411
     ],
     [
      -87.109645,
      37.894393
     ],
     [
      -87.10968,
      37.892534
     ],
     [
      -87.105118,
      37.892496
     ],
     [
      -87.104621,
      37.891745
     ],
     [
      -87.091734,
      37.89024
     ],
     [
      -87.09179,
      37.887004
     ],
     [
      -87.056241,
      37.887035
     ],
     [
      -87.056269,
      37.88542
     ],
     [
      -87.052663,
      37.884985
     ],
     [
      -87.052661,
      37.884379
     ],
     [
      -87.048355,
      37.884356
     ]
    ]
   }
  },
  {
   "type": "Feature",
   "properties": {
    "id": "evv-eov-rockport",
    "company": "Evansville and Ohio Valley Railway",
    "line": "Evansville and Ohio Valley: Evansville – Rockport",
    "color": "#A34A5C",
    "mode": "interurban",
    "avg_speed_kmh": 35,
    "geometry_quality": "APPROXIMATED, NOT TRACED FROM THE RAILWAY. No part of this line survives in OpenStreetMap, so the route is drawn along the modern road corridor the interurban is documented to have connected — it shows where the line went, not the exact right of way, and departs from it wherever the road was later realigned. Drawn Evansville–Newburgh–Yankeetown–Hatfield–Rockport along IN-662 and IN-66: 31.8 mi against a documented 31 mi Evansville–Rockport (21 mi of it the company’s own Newburgh–Rockport main). The 3-mile Richland spur is not drawn.",
    "speed_source": "Estimated. Interurban schedules for these lines were not consulted; 30–35 km/h is a typical average for an Indiana interurban with frequent stops.",
    "segments": [
     {
      "start": 1918,
      "end": 1938,
      "headway_min": 120,
      "note": "Operated by the Evansville and Ohio Valley from the 1918 consolidation (it took over railway operations in 1919). The Rockport line was abandoned on 17 October 1938. Headway estimated.",
      "sources": [
       "Segment-level: 10 June 1906 opening, 21-mile Newburgh–Rockport main, through cars to Evansville over the ES&N, and the 17 October 1938 abandonment of the Rockport line.",
       "https://en.wikipedia.org/wiki/Evansville_and_Eastern_Electric_Railway",
       "https://en.wikipedia.org/wiki/Evansville_and_Ohio_Valley_Railway"
      ]
     }
    ]
   },
   "geometry": {
    "type": "LineString",
    "coordinates": [
     [
      -87.571112,
      37.971581
     ],
     [
      -87.570397,
      37.970707
     ],
     [
      -87.568241,
      37.971813
     ],
     [
      -87.567567,
      37.970977
     ],
     [
      -87.561904,
      37.973774
     ],
     [
      -87.510954,
      37.973407
     ],
     [
      -87.510948,
      37.973835
     ],
     [
      -87.511027,
      37.96977
     ],
     [
      -87.484227,
      37.969371
     ],
     [
      -87.474998,
      37.966015
     ],
     [
      -87.465286,
      37.959949
     ],
     [
      -87.455863,
      37.959001
     ],
     [
      -87.451602,
      37.958125
     ],
     [
      -87.450859,
      37.957508
     ],
     [
      -87.451121,
      37.955045
     ],
     [
      -87.446016,
      37.954964
     ],
     [
      -87.431301,
      37.951786
     ],
     [
      -87.423505,
      37.950606
     ],
     [
      -87.419885,
      37.949543
     ],
     [
      -87.414934,
      37.949103
     ],
     [
      -87.412933,
      37.947623
     ],
     [
      -87.412058,
      37.946257
     ],
     [
      -87.405327,
      37.944558
     ],
     [
      -87.394098,
      37.940613
     ],
     [
      -87.385589,
      37.93859
     ],
     [
      -87.378673,
      37.935813
     ],
     [
      -87.373782,
      37.935587
     ],
     [
      -87.366043,
      37.93222
     ],
     [
      -87.359824,
      37.932738
     ],
     [
      -87.350039,
      37.931526
     ],
     [
      -87.343396,
      37.932586
     ],
     [
      -87.328755,
      37.932419
     ],
     [
      -87.323849,
      37.931664
     ],
     [
      -87.311875,
      37.928083
     ],
     [
      -87.298626,
      37.927576
     ],
     [
      -87.287286,
      37.926561
     ],
     [
      -87.250009,
      37.911907
     ],
     [
      -87.249903,
      37.912615
     ],
     [
      -87.241673,
      37.912366
     ],
     [
      -87.241678,
      37.910564
     ],
     [
      -87.223327,
      37.90998
     ],
     [
      -87.22422,
      37.906807
     ],
     [
      -87.221892,
      37.906263
     ],
     [
      -87.221895,
      37.905444
     ],
     [
      -87.215029,
      37.905274
     ],
     [
      -87.215034,
      37.902461
     ],
     [
      -87.207148,
      37.902222
     ],
     [
      -87.206315,
      37.901395
     ],
     [
      -87.202838,
      37.902166
     ],
     [
      -87.178386,
      37.901876
     ],
     [
      -87.166851,
      37.902443
     ],
     [
      -87.118706,
      37.90145
     ],
     [
      -87.11881,
      37.894411
     ],
     [
      -87.109645,
      37.894393
     ],
     [
      -87.10968,
      37.892534
     ],
     [
      -87.105118,
      37.892496
     ],
     [
      -87.104621,
      37.891745
     ],
     [
      -87.091734,
      37.89024
     ],
     [
      -87.09179,
      37.887004
     ],
     [
      -87.056241,
      37.887035
     ],
     [
      -87.056269,
      37.88542
     ],
     [
      -87.052663,
      37.884985
     ],
     [
      -87.052661,
      37.884379
     ],
     [
      -87.048355,
      37.884356
     ]
    ]
   }
  },
  {
   "type": "Feature",
   "properties": {
    "id": "evv-emv-mount-vernon",
    "company": "Evansville and Mount Vernon Electric Railway",
    "line": "Evansville and Mount Vernon Electric: Evansville – Mount Vernon",
    "color": "#45739E",
    "mode": "interurban",
    "avg_speed_kmh": 32,
    "geometry_quality": "APPROXIMATED, NOT TRACED FROM THE RAILWAY. No part of this line survives in OpenStreetMap, so the route is drawn along the modern road corridor the interurban is documented to have connected — it shows where the line went, not the exact right of way, and departs from it wherever the road was later realigned. Drawn Evansville–Mount Vernon along the Upper Mount Vernon Road / IN-62 corridor: 21.6 mi against a documented ~20 mi.",
    "speed_source": "Estimated. Interurban schedules for these lines were not consulted; 30–35 km/h is a typical average for an Indiana interurban with frequent stops.",
    "segments": [
     {
      "start": 1906,
      "end": 1918,
      "headway_min": 120,
      "note": "Electric railway west from Evansville to Mount Vernon on the Ohio, opened 1906. Consolidated into the Evansville and Ohio Valley in 1918. Headway estimated.",
      "sources": [
       "Segment-level: 1906 opening, 1918 consolidation into the E&OV, and the 1928 replacement by buses.",
       "https://en.wikipedia.org/wiki/Evansville_and_Ohio_Valley_Railway",
       "https://www.american-rails.com/interbrnhsty.html"
      ]
     }
    ]
   },
   "geometry": {
    "type": "LineString",
    "coordinates": [
     [
      -87.571112,
      37.971581
     ],
     [
      -87.571779,
      37.972413
     ],
     [
      -87.572874,
      37.971858
     ],
     [
      -87.5752,
      37.974625
     ],
     [
      -87.577145,
      37.974631
     ],
     [
      -87.580096,
      37.976039
     ],
     [
      -87.584945,
      37.976099
     ],
     [
      -87.589149,
      37.976817
     ],
     [
      -87.60055,
      37.976932
     ],
     [
      -87.600768,
      37.975553
     ],
     [
      -87.602478,
      37.972826
     ],
     [
      -87.605438,
      37.971018
     ],
     [
      -87.624135,
      37.971559
     ],
     [
      -87.624161,
      37.967836
     ],
     [
      -87.625736,
      37.967852
     ],
     [
      -87.625763,
      37.9646
     ],
     [
      -87.629869,
      37.964619
     ],
     [
      -87.630044,
      37.961727
     ],
     [
      -87.634114,
      37.964519
     ],
     [
      -87.637416,
      37.964869
     ],
     [
      -87.646044,
      37.968072
     ],
     [
      -87.649583,
      37.968296
     ],
     [
      -87.651974,
      37.969674
     ],
     [
      -87.657352,
      37.970362
     ],
     [
      -87.658541,
      37.971196
     ],
     [
      -87.672411,
      37.967823
     ],
     [
      -87.676491,
      37.966257
     ],
     [
      -87.682055,
      37.965822
     ],
     [
      -87.687088,
      37.964574
     ],
     [
      -87.687007,
      37.966176
     ],
     [
      -87.6955,
      37.962905
     ],
     [
      -87.699147,
      37.962771
     ],
     [
      -87.699242,
      37.956302
     ],
     [
      -87.716654,
      37.956506
     ],
     [
      -87.717907,
      37.954917
     ],
     [
      -87.721687,
      37.953239
     ],
     [
      -87.723127,
      37.951352
     ],
     [
      -87.724609,
      37.951143
     ],
     [
      -87.731019,
      37.948563
     ],
     [
      -87.739759,
      37.948075
     ],
     [
      -87.741041,
      37.948351
     ],
     [
      -87.741067,
      37.949386
     ],
     [
      -87.754968,
      37.949579
     ],
     [
      -87.755025,
      37.946828
     ],
     [
      -87.756867,
      37.946847
     ],
     [
      -87.756948,
      37.945957
     ],
     [
      -87.760495,
      37.94835
     ],
     [
      -87.766989,
      37.950964
     ],
     [
      -87.770381,
      37.951328
     ],
     [
      -87.775665,
      37.95291
     ],
     [
      -87.77783,
      37.954785
     ],
     [
      -87.780542,
      37.955085
     ],
     [
      -87.782638,
      37.956442
     ],
     [
      -87.787569,
      37.956574
     ],
     [
      -87.790596,
      37.955642
     ],
     [
      -87.792088,
      37.955828
     ],
     [
      -87.792047,
      37.957246
     ],
     [
      -87.796678,
      37.957301
     ],
     [
      -87.79688,
      37.942431
     ],
     [
      -87.854306,
      37.942733
     ],
     [
      -87.894995,
      37.932292
     ]
    ]
   }
  },
  {
   "type": "Feature",
   "properties": {
    "id": "evv-eov-mount-vernon",
    "company": "Evansville and Ohio Valley Railway",
    "line": "Evansville and Ohio Valley: Evansville – Mount Vernon",
    "color": "#A34A5C",
    "mode": "interurban",
    "avg_speed_kmh": 32,
    "geometry_quality": "APPROXIMATED, NOT TRACED FROM THE RAILWAY. No part of this line survives in OpenStreetMap, so the route is drawn along the modern road corridor the interurban is documented to have connected — it shows where the line went, not the exact right of way, and departs from it wherever the road was later realigned. Drawn Evansville–Mount Vernon along the Upper Mount Vernon Road / IN-62 corridor: 21.6 mi against a documented ~20 mi.",
    "speed_source": "Estimated. Interurban schedules for these lines were not consulted; 30–35 km/h is a typical average for an Indiana interurban with frequent stops.",
    "segments": [
     {
      "start": 1918,
      "end": 1928,
      "headway_min": 120,
      "note": "Run by the Evansville and Ohio Valley from the 1918 consolidation. The Mount Vernon traction line was discontinued and replaced by buses in 1928. Headway estimated.",
      "sources": [
       "Segment-level: 1906 opening, 1918 consolidation into the E&OV, and the 1928 replacement by buses.",
       "https://en.wikipedia.org/wiki/Evansville_and_Ohio_Valley_Railway",
       "https://www.american-rails.com/interbrnhsty.html"
      ]
     }
    ]
   },
   "geometry": {
    "type": "LineString",
    "coordinates": [
     [
      -87.571112,
      37.971581
     ],
     [
      -87.571779,
      37.972413
     ],
     [
      -87.572874,
      37.971858
     ],
     [
      -87.5752,
      37.974625
     ],
     [
      -87.577145,
      37.974631
     ],
     [
      -87.580096,
      37.976039
     ],
     [
      -87.584945,
      37.976099
     ],
     [
      -87.589149,
      37.976817
     ],
     [
      -87.60055,
      37.976932
     ],
     [
      -87.600768,
      37.975553
     ],
     [
      -87.602478,
      37.972826
     ],
     [
      -87.605438,
      37.971018
     ],
     [
      -87.624135,
      37.971559
     ],
     [
      -87.624161,
      37.967836
     ],
     [
      -87.625736,
      37.967852
     ],
     [
      -87.625763,
      37.9646
     ],
     [
      -87.629869,
      37.964619
     ],
     [
      -87.630044,
      37.961727
     ],
     [
      -87.634114,
      37.964519
     ],
     [
      -87.637416,
      37.964869
     ],
     [
      -87.646044,
      37.968072
     ],
     [
      -87.649583,
      37.968296
     ],
     [
      -87.651974,
      37.969674
     ],
     [
      -87.657352,
      37.970362
     ],
     [
      -87.658541,
      37.971196
     ],
     [
      -87.672411,
      37.967823
     ],
     [
      -87.676491,
      37.966257
     ],
     [
      -87.682055,
      37.965822
     ],
     [
      -87.687088,
      37.964574
     ],
     [
      -87.687007,
      37.966176
     ],
     [
      -87.6955,
      37.962905
     ],
     [
      -87.699147,
      37.962771
     ],
     [
      -87.699242,
      37.956302
     ],
     [
      -87.716654,
      37.956506
     ],
     [
      -87.717907,
      37.954917
     ],
     [
      -87.721687,
      37.953239
     ],
     [
      -87.723127,
      37.951352
     ],
     [
      -87.724609,
      37.951143
     ],
     [
      -87.731019,
      37.948563
     ],
     [
      -87.739759,
      37.948075
     ],
     [
      -87.741041,
      37.948351
     ],
     [
      -87.741067,
      37.949386
     ],
     [
      -87.754968,
      37.949579
     ],
     [
      -87.755025,
      37.946828
     ],
     [
      -87.756867,
      37.946847
     ],
     [
      -87.756948,
      37.945957
     ],
     [
      -87.760495,
      37.94835
     ],
     [
      -87.766989,
      37.950964
     ],
     [
      -87.770381,
      37.951328
     ],
     [
      -87.775665,
      37.95291
     ],
     [
      -87.77783,
      37.954785
     ],
     [
      -87.780542,
      37.955085
     ],
     [
      -87.782638,
      37.956442
     ],
     [
      -87.787569,
      37.956574
     ],
     [
      -87.790596,
      37.955642
     ],
     [
      -87.792088,
      37.955828
     ],
     [
      -87.792047,
      37.957246
     ],
     [
      -87.796678,
      37.957301
     ],
     [
      -87.79688,
      37.942431
     ],
     [
      -87.854306,
      37.942733
     ],
     [
      -87.894995,
      37.932292
     ]
    ]
   }
  },
  {
   "type": "Feature",
   "properties": {
    "id": "evv-eptc-princeton",
    "company": "Evansville and Princeton Traction Company",
    "line": "Evansville and Princeton Traction: Evansville – Princeton",
    "color": "#8F5FA0",
    "mode": "interurban",
    "avg_speed_kmh": 32,
    "geometry_quality": "APPROXIMATED, NOT TRACED FROM THE RAILWAY. No part of this line survives in OpenStreetMap, so the route is drawn along the modern road corridor the interurban is documented to have connected — it shows where the line went, not the exact right of way, and departs from it wherever the road was later realigned. Drawn Evansville–Haubstadt–Fort Branch–Princeton along the US-41 corridor: 30.1 mi against a documented ~28 mi.",
    "speed_source": "Estimated. Interurban schedules for these lines were not consulted; 30–35 km/h is a typical average for an Indiana interurban with frequent stops.",
    "segments": [
     {
      "start": 1903,
      "end": 1933,
      "headway_min": 120,
      "note": "Interurban north from Evansville through Haubstadt and Fort Branch to Princeton, opened 1903 and abandoned in 1933. It was not part of the 1918 Evansville and Ohio Valley consolidation, and who ran it after 1906 is not established here — see metadata.not_yet_sourced. Headway estimated.",
      "sources": [
       "NOT SOURCED AT SEGMENT LEVEL: the 1903 opening and 1933 abandonment come from Historic Evansville’s line list, but the operating company after 1906 was not checked, so this feature carries the original builder’s name for its whole span — which may be wrong for the later years.",
       "https://historicevansville.com/railroad.php",
       "https://www.american-rails.com/interbrnhsty.html"
      ]
     }
    ]
   },
   "geometry": {
    "type": "LineString",
    "coordinates": [
     [
      -87.571112,
      37.971581
     ],
     [
      -87.571779,
      37.972413
     ],
     [
      -87.570699,
      37.972965
     ],
     [
      -87.572262,
      37.97489
     ],
     [
      -87.573471,
      37.975197
     ],
     [
      -87.575111,
      37.977382
     ],
     [
      -87.574251,
      38.009778
     ],
     [
      -87.56844,
      38.010285
     ],
     [
      -87.569289,
      38.012008
     ],
     [
      -87.569557,
      38.015681
     ],
     [
      -87.567634,
      38.018654
     ],
     [
      -87.567752,
      38.021268
     ],
     [
      -87.562205,
      38.021155
     ],
     [
      -87.562103,
      38.033723
     ],
     [
      -87.564338,
      38.035186
     ],
     [
      -87.562086,
      38.038872
     ],
     [
      -87.562732,
      38.044063
     ],
     [
      -87.562318,
      38.047518
     ],
     [
      -87.563179,
      38.05278
     ],
     [
      -87.562817,
      38.054899
     ],
     [
      -87.560388,
      38.061011
     ],
     [
      -87.561088,
      38.063766
     ],
     [
      -87.560397,
      38.073823
     ],
     [
      -87.561029,
      38.075923
     ],
     [
      -87.56105,
      38.079238
     ],
     [
      -87.56095,
      38.079705
     ],
     [
      -87.559855,
      38.079655
     ],
     [
      -87.56095,
      38.079705
     ],
     [
      -87.559561,
      38.081751
     ],
     [
      -87.559428,
      38.083528
     ],
     [
      -87.556709,
      38.086575
     ],
     [
      -87.554195,
      38.105317
     ],
     [
      -87.553606,
      38.12293
     ],
     [
      -87.57413,
      38.12327
     ],
     [
      -87.571218,
      38.128597
     ],
     [
      -87.570995,
      38.134482
     ],
     [
      -87.565961,
      38.144005
     ],
     [
      -87.565356,
      38.146817
     ],
     [
      -87.566043,
      38.149039
     ],
     [
      -87.568695,
      38.153022
     ],
     [
      -87.570531,
      38.15861
     ],
     [
      -87.571512,
      38.163832
     ],
     [
      -87.573398,
      38.168749
     ],
     [
      -87.573424,
      38.170582
     ],
     [
      -87.574603,
      38.170715
     ],
     [
      -87.576455,
      38.176369
     ],
     [
      -87.577805,
      38.176778
     ],
     [
      -87.577599,
      38.196148
     ],
     [
      -87.576296,
      38.196111
     ],
     [
      -87.576006,
      38.201413
     ],
     [
      -87.571343,
      38.201161
     ],
     [
      -87.571066,
      38.200425
     ],
     [
      -87.571082,
      38.201105
     ],
     [
      -87.572589,
      38.201345
     ],
     [
      -87.572762,
      38.202622
     ],
     [
      -87.573963,
      38.202651
     ],
     [
      -87.574223,
      38.205414
     ],
     [
      -87.573803,
      38.205802
     ],
     [
      -87.574413,
      38.206553
     ],
     [
      -87.57807,
      38.236706
     ],
     [
      -87.577706,
      38.245565
     ],
     [
      -87.578399,
      38.245577
     ],
     [
      -87.578334,
      38.248807
     ],
     [
      -87.578249,
      38.252658
     ],
     [
      -87.576447,
      38.252624
     ],
     [
      -87.576039,
      38.274567
     ],
     [
      -87.570061,
      38.274425
     ],
     [
      -87.569914,
      38.27561
     ],
     [
      -87.567983,
      38.277798
     ],
     [
      -87.567285,
      38.307778
     ],
     [
      -87.567922,
      38.313107
     ],
     [
      -87.567413,
      38.314693
     ],
     [
      -87.567073,
      38.329371
     ],
     [
      -87.567913,
      38.332996
     ],
     [
      -87.567138,
      38.339273
     ],
     [
      -87.567688,
      38.355245
     ]
    ]
   }
  }
 ]
}