{"type": "FeatureCollection", "metadata": {"note": "The Florida Railroad -- Gainesville's first railroad and the first line to link Florida's Atlantic and Gulf coasts. Chartered in 1853, David Levy Yulee's road reached Gainesville from Fernandina in 1859 and Cedar Key in 1861; part of the Gainesville depot built around 1860 still stands, one of only three pre-Civil-War depots left in the state. The line passed to the Seaboard Air Line, which stopped running passenger trains through the Gainesville station somewhere between 1932 and 1938 and abandoned the Cedar Key Subdivision in 1932. Gainesville's last passenger trains of any kind ran in 1971, and the city was not among those Amtrak kept on May 1 that year -- it has had no passenger rail since, only an Amtrak Thruway bus from Jacksonville.", "sources": ["https://en.wikipedia.org/wiki/Florida_Railroad (chartered by the Florida Legislature in 1853 to build Fernandina to Cedar Key; first railroad to connect Florida's east and west coasts; USS Hatteras raided Cedar Key January 1862 and a Union squadron seized Fernandina that March; later part of the Seaboard Air Line, Baldwin-Waldo becoming SAL main line and Waldo-Cedar Key the Cedar Key Subdivision, abandoned 1932; station table gives Fernandina 0.0, Waldo 84.8, Archer 113.2, Cedar Key 155.7 miles)", "https://en.wikipedia.org/wiki/Gainesville_station_(Florida) (the depot dates in part from about 1860, serving the Florida Railroad which reached Gainesville from Fernandina in 1859; one of only three Florida depots surviving from before the Civil War; remodelled 1892-1897 with segregated waiting rooms, new passenger depot 1910; between 1932 and 1938 the Seaboard ceased running passenger trains through the station, including the Waldo-Tampa line via Gainesville; depot operations moved to East University Avenue in January 1948, by which point Florida Motor Tours and later Greyhound ran replacement Jacksonville-Tampa buses; the City of Gainesville acquired the depot in 1999)", "https://www.hmdb.org/m.asp?m=55038 -- 'Gainesville's Railroads' historical marker (the last railroad passenger service in Gainesville ended in 1971; Gainesville was not among the cities Amtrak retained on May 1 1971)"], "not_yet_sourced": "Only the Fernandina-Gainesville half of this railroad is drawn; the Cedar Key half southwest of Gainesville could not be traced, and the intermediate opening dates along the line are not established, so the whole drawn extent appears at once in 1859. The end of Seaboard passenger service at Gainesville is sourced only as a range, 'between 1932 and 1938', and 1938 is used. Headways are estimates throughout. STILL MISSING FOR GAINESVILLE: the Atlantic Coast Line route through the city (its Main Street line was replaced in 1948) and the Tampa and Jacksonville Railway south to Micanopy -- the 1971 end of Gainesville passenger service belongs to one of those, not to this line. Neither could be traced: OpenStreetMap has no continuous right-of-way from Gainesville toward Archer, Hawthorne or Micanopy."}, "features": [{"type": "Feature", "properties": {"company": "Florida Railroad", "line": "Florida Railroad: Fernandina \u2013 Gainesville", "id": "florida-rr-fernandina-gainesville", "color": "#7D8A3C", "mode": "intercity_rail", "avg_speed_kmh": 30, "speed_source": "estimated: 1860s Florida steam railroad; unsourced", "geometry_source": "Real-traced from OpenStreetMap (ODbL) via Overpass. Fernandina to Waldo follows the active CSX line; Waldo to Gainesville follows the abandoned right-of-way OSM still labels 'Florida Railroad', continuing onto the Waldo Road Greenway and the Downtown Connector Rail-Trail into Gainesville. Routing was restricted to abandoned right-of-way and rail-trails on the southern leg, because the active subdivisions near Gainesville (Deerhaven, Wildwood) head elsewhere and an unrestricted shortest path diverted onto them.", "geometry_quality": "723 points, 104.4 mi against the 99 miles the company's own station table gives for Fernandina to Gainesville. Quality measured as synthetic connector content rather than vertex spacing, because this line runs dead straight for miles at a time and sparse vertices there are correct: 17% of the drawn length (17.9 mi across 135 places) is straight-line connector I inserted where the mapped right-of-way breaks; the other 83% sits on mapped ways. The breaks concentrate on the Waldo\u2013Gainesville leg, where the line was lifted and only fragments survive \u2014 that leg alone is about 25% connector. LATER ALIGNMENT: drawn on what survives today, not a verified 1859 alignment. NOT DRAWN: everything southwest of Gainesville \u2014 Archer, Bronson, Otter Creek, Cedar Key \u2014 no continuous right-of-way is mapped and no path resolved. Straight-line repair 2026-08-29: 2 ruled segments totalling 42 mi replaced with OpenStreetMap-traced rail geometry (see geometry_repairs for the OSM lines each one followed).", "segments": [{"start": 1859, "end": 1900, "headway_min": 720, "note": "Chartered by the Florida Legislature in 1853 to run from Fernandina on the Atlantic to Cedar Key on the Gulf, David Levy Yulee's Florida Railroad reached Gainesville in 1859 -- the town's first railroad, and part of the first line to connect Florida's east and west coasts once it was completed to Cedar Key in 1861. Part of the Gainesville depot dates from about 1860 and is one of only three Florida depots surviving from before the Civil War. The war hit the line hard: the USS Hatteras raided Cedar Key in January 1862 and a Union squadron seized Fernandina that March. The Cedar Key half southwest of Gainesville is not drawn -- see geometry_quality. Frequency estimated/unsourced", "sources": ["Segment-level: this segment's own note carries the citation for its dates and service. Supporting references for the line:", "https://en.wikipedia.org/wiki/Florida_Railroad", "https://en.wikipedia.org/wiki/Gainesville_station_(Florida)"]}, {"start": 1900, "end": 1938, "headway_min": 480, "note": "Under the Seaboard Air Line from 1900 the old Florida Railroad north of Waldo became part of the Ocala District, with Baldwin-Waldo forming SAL main line. The Gainesville depot was remodelled between 1892 and 1897 to give two passenger waiting rooms, one for whites and one for blacks, and a new passenger depot with segregated waiting rooms followed in 1910. Between 1932 and 1938 the Seaboard stopped running passenger trains through the Gainesville station, including the Waldo-Tampa service, and it abandoned the Cedar Key Subdivision in 1932. The end year used here is the later bound of that 1932-1938 range. Frequency estimated/unsourced", "sources": ["Segment-level: this segment's own note carries the citation for its dates and service. Supporting references for the line:", "https://en.wikipedia.org/wiki/Florida_Railroad", "https://en.wikipedia.org/wiki/Gainesville_station_(Florida)"]}], "geometry_repairs": [{"date": "2026-08-29", "from": [-81.905459, 30.477417], "to": [-82.059988, 30.075736], "chord_mi": 29.24, "traced_mi": 29.26, "snap_m": [0, 0], "bridged_mi": 0.0, "osm_lines": ["Wildwood Subdivision (14.97 mi)", "Callahan Subdivision (12.7 mi)", "CSX Wildwood Subdivision (0.98 mi)", "Jacksonville Terminal Subdivision (0.61 mi)"], "method": "Overpass rail graph, 8.0 km corridor, Dijkstra, simplified to 3.0 m"}, {"date": "2026-08-29", "from": [-81.674498, 30.712835], "to": [-81.823076, 30.576849], "chord_mi": 12.92, "traced_mi": 12.92, "snap_m": [0, 0], "bridged_mi": 0.0, "osm_lines": ["SCL - Gross Subdivision [abandoned] (12.92 mi)"], "method": "Overpass rail graph, 8.0 km corridor, Dijkstra, simplified to 3.0 m"}]}, "geometry": {"type": "LineString", "coordinates": [[-81.464929, 30.669521], [-81.464888, 30.669266], [-81.464844, 30.669035], [-81.464675, 30.668167], [-81.464631, 30.667895], [-81.464598, 30.667577], [-81.464589, 30.667289], [-81.464594, 30.667049], [-81.46461, 30.666834], [-81.464656, 30.666388], [-81.464696, 30.666065], [-81.464718, 30.665799], [-81.464719, 30.665706], [-81.464715, 30.665613], [-81.464704, 30.665494], [-81.464682, 30.66535], [-81.46465, 30.665181], [-81.464632, 30.665087], [-81.464595, 30.66497], [-81.46451, 30.664518], [-81.464408, 30.664164], [-81.463996, 30.662976], [-81.463946, 30.662834], [-81.463885, 30.662689], [-81.46375, 30.662429], [-81.463178, 30.661305], [-81.46259, 30.660135], [-81.462397, 30.659729], [-81.462247, 30.659203], [-81.462129, 30.658492], [-81.461979, 30.657384], [-81.461707, 30.655732], [-81.461665, 30.655464], [-81.461638, 30.655005], [-81.461238, 30.652493], [-81.460964, 30.650822], [-81.460715, 30.649281], [-81.460654, 30.648948], [-81.46058, 30.648623], [-81.460515, 30.648325], [-81.460021, 30.645379], [-81.459568, 30.642587], [-81.459044, 30.639359], [-81.458938, 30.638709], [-81.458912, 30.638408], [-81.458893, 30.638048], [-81.458902, 30.637686], [-81.458952, 30.637326], [-81.459016, 30.637003], [-81.459096, 30.63673], [-81.459219, 30.636361], [-81.459357, 30.636033], [-81.45951, 30.635756], [-81.459658, 30.635504], [-81.459869, 30.635184], [-81.46006, 30.634944], [-81.460295, 30.634678], [-81.460553, 30.634426], [-81.460876, 30.634156], [-81.461163, 30.633933], [-81.461472, 30.633719], [-81.461831, 30.633533], [-81.462194, 30.633355], [-81.462545, 30.633214], [-81.462837, 30.63311], [-81.46306, 30.633041], [-81.463239, 30.63299], [-81.463536, 30.632926], [-81.464244, 30.632791], [-81.466856, 30.632355], [-81.467595, 30.63223], [-81.47025, 30.631782], [-81.476662, 30.630701], [-81.479639, 30.630201], [-81.482326, 30.629751], [-81.48276, 30.62965], [-81.483093, 30.629552], [-81.483449, 30.629413], [-81.483969, 30.629155], [-81.484955, 30.628637], [-81.485996, 30.628102], [-81.491645, 30.625149], [-81.493718, 30.624088], [-81.498123, 30.621787], [-81.499124, 30.621254], [-81.50271, 30.619388], [-81.502787, 30.619348], [-81.50403, 30.618699], [-81.50471, 30.618375], [-81.505095, 30.618213], [-81.505511, 30.618056], [-81.505848, 30.617953], [-81.506158, 30.617863], [-81.506539, 30.617763], [-81.506893, 30.617681], [-81.507229, 30.617627], [-81.50755, 30.617582], [-81.507851, 30.617554], [-81.508137, 30.617531], [-81.508498, 30.617516], [-81.508827, 30.617506], [-81.509179, 30.617509], [-81.509538, 30.617514], [-81.50986, 30.617538], [-81.510852, 30.617682], [-81.511391, 30.617801], [-81.511931, 30.617952], [-81.513548, 30.618577], [-81.51437, 30.618925], [-81.520266, 30.621408], [-81.523291, 30.622682], [-81.523432, 30.622745], [-81.529232, 30.625183], [-81.530063, 30.625533], [-81.535565, 30.627846], [-81.535677, 30.627893], [-81.545157, 30.631898], [-81.546346, 30.632392], [-81.560604, 30.638393], [-81.565833, 30.640594], [-81.566671, 30.640947], [-81.56722, 30.641161], [-81.567729, 30.641321], [-81.568247, 30.641461], [-81.568555, 30.641534], [-81.569034, 30.641619], [-81.569393, 30.641668], [-81.569761, 30.641707], [-81.570207, 30.641741], [-81.5707, 30.641755], [-81.571327, 30.641737], [-81.571986, 30.64167], [-81.573016, 30.641492], [-81.575359, 30.640839], [-81.57584, 30.640705], [-81.57651, 30.640517], [-81.586129, 30.637822], [-81.59261, 30.636001], [-81.602359, 30.633262], [-81.602508, 30.633221], [-81.603875, 30.63284], [-81.604696, 30.632665], [-81.605689, 30.632477], [-81.605846, 30.632457], [-81.606024, 30.632438], [-81.606214, 30.632439], [-81.606396, 30.63245], [-81.606596, 30.632475], [-81.606832, 30.632526], [-81.607018, 30.632584], [-81.607235, 30.632675], [-81.607402, 30.63276], [-81.607562, 30.63286], [-81.6077, 30.63296], [-81.607997, 30.633231], [-81.608239, 30.633487], [-81.609986, 30.635346], [-81.610746, 30.636153], [-81.612298, 30.637805], [-81.613349, 30.638926], [-81.614102, 30.639727], [-81.617646, 30.643499], [-81.62156, 30.647676], [-81.621871, 30.648004], [-81.622731, 30.648921], [-81.622903, 30.649142], [-81.623083, 30.649362], [-81.631888, 30.658749], [-81.633519, 30.660508], [-81.633818, 30.660864], [-81.63409, 30.661207], [-81.634708, 30.662031], [-81.635024, 30.662365], [-81.635533, 30.663029], [-81.637985, 30.666279], [-81.641833, 30.671363], [-81.642032, 30.671623], [-81.646821, 30.677944], [-81.651702, 30.684384], [-81.65495, 30.68867], [-81.655157, 30.688941], [-81.655378, 30.689232], [-81.662991, 30.699275], [-81.663715, 30.700243], [-81.665979, 30.703226], [-81.669532, 30.707907], [-81.670181, 30.70876], [-81.671375, 30.710332], [-81.6724, 30.711668], [-81.672617, 30.711951], [-81.673069, 30.712257], [-81.673644, 30.712592], [-81.674038, 30.712753], [-81.6744977, 30.7128347], [-81.6748993, 30.7128628], [-81.6757212, 30.7127844], [-81.6761415, 30.7126739], [-81.6769176, 30.7122601], [-81.6909392, 30.6994684], [-81.6969528, 30.6938964], [-81.707186, 30.684838], [-81.716385, 30.67631], [-81.7179608, 30.6747666], [-81.7443354, 30.6504929], [-81.748849, 30.646251], [-81.749827, 30.645403], [-81.7598543, 30.6360958], [-81.7599498, 30.6359496], [-81.771729, 30.625235], [-81.781119, 30.616471], [-81.7861586, 30.6116288], [-81.7945914, 30.6037798], [-81.8015223, 30.59702], [-81.8084424, 30.5908878], [-81.8165426, 30.583342], [-81.8216388, 30.5784096], [-81.8230765, 30.5768486], [-81.82651, 30.572664], [-81.828748, 30.569926], [-81.830437, 30.567861], [-81.832255, 30.565698], [-81.832398, 30.565528], [-81.833365, 30.564378], [-81.835202, 30.562174], [-81.836337, 30.560807], [-81.836371, 30.560771], [-81.837057, 30.559947], [-81.837333, 30.559613], [-81.840177, 30.55618], [-81.841301, 30.554846], [-81.841357, 30.554775], [-81.845244, 30.550064], [-81.847632, 30.547183], [-81.847736, 30.547058], [-81.860051, 30.532198], [-81.860259, 30.531948], [-81.861816, 30.530069], [-81.861954, 30.529902], [-81.862284, 30.529505], [-81.875287, 30.513802], [-81.87969, 30.508487], [-81.880142, 30.507958], [-81.881619, 30.506172], [-81.884, 30.503319], [-81.885617, 30.501358], [-81.886715, 30.500037], [-81.88991, 30.496195], [-81.893206, 30.4922], [-81.894961, 30.490096], [-81.896851, 30.487813], [-81.897209, 30.487378], [-81.902088, 30.481484], [-81.902299, 30.481229], [-81.902507, 30.480978], [-81.90295, 30.480444], [-81.903183, 30.480161], [-81.903373, 30.479931], [-81.903486, 30.479793], [-81.903616, 30.479636], [-81.904234, 30.478892], [-81.90427, 30.478849], [-81.904349, 30.478754], [-81.9054591, 30.4774174], [-81.9070173, 30.4755108], [-81.9076537, 30.4746396], [-81.9083348, 30.4735061], [-81.9089749, 30.4721864], [-81.9528461, 30.3582345], [-81.971213, 30.3104595], [-81.9772134, 30.2946959], [-81.9776493, 30.2932415], [-81.9790643, 30.2894572], [-81.9804665, 30.2833604], [-81.9807673, 30.2823651], [-81.9811294, 30.2814016], [-81.9841095, 30.2737066], [-81.9847662, 30.2723015], [-81.9883549, 30.2653377], [-81.9894352, 30.2629897], [-81.9954378, 30.2475166], [-82.0244646, 30.1720266], [-82.0599877, 30.0757357], [-82.060575, 30.074146], [-82.06129, 30.072173], [-82.061337, 30.072051], [-82.063271, 30.0668], [-82.064912, 30.062344], [-82.066834, 30.057095], [-82.066889, 30.056951], [-82.067286, 30.055878], [-82.067944, 30.054102], [-82.069655, 30.049481], [-82.070192, 30.047996], [-82.070226, 30.047898], [-82.071533, 30.044237], [-82.074221, 30.036887], [-82.074656, 30.035707], [-82.074694, 30.035603], [-82.076936, 30.029507], [-82.07701, 30.029308], [-82.078616, 30.024989], [-82.078724, 30.024698], [-82.080186, 30.020685], [-82.080249, 30.020514], [-82.083443, 30.01185], [-82.083834, 30.010788], [-82.085285, 30.006845], [-82.08534, 30.006695], [-82.087706, 30.000267], [-82.08871, 29.997522], [-82.088976, 29.996799], [-82.089704, 29.994822], [-82.090681, 29.992166], [-82.090747, 29.991994], [-82.091694, 29.989423], [-82.092816, 29.986359], [-82.093851, 29.983548], [-82.093958, 29.983259], [-82.094587, 29.981555], [-82.094645, 29.98139], [-82.094934, 29.980617], [-82.09539, 29.979382], [-82.095551, 29.978942], [-82.095934, 29.977894], [-82.096088, 29.977471], [-82.097579, 29.973417], [-82.098175, 29.971795], [-82.098326, 29.97139], [-82.099003, 29.969549], [-82.100344, 29.965902], [-82.100432, 29.965662], [-82.101609, 29.96247], [-82.102786, 29.959229], [-82.103981, 29.955992], [-82.104685, 29.95408], [-82.105003, 29.953218], [-82.105659, 29.951407], [-82.105958, 29.9506], [-82.105999, 29.950489], [-82.106026, 29.950417], [-82.106052, 29.950344], [-82.106422, 29.949338], [-82.106817, 29.948255], [-82.107949, 29.94519], [-82.107969, 29.945137], [-82.108477, 29.94375], [-82.108734, 29.943053], [-82.108785, 29.942915], [-82.108995, 29.942336], [-82.109028, 29.942246], [-82.109101, 29.94205], [-82.109126, 29.941982], [-82.110197, 29.939066], [-82.111176, 29.936402], [-82.111316, 29.936024], [-82.1121, 29.933901], [-82.113302, 29.930621], [-82.113723, 29.92948], [-82.114217, 29.928158], [-82.114376, 29.927737], [-82.114885, 29.926323], [-82.115009, 29.925984], [-82.115386, 29.924949], [-82.115762, 29.923919], [-82.118308, 29.917006], [-82.119266, 29.914408], [-82.11975, 29.913095], [-82.120809, 29.910225], [-82.12088, 29.91003], [-82.122754, 29.904935], [-82.122911, 29.904507], [-82.12296, 29.904364], [-82.124242, 29.90095], [-82.124668, 29.899746], [-82.128987, 29.887945], [-82.129459, 29.886648], [-82.129994, 29.885176], [-82.130375, 29.884182], [-82.131288, 29.881662], [-82.132506, 29.878383], [-82.133692, 29.875242], [-82.134465, 29.873112], [-82.135071, 29.871439], [-82.13605, 29.868743], [-82.136956, 29.866271], [-82.137644, 29.864392], [-82.138449, 29.862207], [-82.138912, 29.860954], [-82.13957, 29.859131], [-82.140094, 29.857736], [-82.140322, 29.857101], [-82.141775, 29.853195], [-82.142861, 29.850243], [-82.143428, 29.848709], [-82.144618, 29.845444], [-82.144749, 29.845077], [-82.145025, 29.844358], [-82.147086, 29.838767], [-82.1471, 29.838728], [-82.148875, 29.833845], [-82.148963, 29.833601], [-82.149107, 29.83321], [-82.154957, 29.817334], [-82.157617, 29.810041], [-82.157693, 29.809833], [-82.157802, 29.809407], [-82.157955, 29.80899], [-82.162643, 29.796197], [-82.162879, 29.795653], [-82.163125, 29.795113], [-82.163642, 29.794144], [-82.164114, 29.793368], [-82.164393, 29.79296], [-82.164672, 29.792553], [-82.165209, 29.791898], [-82.165758, 29.791258], [-82.166035, 29.790981], [-82.166798, 29.790275], [-82.167726, 29.789432], [-82.166798, 29.790275], [-82.169059, 29.7885], [-82.173756, 29.784848], [-82.187392, 29.774894], [-82.196909, 29.767947], [-82.197544, 29.767482], [-82.20415, 29.762675], [-82.214075, 29.755457], [-82.224138, 29.748108], [-82.22467, 29.747722], [-82.234663, 29.740469], [-82.243761, 29.734041], [-82.255917, 29.725032], [-82.264135, 29.719032], [-82.265434, 29.718072], [-82.266313, 29.71728], [-82.267186, 29.716352], [-82.268361, 29.714756], [-82.27015, 29.712297], [-82.271817, 29.710013], [-82.276592, 29.703069], [-82.280866, 29.696735], [-82.280984, 29.696603], [-82.281109, 29.696447], [-82.281291, 29.696135], [-82.281554, 29.695799], [-82.281715, 29.695533], [-82.281903, 29.695273], [-82.282058, 29.695007], [-82.282316, 29.694676], [-82.282611, 29.694201], [-82.282756, 29.694], [-82.282868, 29.6938], [-82.283163, 29.693432], [-82.283351, 29.69311], [-82.283823, 29.692337], [-82.284209, 29.69188], [-82.284816, 29.690985], [-82.285572, 29.689834], [-82.285905, 29.689387], [-82.286066, 29.689103], [-82.286485, 29.688464], [-82.286593, 29.688367], [-82.286698, 29.688377], [-82.286742, 29.68831], [-82.286784, 29.688244], [-82.286823, 29.688185], [-82.286813, 29.688155], [-82.286772, 29.688067], [-82.287273, 29.687322], [-82.287702, 29.686684], [-82.288303, 29.685812], [-82.288872, 29.684983], [-82.288948, 29.685024], [-82.288968, 29.685033], [-82.289001, 29.684967], [-82.289074, 29.684835], [-82.289105, 29.684771], [-82.289122, 29.684739], [-82.289123, 29.684619], [-82.292107, 29.680231], [-82.294082, 29.67742], [-82.295003, 29.675898], [-82.296443, 29.67378], [-82.297063, 29.672887], [-82.297802, 29.671791], [-82.29799, 29.671604], [-82.298136, 29.67144], [-82.298188, 29.671321], [-82.298188, 29.671209], [-82.298205, 29.671082], [-82.299291, 29.669628], [-82.30108, 29.666974], [-82.301188, 29.666969], [-82.301252, 29.666941], [-82.301447, 29.666696], [-82.301544, 29.666618], [-82.301551, 29.666589], [-82.301545, 29.666572], [-82.306326, 29.659431], [-82.312587, 29.650191], [-82.325, 29.650308], [-82.325016, 29.651581]]}}]}