{
  "type": "FeatureCollection",
  "metadata": {
    "note": "The Lake Erie, Franklin and Clarion Railroad, whose name was almost entirely aspirational: it never reached Franklin, and it never reached Lake Erie. What it actually was is a fifteen-mile short line running north-west from a Pennsylvania Railroad connection at Summerville to Clarion, the county seat, with a half-mile branch from Sutton to Heidrick. Its roots are the Pittsburgh, Summerville and Clarion Railroad, which began operating in 1904 and was leased to the Pennsylvania Southern in 1910; the LEF&C itself was formed in 1913 by consolidating the Pennsylvania Northern, the Pennsylvania Southern and the Pittsburgh, Clarion and Franklin. It began in lumber and moved on to glass sand, glass bottles, brick from the Hanley plant at Summerville and, above all, coal, reaching a peak of about 80 miles of track around 1924. As the mines closed the traffic went with them: the ICC approved abandonment in September 1992 and the last train ran in January 1993. The roadbed is a hiking path today, which is precisely why this line could be drawn accurately -- OpenStreetMap carries the right-of-way, named, as a single continuous way.",
    "sources": [
      "https://en.wikipedia.org/wiki/Lake_Erie,_Franklin_and_Clarion_Railroad (formed 1913 as a consolidation of the Pennsylvania Northern, Pennsylvania Southern and Pittsburgh, Clarion and Franklin; the last of those came from the Pittsburgh, Summerville and Clarion, which began operation in 1904 and was leased to the Pennsylvania Southern in 1910; main line 15 miles from a Conrail connection at Summerville to Clarion with a branch from Sutton to Heidrick; 'the railroad never reached either Franklin or Lake Erie'; track peaked at about 80 miles around 1924; carried sand for glass manufacturing, glass bottles, lumber, coal including unit trains, and brick from the Hanley Brick Plant in Summerville; ICC approved abandonment Sept 17 1992 effective Nov 12 1992, operations ceased after Jan 5 1993; the roadbed became a hiking path).",
      "https://www.american-rails.com/lef.html (Lake Erie, Franklin & Clarion Railroad 1877-1993: a small Pennsylvania short line that began in the lumber business and later handled coal, whose fate was sealed as the coal mines shuttered; roots go back to 1903 when the Pittsburgh, Summerville and Clarion Railroad started building from the Pennsylvania Railroad connection at Summerville to Clarion, about 15 miles north-west; before the LEF&C, Clarion had been served by the narrow-gauge Emlenton, Shippenville & Clarion Railroad, chartered June 1875, which reached Knox in spring 1877)."
    ],
    "not_yet_sourced": "Frequencies and speeds are estimates -- and this was essentially a freight railroad, so the headways stand in for train density rather than any advertised passenger service; no passenger service appears in the available records. Also unsourced: the build date of the Sutton-Heidrick branch, which is drawn for the whole LEF&C era; the identity of the roughly 80 miles of track the company reached at its 1924 peak, only the main line and the one branch being drawn here; and the discrepancy between american-rails, which dates the company 1877-1993 and has the Pittsburgh, Summerville and Clarion starting construction in 1903, and Wikipedia, which gives 1904 for the start of operation. The 1877 date appears to reach back to the separate narrow-gauge Emlenton, Shippenville & Clarion, which is not the same company and is not drawn here.",
    "geometry_sources": [
      "OpenStreetMap via Overpass API, taken directly by name rather than routed: OSM carries the entire main line as a single 688-node way named 'Lake Erie, Franklin and Clarion Railroad' (railway=abandoned), running from Summerville to Clarion, because the abandoned right-of-way is now a trail. No shortest-path search was needed and no straight-line approximation was used anywhere on this layer.",
      "Main line: 90 points after simplification, 23.33 km (14.49 miles) against the 15 miles the sources describe -- a 0.97x match.",
      "Sutton-Heidrick branch: taken from the unnamed railway=abandoned way adjoining the main line at Sutton, 0.75 km (0.47 miles). Its Heidrick end falls within a metre of the Heidrick place node and its Sutton end within 182 m of Sutton, which is what identifies it as the branch the sources describe."
    ],
    "pulled": "20260824"
  },
  "features": [
    {
      "type": "Feature",
      "properties": {
        "company": "Pittsburgh, Summerville and Clarion Railroad",
        "line": "Pittsburgh, Summerville and Clarion: Summerville - Sutton - Strattanville - Clarion",
        "id": "psc-summerville-clarion",
        "color": "#7A6F4F",
        "mode": "intercity_rail",
        "avg_speed_kmh": 25,
        "speed_source": "estimated: a lumber-hauling short line; unsourced",
        "segments": [
          {
            "start": 1904,
            "end": 1910,
            "headway_min": 720,
            "note": "The Pittsburgh, Summerville and Clarion Railroad began operation in 1904, building the 15 miles north-west from a connection with the Pennsylvania Railroad at Summerville to Clarion, the county seat. It started in the lumber business; frequency estimated, unsourced"
          },
          {
            "start": 1910,
            "end": 1913,
            "headway_min": 720,
            "note": "Leased to the Pennsylvania Southern in 1910, one of the three companies folded together three years later; frequency estimated, unsourced"
          }
        ]
      },
      "geometry": {
        "type": "LineString",
        "coordinates": [
          [
            -79.1866,
            41.11351
          ],
          [
            -79.18835,
            41.11248
          ],
          [
            -79.19031,
            41.11202
          ],
          [
            -79.1923,
            41.11237
          ],
          [
            -79.19377,
            41.11325
          ],
          [
            -79.19444,
            41.11397
          ],
          [
            -79.19497,
            41.115
          ],
          [
            -79.19599,
            41.11802
          ],
          [
            -79.1965,
            41.11887
          ],
          [
            -79.19759,
            41.12012
          ],
          [
            -79.20064,
            41.12214
          ],
          [
            -79.20597,
            41.12663
          ],
          [
            -79.20972,
            41.13194
          ],
          [
            -79.21004,
            41.13321
          ],
          [
            -79.20793,
            41.1391
          ],
          [
            -79.20773,
            41.14025
          ],
          [
            -79.20776,
            41.14181
          ],
          [
            -79.20854,
            41.14709
          ],
          [
            -79.21174,
            41.15196
          ],
          [
            -79.21398,
            41.15357
          ],
          [
            -79.21537,
            41.1557
          ],
          [
            -79.2179,
            41.15871
          ],
          [
            -79.22106,
            41.16475
          ],
          [
            -79.2218,
            41.16557
          ],
          [
            -79.22282,
            41.16618
          ],
          [
            -79.23206,
            41.17021
          ],
          [
            -79.23708,
            41.17148
          ],
          [
            -79.23942,
            41.17173
          ],
          [
            -79.24353,
            41.17153
          ],
          [
            -79.24559,
            41.17124
          ],
          [
            -79.25325,
            41.16867
          ],
          [
            -79.25505,
            41.16843
          ],
          [
            -79.25628,
            41.16859
          ],
          [
            -79.25747,
            41.169
          ],
          [
            -79.26123,
            41.17116
          ],
          [
            -79.26216,
            41.17152
          ],
          [
            -79.26371,
            41.17171
          ],
          [
            -79.26607,
            41.17165
          ],
          [
            -79.2673,
            41.17134
          ],
          [
            -79.27193,
            41.16874
          ],
          [
            -79.27293,
            41.16852
          ],
          [
            -79.27371,
            41.16857
          ],
          [
            -79.27473,
            41.16918
          ],
          [
            -79.27709,
            41.17204
          ],
          [
            -79.27741,
            41.17316
          ],
          [
            -79.27738,
            41.17478
          ],
          [
            -79.27815,
            41.1758
          ],
          [
            -79.27928,
            41.17629
          ],
          [
            -79.28058,
            41.17628
          ],
          [
            -79.28481,
            41.1747
          ],
          [
            -79.28633,
            41.1744
          ],
          [
            -79.28773,
            41.17454
          ],
          [
            -79.28902,
            41.17506
          ],
          [
            -79.29371,
            41.1801
          ],
          [
            -79.30519,
            41.18529
          ],
          [
            -79.30652,
            41.18646
          ],
          [
            -79.30867,
            41.18973
          ],
          [
            -79.31011,
            41.19114
          ],
          [
            -79.31189,
            41.19225
          ],
          [
            -79.31673,
            41.19463
          ],
          [
            -79.3181,
            41.19607
          ],
          [
            -79.31889,
            41.19658
          ],
          [
            -79.32013,
            41.1969
          ],
          [
            -79.32743,
            41.19768
          ],
          [
            -79.32877,
            41.19745
          ],
          [
            -79.33143,
            41.19664
          ],
          [
            -79.33222,
            41.19663
          ],
          [
            -79.33317,
            41.19695
          ],
          [
            -79.33364,
            41.19742
          ],
          [
            -79.33383,
            41.198
          ],
          [
            -79.3344,
            41.2028
          ],
          [
            -79.33514,
            41.20387
          ],
          [
            -79.33633,
            41.20464
          ],
          [
            -79.33808,
            41.20503
          ],
          [
            -79.3422,
            41.20538
          ],
          [
            -79.34324,
            41.20527
          ],
          [
            -79.34404,
            41.20503
          ],
          [
            -79.34767,
            41.20308
          ],
          [
            -79.35233,
            41.20222
          ],
          [
            -79.35498,
            41.20094
          ],
          [
            -79.3565,
            41.2007
          ],
          [
            -79.35774,
            41.20102
          ],
          [
            -79.36019,
            41.20249
          ],
          [
            -79.3635,
            41.2031
          ],
          [
            -79.36627,
            41.20313
          ],
          [
            -79.37212,
            41.20513
          ],
          [
            -79.37304,
            41.20576
          ],
          [
            -79.37329,
            41.20646
          ],
          [
            -79.37331,
            41.20758
          ],
          [
            -79.37372,
            41.20825
          ]
        ]
      }
    },
    {
      "type": "Feature",
      "properties": {
        "company": "Lake Erie, Franklin and Clarion Railroad",
        "line": "Lake Erie, Franklin and Clarion: Summerville - Sutton - Strattanville - Clarion",
        "id": "lefc-summerville-clarion",
        "color": "#4A7C59",
        "mode": "intercity_rail",
        "avg_speed_kmh": 25,
        "speed_source": "estimated: a freight-only short line; unsourced",
        "segments": [
          {
            "start": 1913,
            "end": 1924,
            "headway_min": 720,
            "note": "Formed in 1913 by consolidating the Pennsylvania Northern, the Pennsylvania Southern and the Pittsburgh, Clarion and Franklin. Despite the ambitious name the railroad never reached either Franklin or Lake Erie -- its whole main line was these 15 miles between Summerville and Clarion; frequency estimated, unsourced"
          },
          {
            "start": 1924,
            "end": 1970,
            "headway_min": 600,
            "note": "Track length peaked at about 80 miles around 1924. The road carried sand for glass making, glass bottles, lumber, coal (latterly in unit trains) and brick from the Hanley Brick Plant at Summerville; frequency estimated, unsourced"
          },
          {
            "start": 1970,
            "end": 1993,
            "headway_min": 1440,
            "note": "As the coal mines closed, traffic dwindled. The ICC approved abandonment on Sept 17 1992 with an effective date of Nov 12 1992, and operations ceased after Jan 5 1993. The roadbed is now a hiking path -- which is how the corridor survives in OpenStreetMap and how this line could be traced; frequency estimated, unsourced"
          }
        ]
      },
      "geometry": {
        "type": "LineString",
        "coordinates": [
          [
            -79.1866,
            41.11351
          ],
          [
            -79.18835,
            41.11248
          ],
          [
            -79.19031,
            41.11202
          ],
          [
            -79.1923,
            41.11237
          ],
          [
            -79.19377,
            41.11325
          ],
          [
            -79.19444,
            41.11397
          ],
          [
            -79.19497,
            41.115
          ],
          [
            -79.19599,
            41.11802
          ],
          [
            -79.1965,
            41.11887
          ],
          [
            -79.19759,
            41.12012
          ],
          [
            -79.20064,
            41.12214
          ],
          [
            -79.20597,
            41.12663
          ],
          [
            -79.20972,
            41.13194
          ],
          [
            -79.21004,
            41.13321
          ],
          [
            -79.20793,
            41.1391
          ],
          [
            -79.20773,
            41.14025
          ],
          [
            -79.20776,
            41.14181
          ],
          [
            -79.20854,
            41.14709
          ],
          [
            -79.21174,
            41.15196
          ],
          [
            -79.21398,
            41.15357
          ],
          [
            -79.21537,
            41.1557
          ],
          [
            -79.2179,
            41.15871
          ],
          [
            -79.22106,
            41.16475
          ],
          [
            -79.2218,
            41.16557
          ],
          [
            -79.22282,
            41.16618
          ],
          [
            -79.23206,
            41.17021
          ],
          [
            -79.23708,
            41.17148
          ],
          [
            -79.23942,
            41.17173
          ],
          [
            -79.24353,
            41.17153
          ],
          [
            -79.24559,
            41.17124
          ],
          [
            -79.25325,
            41.16867
          ],
          [
            -79.25505,
            41.16843
          ],
          [
            -79.25628,
            41.16859
          ],
          [
            -79.25747,
            41.169
          ],
          [
            -79.26123,
            41.17116
          ],
          [
            -79.26216,
            41.17152
          ],
          [
            -79.26371,
            41.17171
          ],
          [
            -79.26607,
            41.17165
          ],
          [
            -79.2673,
            41.17134
          ],
          [
            -79.27193,
            41.16874
          ],
          [
            -79.27293,
            41.16852
          ],
          [
            -79.27371,
            41.16857
          ],
          [
            -79.27473,
            41.16918
          ],
          [
            -79.27709,
            41.17204
          ],
          [
            -79.27741,
            41.17316
          ],
          [
            -79.27738,
            41.17478
          ],
          [
            -79.27815,
            41.1758
          ],
          [
            -79.27928,
            41.17629
          ],
          [
            -79.28058,
            41.17628
          ],
          [
            -79.28481,
            41.1747
          ],
          [
            -79.28633,
            41.1744
          ],
          [
            -79.28773,
            41.17454
          ],
          [
            -79.28902,
            41.17506
          ],
          [
            -79.29371,
            41.1801
          ],
          [
            -79.30519,
            41.18529
          ],
          [
            -79.30652,
            41.18646
          ],
          [
            -79.30867,
            41.18973
          ],
          [
            -79.31011,
            41.19114
          ],
          [
            -79.31189,
            41.19225
          ],
          [
            -79.31673,
            41.19463
          ],
          [
            -79.3181,
            41.19607
          ],
          [
            -79.31889,
            41.19658
          ],
          [
            -79.32013,
            41.1969
          ],
          [
            -79.32743,
            41.19768
          ],
          [
            -79.32877,
            41.19745
          ],
          [
            -79.33143,
            41.19664
          ],
          [
            -79.33222,
            41.19663
          ],
          [
            -79.33317,
            41.19695
          ],
          [
            -79.33364,
            41.19742
          ],
          [
            -79.33383,
            41.198
          ],
          [
            -79.3344,
            41.2028
          ],
          [
            -79.33514,
            41.20387
          ],
          [
            -79.33633,
            41.20464
          ],
          [
            -79.33808,
            41.20503
          ],
          [
            -79.3422,
            41.20538
          ],
          [
            -79.34324,
            41.20527
          ],
          [
            -79.34404,
            41.20503
          ],
          [
            -79.34767,
            41.20308
          ],
          [
            -79.35233,
            41.20222
          ],
          [
            -79.35498,
            41.20094
          ],
          [
            -79.3565,
            41.2007
          ],
          [
            -79.35774,
            41.20102
          ],
          [
            -79.36019,
            41.20249
          ],
          [
            -79.3635,
            41.2031
          ],
          [
            -79.36627,
            41.20313
          ],
          [
            -79.37212,
            41.20513
          ],
          [
            -79.37304,
            41.20576
          ],
          [
            -79.37329,
            41.20646
          ],
          [
            -79.37331,
            41.20758
          ],
          [
            -79.37372,
            41.20825
          ]
        ]
      }
    },
    {
      "type": "Feature",
      "properties": {
        "company": "Lake Erie, Franklin and Clarion Railroad",
        "line": "Lake Erie, Franklin and Clarion: Sutton - Heidrick branch",
        "id": "lefc-sutton-heidrick-branch",
        "color": "#4A7C59",
        "mode": "intercity_rail",
        "avg_speed_kmh": 20,
        "speed_source": "estimated: a short industrial branch; unsourced",
        "segments": [
          {
            "start": 1913,
            "end": 1993,
            "headway_min": 1440,
            "note": "The short branch from Sutton to Heidrick, about half a mile. Its build date was not found, so it is drawn for the whole Lake Erie, Franklin and Clarion era; frequency estimated, unsourced"
          }
        ]
      },
      "geometry": {
        "type": "LineString",
        "coordinates": [
          [
            -79.21409,
            41.14974
          ],
          [
            -79.21401,
            41.15053
          ],
          [
            -79.21413,
            41.15112
          ],
          [
            -79.21536,
            41.15286
          ],
          [
            -79.21547,
            41.15519
          ],
          [
            -79.21586,
            41.15621
          ]
        ]
      }
    }
  ]
}
