{
 "type": "FeatureCollection",
 "metadata": {
  "note": "The Milwaukee Road's Wisconsin Valley Division - New Lisbon, Wisconsin Rapids, Junction City, Wausau, Merrill - and the North Woods Hiawatha that ran it. Wausau was one of the map's measured coverage holes, with no drawn passenger line within 200 km in any era, although the Wisconsin Valley Railroad had reached it in 1874 and the Milwaukee Road ran trains here until 1970. The layer is split at Wausau because the two halves lost their service fourteen years apart: the train was cut back to Wausau on April 29 1956, and the southern half carried on to 1970.",
  "sources": [
   "https://en.wikipedia.org/wiki/North_Woods_Hiawatha",
   "https://www.american-rails.com/woods.html",
   "https://en.wikipedia.org/wiki/Wausau_station",
   "http://riptrack.net/wisconsin-19th",
   "https://tomahawkhistoricalsoc.org/custom/sturdevantchandler/railroads.html"
  ],
  "geometry_sources": [
   "Traced from OpenStreetMap route relations 5816813 (CN Valley Subdivision, the ex-Milwaukee Road Wisconsin Valley line) and 9420940 (UP Adams Subdivision, the ex-Milwaukee main line at New Lisbon), stitched into one graph, Dijkstra between terminals, Douglas-Peucker at 15 m."
  ],
  "not_yet_sourced": [
   "No North Woods Hiawatha timetable was found, so both avg_speed_kmh values and every headway_min in this file are estimates.",
   "Merrill - Tomahawk - Minocqua - Star Lake, the northern 60-odd miles of the North Woods Hiawatha's route, is abandoned, absent from OSM and not drawn. The train's documented 187-mile length is therefore only about 118 miles on the map.",
   "The original Wisconsin Valley Railroad ran from Tomah, not New Lisbon; the Tomah - New Lisbon end of the 1873-74 line is not drawn, and the 1874-1936 segment is drawn on the New Lisbon connection the Milwaukee Road used later.",
   "The Chicago and North Western also served Wausau and is not drawn."
  ],
  "passenger_only_rule": "Drawn to 1956 north of Wausau and 1970 south of it, when the Milwaukee Road's service ended. CN still runs freight over the whole line; that is not drawn."
 },
 "features": [
  {
   "type": "Feature",
   "properties": {
    "company": "Chicago, Milwaukee, St. Paul and Pacific Railroad",
    "line": "Milwaukee Road: Wisconsin Valley Division (New Lisbon – Wausau)",
    "id": "milw-new-lisbon-wausau",
    "color": "#C25E00",
    "mode": "intercity_rail",
    "avg_speed_kmh": 70,
    "speed_source": "Estimated. No North Woods Hiawatha timetable was found; 70 km/h is a guess for a streamlined train making eight or nine stops in 92 miles, and the pre-1936 local trains were slower.",
    "segments": [
     {
      "start": 1874,
      "end": 1936,
      "headway_min": 720,
      "note": "Built by the Wisconsin Valley Railroad out of Tomah - construction began 1872, 45 miles were open to Wisconsin Rapids in 1873, and the line was completed to Wausau by way of Junction City in 1874, with Merrill beyond. The Milwaukee Road took it over and ran it as its Wisconsin Valley Division, connecting with the Chicago main line at New Lisbon - which is where this trace starts, rather than at Tomah where the original railroad did. headway_min is an unsourced estimate.",
      "sources": [
       "Segment-level: the 1872 construction start, the 1873 opening to Wisconsin Rapids and the 1874 completion to Wausau via Junction City are from the Rip Track Wisconsin railroad timeline and the Tomahawk Area Historical Society; the Wisconsin Valley Division name and the New Lisbon connection are from the Wikipedia Wausau station article. headway_min and avg_speed_kmh are estimates.",
       "http://riptrack.net/wisconsin-19th",
       "https://en.wikipedia.org/wiki/Wausau_station"
      ]
     },
     {
      "start": 1936,
      "end": 1956,
      "headway_min": 1440,
      "note": "The North Woods Hiawatha, the first new route to take the Hiawatha name, ran from 1936 over the 187 miles from New Lisbon up the Wisconsin Valley through Babcock, Wisconsin Rapids, Junction City, Wausau, Merrill and Tomahawk to Minocqua and Star Lake. headway_min 1440 counts the one Hiawatha each way; local trains ran besides it.",
      "sources": [
       "Segment-level: the 1936 start, the 187-mile New Lisbon - Star Lake route, the station list and the April 29 1956 end of the Hiawatha name are from the Wikipedia North Woods Hiawatha article and american-rails.com. avg_speed_kmh is an estimate - no timetable running time was found.",
       "https://en.wikipedia.org/wiki/North_Woods_Hiawatha",
       "https://www.american-rails.com/woods.html"
      ]
     },
     {
      "start": 1956,
      "end": 1970,
      "headway_min": 1440,
      "note": "On April 29 1956 the Hiawatha name was dropped and the train cut back to Wausau; unnamed local service over this southern half continued until the Milwaukee Road discontinued it altogether in 1970. Wausau - Merrill and everything north lost its passenger service in 1956 and is drawn as the separate northern feature in this file.",
      "sources": [
       "Segment-level: the April 29 1956 name drop and cut-back to Wausau, and the 1970 discontinuance, are from the Wikipedia North Woods Hiawatha article and american-rails.com. headway_min is an estimate.",
       "https://en.wikipedia.org/wiki/North_Woods_Hiawatha",
       "https://www.american-rails.com/woods.html"
      ]
     }
    ],
    "geometry_source": "Traced from OpenStreetMap route relations 5816813 (CN Valley Subdivision, the ex-Milwaukee Road Wisconsin Valley line) and 9420940 (UP Adams Subdivision, the ex-Milwaukee main line at New Lisbon), stitched into one graph, Dijkstra between terminals, Douglas-Peucker at 15 m.",
    "geometry_quality": "92.3 traced miles New Lisbon - Wausau on the present-day CN Valley Subdivision, the ex-Milwaukee Road alignment, passing within 1.8 km of Babcock, Wisconsin Rapids and Junction City. No straight-line legs over 3.1 km. The North Woods Hiawatha's own documented length is 187 miles New Lisbon - Star Lake, of which this feature is the southern half and the Wausau - Merrill feature the next 26 miles; the rest, Merrill to Minocqua and Star Lake, is abandoned and not in OSM, so it is not drawn."
   },
   "geometry": {
    "type": "LineString",
    "coordinates": [
     [
      -90.15764,
      43.87649
     ],
     [
      -90.08534,
      43.99202
     ],
     [
      -90.06741,
      44.01715
     ],
     [
      -90.06699,
      44.0184
     ],
     [
      -90.06843,
      44.02344
     ],
     [
      -90.06972,
      44.02459
     ],
     [
      -90.0725,
      44.02606
     ],
     [
      -90.07619,
      44.03036
     ],
     [
      -90.07771,
      44.03355
     ],
     [
      -90.08099,
      44.03532
     ],
     [
      -90.08186,
      44.03628
     ],
     [
      -90.13054,
      44.14294
     ],
     [
      -90.13116,
      44.14778
     ],
     [
      -90.14081,
      44.26625
     ],
     [
      -90.14067,
      44.26788
     ],
     [
      -90.13995,
      44.26969
     ],
     [
      -90.12594,
      44.2958
     ],
     [
      -90.12362,
      44.29821
     ],
     [
      -90.12078,
      44.29951
     ],
     [
      -89.89681,
      44.33994
     ],
     [
      -89.86847,
      44.34045
     ],
     [
      -89.86649,
      44.34099
     ],
     [
      -89.86524,
      44.34194
     ],
     [
      -89.8646,
      44.34365
     ],
     [
      -89.86509,
      44.36445
     ],
     [
      -89.86463,
      44.36596
     ],
     [
      -89.8466,
      44.38447
     ],
     [
      -89.83203,
      44.39607
     ],
     [
      -89.83024,
      44.39822
     ],
     [
      -89.8304,
      44.39981
     ],
     [
      -89.83353,
      44.40413
     ],
     [
      -89.84368,
      44.41057
     ],
     [
      -89.84447,
      44.41181
     ],
     [
      -89.84445,
      44.41415
     ],
     [
      -89.84329,
      44.41571
     ],
     [
      -89.84151,
      44.41635
     ],
     [
      -89.8265,
      44.41658
     ],
     [
      -89.82308,
      44.4185
     ],
     [
      -89.82218,
      44.41949
     ],
     [
      -89.80085,
      44.4843
     ],
     [
      -89.80067,
      44.48831
     ],
     [
      -89.80357,
      44.49901
     ],
     [
      -89.80337,
      44.50135
     ],
     [
      -89.79887,
      44.50962
     ],
     [
      -89.77708,
      44.56284
     ],
     [
      -89.77665,
      44.56409
     ],
     [
      -89.77572,
      44.57024
     ],
     [
      -89.77204,
      44.57938
     ],
     [
      -89.77089,
      44.58132
     ],
     [
      -89.76242,
      44.59271
     ],
     [
      -89.75821,
      44.60597
     ],
     [
      -89.75716,
      44.60816
     ],
     [
      -89.73183,
      44.64789
     ],
     [
      -89.73147,
      44.64939
     ],
     [
      -89.73149,
      44.65275
     ],
     [
      -89.73426,
      44.66376
     ],
     [
      -89.73406,
      44.66583
     ],
     [
      -89.72937,
      44.67296
     ],
     [
      -89.72244,
      44.67819
     ],
     [
      -89.72075,
      44.67983
     ],
     [
      -89.70302,
      44.70242
     ],
     [
      -89.69866,
      44.70929
     ],
     [
      -89.6987,
      44.71056
     ],
     [
      -89.70143,
      44.71497
     ],
     [
      -89.70178,
      44.71614
     ],
     [
      -89.70323,
      44.74786
     ],
     [
      -89.70369,
      44.74998
     ],
     [
      -89.70625,
      44.75664
     ],
     [
      -89.7103,
      44.77124
     ],
     [
      -89.71033,
      44.77292
     ],
     [
      -89.70947,
      44.77561
     ],
     [
      -89.7079,
      44.77771
     ],
     [
      -89.69718,
      44.78566
     ],
     [
      -89.69626,
      44.78684
     ],
     [
      -89.69475,
      44.79007
     ],
     [
      -89.69285,
      44.79242
     ],
     [
      -89.69122,
      44.79359
     ],
     [
      -89.68783,
      44.79528
     ],
     [
      -89.68615,
      44.79675
     ],
     [
      -89.64485,
      44.85834
     ],
     [
      -89.63822,
      44.86982
     ],
     [
      -89.62778,
      44.88669
     ],
     [
      -89.62602,
      44.88853
     ],
     [
      -89.61544,
      44.89621
     ],
     [
      -89.61394,
      44.89762
     ],
     [
      -89.60837,
      44.90782
     ],
     [
      -89.60167,
      44.91843
     ],
     [
      -89.6007,
      44.93257
     ],
     [
      -89.60129,
      44.9343
     ],
     [
      -89.60296,
      44.93632
     ],
     [
      -89.61368,
      44.94418
     ],
     [
      -89.61554,
      44.94614
     ],
     [
      -89.61648,
      44.94825
     ],
     [
      -89.61863,
      44.95923
     ],
     [
      -89.62059,
      44.96357
     ],
     [
      -89.62187,
      44.96435
     ],
     [
      -89.62869,
      44.96642
     ]
    ]
   }
  },
  {
   "type": "Feature",
   "properties": {
    "company": "Chicago, Milwaukee, St. Paul and Pacific Railroad",
    "line": "Milwaukee Road: Wisconsin Valley Division (Wausau – Merrill)",
    "id": "milw-wausau-merrill",
    "color": "#C25E00",
    "mode": "intercity_rail",
    "avg_speed_kmh": 70,
    "speed_source": "Estimated, same basis as the New Lisbon - Wausau feature.",
    "segments": [
     {
      "start": 1874,
      "end": 1936,
      "headway_min": 720,
      "note": "Built by the Wisconsin Valley Railroad out of Tomah - construction began 1872, 45 miles were open to Wisconsin Rapids in 1873, and the line was completed to Wausau by way of Junction City in 1874, with Merrill beyond. The Milwaukee Road took it over and ran it as its Wisconsin Valley Division, connecting with the Chicago main line at New Lisbon - which is where this trace starts, rather than at Tomah where the original railroad did. headway_min is an unsourced estimate.",
      "sources": [
       "Segment-level: the 1872 construction start, the 1873 opening to Wisconsin Rapids and the 1874 completion to Wausau via Junction City are from the Rip Track Wisconsin railroad timeline and the Tomahawk Area Historical Society; the Wisconsin Valley Division name and the New Lisbon connection are from the Wikipedia Wausau station article. headway_min and avg_speed_kmh are estimates.",
       "http://riptrack.net/wisconsin-19th",
       "https://en.wikipedia.org/wiki/Wausau_station"
      ]
     },
     {
      "start": 1936,
      "end": 1956,
      "headway_min": 1440,
      "note": "The North Woods Hiawatha, the first new route to take the Hiawatha name, ran from 1936 over the 187 miles from New Lisbon up the Wisconsin Valley through Babcock, Wisconsin Rapids, Junction City, Wausau, Merrill and Tomahawk to Minocqua and Star Lake. headway_min 1440 counts the one Hiawatha each way; local trains ran besides it. This feature is the stretch north of Wausau, which lost its passenger service when the train was cut back on April 29 1956 - which is why it is drawn separately and ends fourteen years before the southern half.",
      "sources": [
       "Segment-level: the 1936 start, the 187-mile New Lisbon - Star Lake route, the station list and the April 29 1956 end of the Hiawatha name are from the Wikipedia North Woods Hiawatha article and american-rails.com. avg_speed_kmh is an estimate - no timetable running time was found.",
       "https://en.wikipedia.org/wiki/North_Woods_Hiawatha",
       "https://www.american-rails.com/woods.html"
      ]
     }
    ],
    "geometry_source": "Traced from OpenStreetMap route relations 5816813 (CN Valley Subdivision, the ex-Milwaukee Road Wisconsin Valley line) and 9420940 (UP Adams Subdivision, the ex-Milwaukee main line at New Lisbon), stitched into one graph, Dijkstra between terminals, Douglas-Peucker at 15 m.",
    "geometry_quality": "26.0 traced miles Wausau - Merrill on the ex-Milwaukee Road alignment; the trace passes within 0.1 km of Merrill and ends where the CN Valley Subdivision relation ends, a few miles north of it. The line beyond, through Tomahawk to Minocqua and Star Lake, is abandoned and not drawn."
   },
   "geometry": {
    "type": "LineString",
    "coordinates": [
     [
      -89.62869,
      44.96642
     ],
     [
      -89.62946,
      44.96701
     ],
     [
      -89.62979,
      44.96774
     ],
     [
      -89.62985,
      44.96992
     ],
     [
      -89.62792,
      44.97737
     ],
     [
      -89.61903,
      44.98679
     ],
     [
      -89.61826,
      44.98817
     ],
     [
      -89.61822,
      44.98945
     ],
     [
      -89.62061,
      45.00177
     ],
     [
      -89.62355,
      45.00707
     ],
     [
      -89.62743,
      45.01115
     ],
     [
      -89.63181,
      45.018
     ],
     [
      -89.63285,
      45.01914
     ],
     [
      -89.63895,
      45.02326
     ],
     [
      -89.64227,
      45.02515
     ],
     [
      -89.64869,
      45.0266
     ],
     [
      -89.65502,
      45.02912
     ],
     [
      -89.65624,
      45.03
     ],
     [
      -89.65683,
      45.03136
     ],
     [
      -89.6555,
      45.03423
     ],
     [
      -89.65466,
      45.03525
     ],
     [
      -89.64706,
      45.04087
     ],
     [
      -89.6459,
      45.04203
     ],
     [
      -89.64391,
      45.05018
     ],
     [
      -89.64236,
      45.05428
     ],
     [
      -89.64147,
      45.0559
     ],
     [
      -89.6395,
      45.05831
     ],
     [
      -89.63726,
      45.06295
     ],
     [
      -89.63624,
      45.06593
     ],
     [
      -89.63514,
      45.06781
     ],
     [
      -89.62642,
      45.07454
     ],
     [
      -89.62278,
      45.07593
     ],
     [
      -89.6212,
      45.07684
     ],
     [
      -89.62018,
      45.07785
     ],
     [
      -89.61958,
      45.07912
     ],
     [
      -89.61965,
      45.08069
     ],
     [
      -89.62072,
      45.08248
     ],
     [
      -89.62519,
      45.08489
     ],
     [
      -89.62581,
      45.08544
     ],
     [
      -89.62623,
      45.08645
     ],
     [
      -89.62524,
      45.09151
     ],
     [
      -89.62479,
      45.10954
     ],
     [
      -89.62659,
      45.12177
     ],
     [
      -89.6254,
      45.13089
     ],
     [
      -89.62561,
      45.1327
     ],
     [
      -89.62618,
      45.13408
     ],
     [
      -89.63378,
      45.14627
     ],
     [
      -89.63714,
      45.1511
     ],
     [
      -89.65267,
      45.16572
     ],
     [
      -89.65383,
      45.16718
     ],
     [
      -89.65446,
      45.16861
     ],
     [
      -89.65533,
      45.17513
     ],
     [
      -89.65598,
      45.17609
     ],
     [
      -89.65785,
      45.17744
     ],
     [
      -89.66018,
      45.17851
     ],
     [
      -89.6627,
      45.1789
     ],
     [
      -89.6717,
      45.17808
     ],
     [
      -89.68561,
      45.1797
     ],
     [
      -89.69128,
      45.17877
     ],
     [
      -89.69446,
      45.17973
     ],
     [
      -89.69587,
      45.18094
     ],
     [
      -89.69625,
      45.18257
     ],
     [
      -89.69618,
      45.18703
     ],
     [
      -89.69537,
      45.18884
     ],
     [
      -89.69124,
      45.1928
     ],
     [
      -89.67824,
      45.19975
     ],
     [
      -89.67496,
      45.20385
     ],
     [
      -89.67441,
      45.20526
     ],
     [
      -89.67225,
      45.21921
     ],
     [
      -89.67252,
      45.22092
     ],
     [
      -89.67977,
      45.24148
     ],
     [
      -89.69753,
      45.26969
     ],
     [
      -89.69789,
      45.27096
     ],
     [
      -89.69774,
      45.27453
     ]
    ]
   }
  }
 ]
}