{"type": "FeatureCollection", "metadata": {"note": "The Mobile and Ohio main line through Tupelo -- the north-south half of the crossing that created the town, and the reason it is there at all: the place was settled as 'Gum Pond' along the M&O, founded 1860 and incorporated 1870. Chartered in 1848 to link the port of Mobile with the Ohio River, the M&O reached Columbus, Kentucky on Apr 22 1861. It merged with the Gulf, Mobile and Northern as the Gulf, Mobile and Ohio, effective 1940, whose Gulf Coast Rebel served Tupelo into the late 1950s. GM&O went into the Illinois Central Gulf in 1972. Only the Corinth-Tupelo-Meridian portion is drawn. See frisco_memphis_birmingham.geojson for the east-west line that crossed it.", "sources": ["https://en.wikipedia.org/wiki/Mobile_and_Ohio_Railroad (chartered January and February 1848 by Alabama, Kentucky, Mississippi and Tennessee to span Mobile to the Ohio River near Cairo; first section Mobile to Citronelle opened 1852; reached Columbus, Kentucky Apr 22 1861 with steamboat connection to the Illinois Central at Cairo)", "https://en.wikipedia.org/wiki/Gulf,_Mobile_and_Ohio_Railroad (GM&O incorporated 1938 to merge the Gulf, Mobile and Northern and the Mobile and Ohio; named trains included the Gulf Coast Rebel, originally Mobile to Union, Mississippi, later extended to St. Louis; merged into the Illinois Central Aug 10 1972 forming the Illinois Central Gulf)", "https://en.wikipedia.org/wiki/Tupelo,_Mississippi (Tupelo founded 1860, incorporated 1870, settled as 'Gum Pond' along the Mobile and Ohio Railroad; served into the late 1950s by the GM&O's Gulf Coast Rebel)"], "not_yet_sourced": "Headways are estimates and no timetable has been consulted. The 1958 end is NOT a documented last train: the only anchor is that the Gulf Coast Rebel served Tupelo 'into the late 1950s', and the documented end of passenger service in northeast Mississippi (Dec 9 1967) belongs to the Frisco's Southland on the other railroad, not to this one. When GM&O passenger service through Tupelo actually stopped is unknown. The 1861 start is when the M&O completed its through line to Kentucky; when track first reached Tupelo itself is not established, though the town was settled along the line by 1860. Only Corinth-Meridian is drawn, not the full Mobile-Columbus main line."}, "features": [{"type": "Feature", "properties": {"company": "Mobile and Ohio Railroad", "line": "Mobile and Ohio: Corinth \u2013 Meridian", "id": "mo-corinth-tupelo-meridian", "color": "#8C5E3C", "mode": "intercity_rail", "avg_speed_kmh": 40, "speed_source": "estimated: 19th-century southern main line; unsourced", "geometry_source": "Real-traced from OpenStreetMap (ODbL) via Overpass along the Artesia Subdivision and CPKC Artesia Subdivision, the surviving Mobile and Ohio main line, routed Corinth - Tupelo - Meridian.", "geometry_quality": "Real-traced, 1450 points; 5% of the drawn length (9.7 mi across 17 places) is straight-line connector inserted where the mapped way network breaks. Traced 196.0 mi. This is the Mississippi portion of the M&O only -- the full Mobile-to-Columbus-Kentucky main line and the Gulf Coast Rebel's run north to St. Louis are NOT drawn. LATER ALIGNMENT: the corridor as it survives today, not a verified 1861 alignment. Straight-line repair 2026-08-29: 1 ruled segment totalling 10 mi replaced with OpenStreetMap-traced rail geometry (see geometry_repairs for the OSM lines each one followed).", "segments": [{"start": 1861, "end": 1940, "headway_min": 480, "note": "Chartered in January and February 1848 by Alabama, Kentucky, Mississippi and Tennessee to run from the port of Mobile to the Ohio River, the M&O opened its first stretch, Mobile to Citronelle, in 1852 and reached Columbus, Kentucky on Apr 22 1861, connecting there by steamboat to the Illinois Central at Cairo. Tupelo owes its existence to this line: the place was settled as 'Gum Pond' along the M&O, founded in 1860 and incorporated in 1870. Frequency estimated/unsourced", "sources": ["Segment-level: this segment's own note carries the citation for its dates and service. Supporting references for the line:", "https://en.wikipedia.org/wiki/Mobile_and_Ohio_Railroad", "https://en.wikipedia.org/wiki/Gulf,_Mobile_and_Ohio_Railroad", "https://en.wikipedia.org/wiki/Tupelo,_Mississippi"]}], "geometry_repairs": [{"date": "2026-08-29", "from": [-88.683554, 34.364035], "to": [-88.710681, 34.22005], "chord_mi": 10.07, "traced_mi": 10.09, "snap_m": [0, 0], "bridged_mi": 0.0, "osm_lines": ["Artesia Subdivision (10.09 mi)"], "method": "Overpass rail graph, 8.0 km corridor, Dijkstra, simplified to 3.0 m"}]}, "geometry": {"type": "LineString", "coordinates": [[-88.522558, 34.934132], [-88.522523, 34.934027], [-88.521928, 34.93222], [-88.521862, 34.93202], [-88.521772, 34.931726], [-88.521467, 34.930806], [-88.519417, 34.92456], [-88.519253, 34.924107], [-88.519157, 34.923814], [-88.519086, 34.923566], [-88.518723, 34.922453], [-88.517682, 34.919309], [-88.517121, 34.917622], [-88.516736, 34.916429], [-88.516471, 34.915613], [-88.515943, 34.914029], [-88.515455, 34.912511], [-88.515314, 34.912087], [-88.515033, 34.911206], [-88.514459, 34.909336], [-88.514293, 34.908793], [-88.514194, 34.908347], [-88.513843, 34.906518], [-88.513626, 34.905092], [-88.513524, 34.904399], [-88.513086, 34.901564], [-88.512397, 34.89728], [-88.512082, 34.896474], [-88.51073, 34.894225], [-88.510372, 34.893079], [-88.510008, 34.889722], [-88.509923, 34.889115], [-88.509787, 34.888413], [-88.50959, 34.887794], [-88.509302, 34.887119], [-88.508809, 34.886135], [-88.507977, 34.884475], [-88.507011, 34.882173], [-88.506964, 34.882039], [-88.504528, 34.875089], [-88.503554, 34.872311], [-88.503372, 34.871793], [-88.500573, 34.863738], [-88.500456, 34.863397], [-88.500206, 34.862685], [-88.499812, 34.861508], [-88.499343, 34.859887], [-88.498412, 34.855446], [-88.498232, 34.854543], [-88.498007, 34.853495], [-88.497844, 34.852664], [-88.497727, 34.851874], [-88.497673, 34.851098], [-88.497655, 34.850292], [-88.497694, 34.849508], [-88.497775, 34.848755], [-88.497916, 34.848011], [-88.498177, 34.846787], [-88.498498, 34.845861], [-88.498758, 34.845205], [-88.499108, 34.844454], [-88.499351, 34.843994], [-88.499669, 34.84345], [-88.500038, 34.842868], [-88.50071, 34.841919], [-88.501786, 34.840497], [-88.502474, 34.839639], [-88.505064, 34.836218], [-88.507358, 34.833188], [-88.512102, 34.826923], [-88.516705, 34.820843], [-88.521344, 34.814554], [-88.521763, 34.813901], [-88.52221, 34.813191], [-88.523366, 34.811328], [-88.523425, 34.811198], [-88.524399, 34.809063], [-88.524753, 34.808108], [-88.52507, 34.807255], [-88.525567, 34.80558], [-88.527142, 34.800275], [-88.527269, 34.799661], [-88.527817, 34.797001], [-88.527841, 34.796808], [-88.528044, 34.795169], [-88.527855, 34.787506], [-88.527824, 34.786953], [-88.527566, 34.782335], [-88.527316, 34.777878], [-88.526941, 34.771129], [-88.526757, 34.767832], [-88.526583, 34.764535], [-88.526558, 34.763963], [-88.526502, 34.763057], [-88.526469, 34.762359], [-88.526243, 34.758423], [-88.526108, 34.755938], [-88.525786, 34.750096], [-88.525687, 34.748429], [-88.525517, 34.745407], [-88.525459, 34.744032], [-88.525321, 34.741151], [-88.525209, 34.738582], [-88.525272, 34.737458], [-88.525413, 34.736199], [-88.525693, 34.73422], [-88.525999, 34.732893], [-88.527148, 34.728599], [-88.527604, 34.726844], [-88.52926, 34.720728], [-88.530101, 34.717661], [-88.530441, 34.716372], [-88.531209, 34.713829], [-88.531815, 34.712294], [-88.532124, 34.711594], [-88.532605, 34.710597], [-88.533149, 34.709586], [-88.533855, 34.708387], [-88.534369, 34.707592], [-88.535081, 34.706581], [-88.536362, 34.704912], [-88.537007, 34.704158], [-88.538962, 34.7019], [-88.539461, 34.701318], [-88.540114, 34.700546], [-88.540635, 34.699863], [-88.54114, 34.699146], [-88.541582, 34.698393], [-88.54209, 34.697378], [-88.542663, 34.695938], [-88.543522, 34.693112], [-88.543749, 34.692568], [-88.543995, 34.692188], [-88.544374, 34.69171], [-88.544842, 34.691209], [-88.545353, 34.690781], [-88.546449, 34.689916], [-88.546933, 34.689472], [-88.54741, 34.688941], [-88.547685, 34.688541], [-88.547918, 34.688117], [-88.548119, 34.687606], [-88.548632, 34.686133], [-88.549014, 34.685036], [-88.549542, 34.683521], [-88.54985, 34.682781], [-88.550226, 34.682014], [-88.550835, 34.680965], [-88.551495, 34.679957], [-88.553771, 34.676562], [-88.554038, 34.676142], [-88.554721, 34.674973], [-88.555339, 34.67371], [-88.555443, 34.673385], [-88.555705, 34.672565], [-88.555889, 34.671916], [-88.556232, 34.670609], [-88.556643, 34.669004], [-88.557684, 34.664916], [-88.558038, 34.663555], [-88.558131, 34.663166], [-88.558566, 34.661466], [-88.558796, 34.660525], [-88.558915, 34.660034], [-88.559037, 34.659576], [-88.559172, 34.659084], [-88.559336, 34.658561], [-88.559583, 34.657981], [-88.559797, 34.657563], [-88.560092, 34.65708], [-88.560412, 34.656633], [-88.560763, 34.656216], [-88.561156, 34.6558], [-88.561534, 34.655443], [-88.562057, 34.655026], [-88.562295, 34.654849], [-88.562788, 34.654531], [-88.563439, 34.654096], [-88.56383, 34.653817], [-88.564171, 34.653509], [-88.564515, 34.653148], [-88.564627, 34.65302], [-88.564858, 34.652727], [-88.56518, 34.65222], [-88.56543, 34.651725], [-88.56618, 34.650152], [-88.566382, 34.649767], [-88.56672, 34.6493], [-88.566979, 34.648992], [-88.567217, 34.648745], [-88.568335, 34.64765], [-88.568853, 34.647111], [-88.569166, 34.646754], [-88.569432, 34.64642], [-88.569624, 34.646131], [-88.569755, 34.645905], [-88.569942, 34.645518], [-88.570099, 34.645085], [-88.570211, 34.644668], [-88.57055, 34.643296], [-88.571091, 34.640669], [-88.571159, 34.640426], [-88.571317, 34.639889], [-88.571841, 34.638314], [-88.572264, 34.637072], [-88.572749, 34.635651], [-88.573367, 34.633796], [-88.573794, 34.632946], [-88.573869, 34.632796], [-88.574035, 34.632469], [-88.574319, 34.631936], [-88.574941, 34.630972], [-88.575403, 34.630319], [-88.576113, 34.629459], [-88.576968, 34.628575], [-88.577596, 34.627992], [-88.578074, 34.627577], [-88.5792, 34.626706], [-88.581163, 34.62544], [-88.582079, 34.624849], [-88.584961, 34.622975], [-88.586172, 34.622191], [-88.591132, 34.618944], [-88.591633, 34.618622], [-88.592022, 34.61837], [-88.593141, 34.617637], [-88.595036, 34.616383], [-88.595796, 34.615798], [-88.596026, 34.61562], [-88.597491, 34.614275], [-88.598289, 34.613381], [-88.598519, 34.613093], [-88.600033, 34.610588], [-88.600783, 34.609032], [-88.603484, 34.600745], [-88.604183, 34.598257], [-88.604722, 34.596336], [-88.606309, 34.591291], [-88.607988, 34.585755], [-88.608076, 34.585482], [-88.608525, 34.584011], [-88.609152, 34.581996], [-88.609216, 34.581776], [-88.609664, 34.580326], [-88.610509, 34.577525], [-88.612225, 34.572153], [-88.613783, 34.566958], [-88.613871, 34.566667], [-88.614674, 34.56405], [-88.616873, 34.557205], [-88.618306, 34.552288], [-88.61918, 34.549536], [-88.61986, 34.547397], [-88.620436, 34.545502], [-88.620688, 34.544688], [-88.621595, 34.541781], [-88.621989, 34.540474], [-88.622669, 34.538252], [-88.622701, 34.538148], [-88.622765, 34.537942], [-88.62366, 34.534976], [-88.624454, 34.532507], [-88.624785, 34.531435], [-88.624819, 34.531322], [-88.62579, 34.52813], [-88.626951, 34.524429], [-88.627101, 34.523936], [-88.627226, 34.523526], [-88.627597, 34.522351], [-88.62853, 34.519249], [-88.629879, 34.514977], [-88.630689, 34.51237], [-88.630911, 34.511694], [-88.63117, 34.511021], [-88.631844, 34.509515], [-88.63223, 34.508719], [-88.632623, 34.507926], [-88.633169, 34.506836], [-88.633499, 34.506139], [-88.633778, 34.505438], [-88.633955, 34.504835], [-88.634011, 34.504301], [-88.634023, 34.504068], [-88.633962, 34.50335], [-88.633867, 34.502903], [-88.633049, 34.500656], [-88.632149, 34.498322], [-88.6319, 34.497474], [-88.63176, 34.496647], [-88.631709, 34.496122], [-88.631709, 34.495466], [-88.631806, 34.494776], [-88.632282, 34.492264], [-88.633306, 34.486978], [-88.63364, 34.485251], [-88.634682, 34.479871], [-88.634982, 34.478295], [-88.635394, 34.476281], [-88.635726, 34.474397], [-88.635937, 34.473465], [-88.636214, 34.472545], [-88.636511, 34.47173], [-88.636742, 34.471216], [-88.637262, 34.470203], [-88.638008, 34.469001], [-88.639003, 34.467675], [-88.639837, 34.466502], [-88.640355, 34.465773], [-88.640815, 34.465185], [-88.642699, 34.462782], [-88.647018, 34.457274], [-88.648266, 34.455682], [-88.649379, 34.454262], [-88.651013, 34.451881], [-88.651831, 34.450785], [-88.65363, 34.448373], [-88.653758, 34.448201], [-88.654002, 34.447875], [-88.65411, 34.447744], [-88.65422, 34.44761], [-88.654316, 34.447494], [-88.655494, 34.445949], [-88.655896, 34.44541], [-88.656436, 34.44469], [-88.658255, 34.442309], [-88.659471, 34.440715], [-88.661054, 34.438617], [-88.662867, 34.436241], [-88.663077, 34.435987], [-88.663871, 34.435114], [-88.664721, 34.434273], [-88.665199, 34.433863], [-88.665574, 34.433551], [-88.665885, 34.433306], [-88.667211, 34.432276], [-88.667896, 34.431641], [-88.668468, 34.430988], [-88.668946, 34.430292], [-88.669373, 34.429493], [-88.670594, 34.426913], [-88.672269, 34.423328], [-88.672593, 34.42262], [-88.673176, 34.421505], [-88.674064, 34.419457], [-88.674196, 34.419183], [-88.675698, 34.416039], [-88.676112, 34.415148], [-88.676254, 34.414838], [-88.677141, 34.412886], [-88.677445, 34.412095], [-88.6776, 34.411623], [-88.678049, 34.409403], [-88.678123, 34.408399], [-88.678127, 34.407925], [-88.677949, 34.405981], [-88.677823, 34.405286], [-88.677078, 34.402381], [-88.676916, 34.401769], [-88.676329, 34.399457], [-88.675783, 34.397353], [-88.675699, 34.396858], [-88.675557, 34.395764], [-88.675598, 34.394186], [-88.675631, 34.393637], [-88.675738, 34.391873], [-88.676134, 34.390343], [-88.676818, 34.387707], [-88.676901, 34.387425], [-88.676953, 34.387247], [-88.677176, 34.386673], [-88.677248, 34.386409], [-88.677553, 34.385323], [-88.677723, 34.384708], [-88.678271, 34.382749], [-88.679386, 34.378751], [-88.679563, 34.378141], [-88.679696, 34.377705], [-88.680113, 34.376259], [-88.680454, 34.375103], [-88.680996, 34.373104], [-88.681469, 34.371397], [-88.681733, 34.370471], [-88.683554, 34.364035], [-88.6879064, 34.3484927], [-88.689411, 34.34008], [-88.691793, 34.324783], [-88.692568, 34.320341], [-88.6942496, 34.3098098], [-88.6980952, 34.28671], [-88.700066, 34.275505], [-88.7007799, 34.2703862], [-88.7084066, 34.2249736], [-88.708736, 34.2234014], [-88.7091248, 34.2223182], [-88.709519, 34.221509], [-88.7100258, 34.2208131], [-88.710681, 34.22005], [-88.712859, 34.217734], [-88.715077, 34.215385], [-88.715543, 34.214825], [-88.715808, 34.214441], [-88.716051, 34.213976], [-88.716251, 34.213491], [-88.716386, 34.213021], [-88.716468, 34.212533], [-88.716511, 34.211166], [-88.716537, 34.210376], [-88.716625, 34.20987], [-88.716856, 34.209115], [-88.717889, 34.206433], [-88.718014, 34.206075], [-88.718329, 34.203825], [-88.718444, 34.203], [-88.718802, 34.201339], [-88.718959, 34.200294], [-88.719022, 34.199645], [-88.719037, 34.199016], [-88.719001, 34.198339], [-88.718913, 34.197638], [-88.718761, 34.196909], [-88.718455, 34.195913], [-88.718175, 34.195233], [-88.717618, 34.193943], [-88.717186, 34.192923], [-88.716946, 34.192298], [-88.71654, 34.190919], [-88.71642, 34.190182], [-88.716327, 34.189775], [-88.716212, 34.188518], [-88.716184, 34.187137], [-88.716201, 34.185671], [-88.716156, 34.184661], [-88.716147, 34.184048], [-88.716125, 34.181783], [-88.716078, 34.178196], [-88.71607, 34.177901], [-88.716044, 34.177715], [-88.716045, 34.177574], [-88.716003, 34.177056], [-88.715973, 34.176662], [-88.715049, 34.170579], [-88.715039, 34.170503], [-88.714979, 34.170029], [-88.71496, 34.169879], [-88.714838, 34.168919], [-88.714664, 34.16799], [-88.714426, 34.166507], [-88.714299, 34.165639], [-88.714156, 34.16482], [-88.714132, 34.164681], [-88.713895, 34.163054], [-88.713601, 34.161244], [-88.713553, 34.160882], [-88.713512, 34.160638], [-88.713419, 34.160044], [-88.713352, 34.159618], [-88.713192, 34.15858], [-88.713091, 34.157925], [-88.713038, 34.157603], [-88.713023, 34.157519], [-88.71293, 34.156865], [-88.712258, 34.152634], [-88.71173, 34.149253], [-88.71124, 34.146088], [-88.710901, 34.143925], [-88.710363, 34.140454], [-88.710267, 34.1397], [-88.709397, 34.13444], [-88.708822, 34.129921], [-88.70895, 34.128575], [-88.709092, 34.127731], [-88.709207, 34.12724], [-88.709682, 34.125899], [-88.710057, 34.125163], [-88.710076, 34.125109], [-88.71021, 34.12478], [-88.710354, 34.124319], [-88.710851, 34.122693], [-88.710951, 34.121871], [-88.710917, 34.121234], [-88.710833, 34.120521], [-88.710698, 34.119831], [-88.710499, 34.118881], [-88.71025, 34.11767], [-88.710233, 34.117457], [-88.710173, 34.117026], [-88.710118, 34.116197], [-88.710114, 34.115349], [-88.71015, 34.114915], [-88.710209, 34.114237], [-88.710555, 34.111985], [-88.711008, 34.109018], [-88.711271, 34.107311], [-88.712286, 34.101299], [-88.712682, 34.100091], [-88.713215, 34.098937], [-88.714716, 34.096277], [-88.715395, 34.095099], [-88.715954, 34.094094], [-88.716293, 34.093097], [-88.716437, 34.092304], [-88.716463, 34.091323], [-88.716448, 34.09087], [-88.716414, 34.090526], [-88.716302, 34.089424], [-88.716276, 34.088844], [-88.716274, 34.087932], [-88.716402, 34.086156], [-88.717537, 34.081833], [-88.718469, 34.078308], [-88.71915, 34.075663], [-88.720388, 34.070971], [-88.722474, 34.063068], [-88.723231, 34.060245], [-88.724029, 34.057703], [-88.724362, 34.05708], [-88.726232, 34.053581], [-88.726975, 34.052619], [-88.727173, 34.052253], [-88.729094, 34.048704], [-88.732446, 34.043362], [-88.733199, 34.042161], [-88.733965, 34.040941], [-88.736716, 34.036292], [-88.738168, 34.033997], [-88.740817, 34.029644], [-88.741327, 34.028786], [-88.741724, 34.028126], [-88.742094, 34.027486], [-88.743026, 34.025717], [-88.743676, 34.024246], [-88.743963, 34.023442], [-88.744415, 34.021854], [-88.744832, 34.020065], [-88.744977, 34.019554], [-88.745353, 34.017784], [-88.745487, 34.016715], [-88.745539, 34.015863], [-88.745575, 34.014726], [-88.745596, 34.013515], [-88.745563, 34.010813], [-88.745543, 34.010313], [-88.745492, 34.009728], [-88.745136, 34.008245], [-88.744996, 34.007702], [-88.744861, 34.007123], [-88.744745, 34.006695], [-88.744525, 34.00614], [-88.744227, 34.005434], [-88.74402, 34.00499], [-88.743725, 34.004269], [-88.74327, 34.002965], [-88.743086, 34.002356], [-88.742875, 34.001655], [-88.742803, 34.001378], [-88.742707, 34.000994], [-88.742617, 34.000607], [-88.742429, 33.999703], [-88.742262, 33.998718], [-88.742216, 33.998421], [-88.741736, 33.995336], [-88.741402, 33.993637], [-88.741063, 33.992356], [-88.740707, 33.991218], [-88.740105, 33.989592], [-88.739541, 33.98829], [-88.739057, 33.987303], [-88.73872, 33.986668], [-88.738004, 33.985407], [-88.736564, 33.983119], [-88.735352, 33.981082], [-88.734943, 33.980329], [-88.734285, 33.978906], [-88.733751, 33.977645], [-88.733497, 33.976923], [-88.733131, 33.975836], [-88.732882, 33.974944], [-88.732615, 33.973884], [-88.732369, 33.972667], [-88.732229, 33.971779], [-88.731978, 33.969921], [-88.731176, 33.964121], [-88.729808, 33.954094], [-88.729764, 33.953737], [-88.729726, 33.953437], [-88.729607, 33.952488], [-88.729302, 33.950781], [-88.728829, 33.948958], [-88.728407, 33.947566], [-88.727657, 33.945622], [-88.727013, 33.944207], [-88.726615, 33.943252], [-88.726395, 33.942679], [-88.726086, 33.941784], [-88.725335, 33.939092], [-88.725075, 33.937739], [-88.724888, 33.936416], [-88.724775, 33.935001], [-88.724261, 33.924503], [-88.723803, 33.911071], [-88.72369, 33.908187], [-88.72354, 33.904541], [-88.723413, 33.903081], [-88.723278, 33.902072], [-88.723018, 33.90063], [-88.722676, 33.899211], [-88.722449, 33.898441], [-88.722232, 33.897725], [-88.721729, 33.896327], [-88.721124, 33.894912], [-88.720459, 33.893544], [-88.720217, 33.893067], [-88.719713, 33.892072], [-88.718763, 33.890395], [-88.711158, 33.875113], [-88.708097, 33.869246], [-88.706454, 33.865662], [-88.697575, 33.848496], [-88.693475, 33.840184], [-88.690682, 33.83397], [-88.686322, 33.824768], [-88.685836, 33.823927], [-88.685403, 33.823258], [-88.684842, 33.822519], [-88.684127, 33.821642], [-88.682921, 33.820393], [-88.682149, 33.819757], [-88.680733, 33.818733], [-88.678893, 33.817658], [-88.677689, 33.817088], [-88.677074, 33.816837], [-88.676251, 33.816531], [-88.674749, 33.816047], [-88.674142, 33.815871], [-88.672888, 33.815454], [-88.672144, 33.815126], [-88.671429, 33.814737], [-88.670675, 33.814248], [-88.670099, 33.813787], [-88.669518, 33.81327], [-88.669021, 33.812708], [-88.668532, 33.81201], [-88.668191, 33.811411], [-88.667957, 33.810946], [-88.667754, 33.810398], [-88.667676, 33.810164], [-88.667615, 33.809943], [-88.667507, 33.809471], [-88.667409, 33.808821], [-88.66732, 33.808064], [-88.666644, 33.802406], [-88.665974, 33.796738], [-88.665627, 33.793836], [-88.66552, 33.792843], [-88.665347, 33.791717], [-88.665174, 33.790808], [-88.664932, 33.789733], [-88.664663, 33.788707], [-88.662473, 33.782143], [-88.657853, 33.768624], [-88.657444, 33.766792], [-88.657198, 33.765303], [-88.657091, 33.76315], [-88.657093, 33.762745], [-88.656916, 33.752987], [-88.656798, 33.748154], [-88.656808, 33.745868], [-88.656672, 33.741713], [-88.656264, 33.738598], [-88.655593, 33.73574], [-88.655395, 33.73511], [-88.654811, 33.733229], [-88.654425, 33.732149], [-88.650991, 33.7225], [-88.650721, 33.721617], [-88.650498, 33.720752], [-88.650126, 33.71918], [-88.649987, 33.718207], [-88.649873, 33.717241], [-88.649717, 33.7155], [-88.649688, 33.713496], [-88.649696, 33.712296], [-88.649658, 33.703301], [-88.649841, 33.694727], [-88.649798, 33.680234], [-88.65002, 33.668973], [-88.650034, 33.667609], [-88.650085, 33.659349], [-88.650132, 33.655129], [-88.65014, 33.650998], [-88.650203, 33.643219], [-88.65021, 33.642921], [-88.650235, 33.636756], [-88.650243, 33.636068], [-88.65026, 33.635286], [-88.650285, 33.634307], [-88.650286, 33.63244], [-88.650278, 33.632274], [-88.650324, 33.62641], [-88.650329, 33.625903], [-88.650327, 33.625735], [-88.650315, 33.62417], [-88.650318, 33.623564], [-88.650329, 33.621626], [-88.650347, 33.618493], [-88.650356, 33.617783], [-88.650337, 33.616278], [-88.650166, 33.614581], [-88.650058, 33.613864], [-88.649823, 33.612642], [-88.6494, 33.610829], [-88.65768, 33.602469], [-88.667795, 33.593257], [-88.662948, 33.588992], [-88.659058, 33.588273], [-88.653639, 33.587248], [-88.652177, 33.586812], [-88.642965, 33.582669], [-88.638616, 33.580701], [-88.638125, 33.580413], [-88.63771, 33.580089], [-88.63737, 33.579766], [-88.636918, 33.579218], [-88.636612, 33.5786], [-88.636322, 33.577871], [-88.634395, 33.570598], [-88.632804, 33.564619], [-88.632507, 33.563147], [-88.631896, 33.550949], [-88.631562, 33.538106], [-88.631562, 33.537486], [-88.631526, 33.536107], [-88.631422, 33.532411], [-88.631331, 33.528791], [-88.63132, 33.528369], [-88.631314, 33.527854], [-88.631297, 33.52691], [-88.631295, 33.526877], [-88.631298, 33.526825], [-88.631366, 33.525044], [-88.631378, 33.5247], [-88.631749, 33.519158], [-88.631871, 33.516444], [-88.632499, 33.506519], [-88.632591, 33.503868], [-88.632792, 33.500131], [-88.63302, 33.496163], [-88.633135, 33.494891], [-88.633274, 33.493841], [-88.633456, 33.492761], [-88.633798, 33.490994], [-88.634078, 33.489498], [-88.634307, 33.488265], [-88.634618, 33.486598], [-88.634951, 33.484926], [-88.635695, 33.481011], [-88.638083, 33.468297], [-88.640326, 33.456401], [-88.642685, 33.44372], [-88.642763, 33.443265], [-88.643632, 33.438459], [-88.643745, 33.437646], [-88.64387, 33.436431], [-88.643902, 33.435135], [-88.643979, 33.432826], [-88.643934, 33.429371], [-88.643955, 33.426997], [-88.643982, 33.423835], [-88.643972, 33.423191], [-88.643952, 33.422573], [-88.643889, 33.421527], [-88.643758, 33.420222], [-88.643645, 33.419344], [-88.643337, 33.416469], [-88.643126, 33.414632], [-88.642997, 33.413505], [-88.642937, 33.41299], [-88.642808, 33.411868], [-88.642433, 33.40857], [-88.64238, 33.408156], [-88.641919, 33.404104], [-88.6419, 33.403953], [-88.641744, 33.402563], [-88.641715, 33.402262], [-88.641316, 33.398007], [-88.641065, 33.394734], [-88.64106, 33.394675], [-88.64036, 33.385564], [-88.638643, 33.375625], [-88.638519, 33.374581], [-88.638202, 33.371761], [-88.637931, 33.369409], [-88.637799, 33.368202], [-88.637117, 33.362534], [-88.636038, 33.352811], [-88.635706, 33.350194], [-88.634908, 33.347141], [-88.633853, 33.344389], [-88.632824, 33.342218], [-88.619907, 33.318989], [-88.618584, 33.315405], [-88.617577, 33.311876], [-88.617339, 33.310047], [-88.617207, 33.305585], [-88.617218, 33.304803], [-88.61721, 33.30356], [-88.617222, 33.30315], [-88.617217, 33.301773], [-88.617231, 33.299654], [-88.617233, 33.295592], [-88.616889, 33.292317], [-88.616461, 33.290338], [-88.616243, 33.289459], [-88.616022, 33.288652], [-88.615754, 33.287913], [-88.615355, 33.286803], [-88.614042, 33.284018], [-88.61257, 33.281544], [-88.611598, 33.280141], [-88.611199, 33.279601], [-88.610721, 33.279004], [-88.608041, 33.275739], [-88.605742, 33.272934], [-88.604973, 33.272013], [-88.603095, 33.269706], [-88.602482, 33.26885], [-88.600158, 33.264933], [-88.591828, 33.250123], [-88.58671, 33.241132], [-88.585756, 33.239456], [-88.58511, 33.238192], [-88.584762, 33.237456], [-88.584512, 33.236881], [-88.58393, 33.235394], [-88.58364, 33.234535], [-88.583057, 33.232646], [-88.582715, 33.23077], [-88.582625, 33.230172], [-88.582474, 33.229073], [-88.582358, 33.227975], [-88.582327, 33.227142], [-88.582357, 33.223875], [-88.582311, 33.222407], [-88.582095, 33.190728], [-88.582088, 33.19066], [-88.581721, 33.18704], [-88.580617, 33.179617], [-88.577583, 33.161125], [-88.577511, 33.160672], [-88.576785, 33.156717], [-88.572943, 33.13365], [-88.571724, 33.125341], [-88.571495, 33.123901], [-88.571257, 33.122349], [-88.571221, 33.122039], [-88.571094, 33.120382], [-88.571069, 33.119209], [-88.571069, 33.117475], [-88.571072, 33.116331], [-88.571075, 33.115593], [-88.571089, 33.113714], [-88.571101, 33.112086], [-88.571059, 33.110038], [-88.571132, 33.106181], [-88.57115, 33.102095], [-88.571153, 33.101667], [-88.571202, 33.093352], [-88.571138, 33.087927], [-88.57125, 33.084095], [-88.571259, 33.082758], [-88.571173, 33.078133], [-88.571644, 33.073942], [-88.572197, 33.070399], [-88.573281, 33.064313], [-88.57349, 33.06296], [-88.573556, 33.062428], [-88.573667, 33.061718], [-88.574642, 33.054846], [-88.577623, 33.035081], [-88.57933, 33.023766], [-88.579525, 33.021292], [-88.579525, 33.021272], [-88.579503, 33.018726], [-88.579102, 33.0149], [-88.57901, 33.014247], [-88.578924, 33.013722], [-88.578815, 33.013268], [-88.578625, 33.012696], [-88.578435, 33.012235], [-88.578149, 33.011668], [-88.577888, 33.011252], [-88.577838, 33.011171], [-88.577533, 33.010756], [-88.577087, 33.010229], [-88.576715, 33.00986], [-88.576167, 33.009379], [-88.575054, 33.008469], [-88.574265, 33.007793], [-88.57359, 33.007144], [-88.57297, 33.006484], [-88.572381, 33.005786], [-88.571748, 33.004934], [-88.571476, 33.004502], [-88.571414, 33.004405], [-88.571159, 33.003968], [-88.570845, 33.00341], [-88.570507, 33.002725], [-88.570189, 33.001963], [-88.569924, 33.001228], [-88.569838, 33.000949], [-88.569704, 33.00049], [-88.56955, 32.999849], [-88.569426, 32.999175], [-88.569386, 32.998902], [-88.569342, 32.998488], [-88.569268, 32.997554], [-88.569254, 32.996517], [-88.569133, 32.994316], [-88.568887, 32.988873], [-88.568797, 32.987009], [-88.568732, 32.985204], [-88.568671, 32.983899], [-88.568573, 32.98169], [-88.568541, 32.980967], [-88.568436, 32.978513], [-88.568415, 32.978014], [-88.568378, 32.977125], [-88.568356, 32.976711], [-88.568336, 32.976204], [-88.568251, 32.974439], [-88.568134, 32.971359], [-88.566143, 32.962655], [-88.565863, 32.962206], [-88.565168, 32.961182], [-88.564331, 32.96015], [-88.563387, 32.95917], [-88.562227, 32.958143], [-88.560524, 32.95686], [-88.559551, 32.956146], [-88.554866, 32.952597], [-88.553766, 32.951585], [-88.552546, 32.950239], [-88.551964, 32.949358], [-88.549081, 32.944013], [-88.548216, 32.941881], [-88.548074, 32.941252], [-88.547872, 32.940234], [-88.547727, 32.938417], [-88.547764, 32.937281], [-88.547937, 32.935553], [-88.548071, 32.934352], [-88.548141, 32.933011], [-88.548115, 32.932032], [-88.547993, 32.930893], [-88.547797, 32.929859], [-88.547568, 32.929024], [-88.54726, 32.928162], [-88.547023, 32.927523], [-88.546778, 32.926985], [-88.546322, 32.926106], [-88.545578, 32.924914], [-88.543911, 32.922496], [-88.541148, 32.918689], [-88.540478, 32.917749], [-88.539979, 32.917044], [-88.538253, 32.914621], [-88.537352, 32.913353], [-88.535968, 32.911605], [-88.535104, 32.910608], [-88.534261, 32.909716], [-88.532828, 32.908352], [-88.531089, 32.906888], [-88.529708, 32.905854], [-88.524428, 32.901901], [-88.518832, 32.897567], [-88.518034, 32.896959], [-88.511755, 32.892354], [-88.507517, 32.889245], [-88.505544, 32.887645], [-88.503915, 32.886148], [-88.502521, 32.884725], [-88.501299, 32.883291], [-88.500332, 32.882022], [-88.499471, 32.880765], [-88.498373, 32.878973], [-88.49621, 32.87513], [-88.486551, 32.85897], [-88.485805, 32.857695], [-88.476461, 32.84182], [-88.475252, 32.839814], [-88.473917, 32.83755], [-88.472217, 32.83468], [-88.472094, 32.834474], [-88.472057, 32.83441], [-88.471424, 32.833351], [-88.469841, 32.830683], [-88.469468, 32.830056], [-88.468256, 32.827987], [-88.467271, 32.826333], [-88.4665, 32.825017], [-88.465424, 32.823224], [-88.463819, 32.820501], [-88.461928, 32.817324], [-88.461233, 32.816009], [-88.461073, 32.815684], [-88.460609, 32.814506], [-88.46027, 32.813303], [-88.459946, 32.811268], [-88.458529, 32.802697], [-88.457962, 32.799267], [-88.457496, 32.796451], [-88.457491, 32.794229], [-88.458256, 32.790559], [-88.458375, 32.789989], [-88.460875, 32.780799], [-88.461529, 32.778185], [-88.462434, 32.774826], [-88.462725, 32.773743], [-88.462936, 32.772896], [-88.463011, 32.772633], [-88.463634, 32.770323], [-88.463917, 32.769352], [-88.464326, 32.768318], [-88.464881, 32.767323], [-88.465548, 32.766272], [-88.466588, 32.764656], [-88.472609, 32.757], [-88.473743, 32.755349], [-88.473978, 32.754847], [-88.474956, 32.752758], [-88.4756, 32.750237], [-88.475599, 32.750132], [-88.475565, 32.747075], [-88.475547, 32.746966], [-88.474409, 32.740275], [-88.474567, 32.738488], [-88.474491, 32.736862], [-88.474475, 32.736074], [-88.474458, 32.735731], [-88.474377, 32.735032], [-88.474273, 32.734412], [-88.474137, 32.733799], [-88.473898, 32.732929], [-88.473312, 32.731366], [-88.473273, 32.731249], [-88.472398, 32.729194], [-88.472086, 32.728311], [-88.471881, 32.727627], [-88.471697, 32.726752], [-88.471521, 32.72579], [-88.471462, 32.725076], [-88.471419, 32.724034], [-88.471447, 32.723212], [-88.471504, 32.722593], [-88.471706, 32.721358], [-88.471747, 32.721102], [-88.47201, 32.72021], [-88.472634, 32.718066], [-88.472797, 32.717241], [-88.47292, 32.715757], [-88.473063, 32.708356], [-88.473119, 32.702754], [-88.472428, 32.69826], [-88.471978, 32.695579], [-88.471917, 32.694403], [-88.471952, 32.693535], [-88.472116, 32.691701], [-88.47235, 32.689121], [-88.472426, 32.688434], [-88.472483, 32.687814], [-88.47253, 32.687169], [-88.472579, 32.686654], [-88.473088, 32.682402], [-88.473094, 32.68232], [-88.473009, 32.680786], [-88.469477, 32.665695], [-88.468821, 32.663154], [-88.464252, 32.655413], [-88.463625, 32.654138], [-88.463193, 32.652973], [-88.462726, 32.651711], [-88.462478, 32.650131], [-88.462393, 32.648436], [-88.462443, 32.646626], [-88.462629, 32.64548], [-88.462667, 32.645361], [-88.463032, 32.64422], [-88.46438, 32.641537], [-88.467791, 32.636893], [-88.468421, 32.635913], [-88.468767, 32.63539], [-88.469776, 32.633771], [-88.470613, 32.632572], [-88.471798, 32.631189], [-88.472863, 32.630024], [-88.475687, 32.626741], [-88.476144, 32.626118], [-88.476865, 32.625135], [-88.479743, 32.620956], [-88.48135, 32.618635], [-88.481728, 32.617968], [-88.482091, 32.617054], [-88.482202, 32.616149], [-88.482128, 32.614655], [-88.482269, 32.613423], [-88.482406, 32.612746], [-88.482543, 32.612088], [-88.482557, 32.611439], [-88.482428, 32.610668], [-88.48215, 32.609985], [-88.481576, 32.609162], [-88.480909, 32.608341], [-88.48058, 32.607792], [-88.480358, 32.607184], [-88.48025, 32.606613], [-88.480043, 32.604747], [-88.479684, 32.604014], [-88.478628, 32.602401], [-88.477725, 32.601035], [-88.477421, 32.600483], [-88.477091, 32.599787], [-88.476877, 32.59926], [-88.476695, 32.598589], [-88.476599, 32.597977], [-88.476551, 32.596992], [-88.476606, 32.596196], [-88.476962, 32.594683], [-88.477147, 32.594024], [-88.477306, 32.593279], [-88.477528, 32.592149], [-88.477628, 32.591301], [-88.477691, 32.59008], [-88.477654, 32.589129], [-88.477472, 32.587771], [-88.477315, 32.586822], [-88.477259, 32.586486], [-88.477158, 32.585718], [-88.477093, 32.583969], [-88.477118, 32.582915], [-88.477276, 32.581734], [-88.477728, 32.578355], [-88.477807, 32.577849], [-88.478113, 32.575896], [-88.478987, 32.570259], [-88.479166, 32.569167], [-88.47976, 32.567138], [-88.480305, 32.565893], [-88.480918, 32.564765], [-88.481565, 32.563762], [-88.482061, 32.563121], [-88.483787, 32.56129], [-88.489158, 32.556444], [-88.494754, 32.551386], [-88.496665, 32.54966], [-88.497093, 32.549277], [-88.499294, 32.547285], [-88.500238, 32.546447], [-88.502068, 32.544791], [-88.504925, 32.542191], [-88.505706, 32.541342], [-88.506129, 32.540849], [-88.506499, 32.540372], [-88.506889, 32.539829], [-88.507325, 32.539155], [-88.507929, 32.53806], [-88.50829, 32.537283], [-88.508651, 32.536304], [-88.508858, 32.535683], [-88.509522, 32.532556], [-88.510164, 32.529211], [-88.511433, 32.522835], [-88.511593, 32.521972], [-88.511824, 32.52084], [-88.512538, 32.517177], [-88.512884, 32.51546], [-88.513376, 32.512946], [-88.513557, 32.512051], [-88.514324, 32.508144], [-88.51449, 32.507319], [-88.514605, 32.506831], [-88.51474, 32.506317], [-88.514876, 32.505898], [-88.515087, 32.505462], [-88.515252, 32.505182], [-88.515441, 32.504858], [-88.515689, 32.504545], [-88.515906, 32.504303], [-88.516356, 32.503887], [-88.516884, 32.503492], [-88.51756, 32.503104], [-88.518165, 32.50284], [-88.518836, 32.502623], [-88.519657, 32.502445], [-88.523989, 32.501692], [-88.524897, 32.501542], [-88.525841, 32.501356], [-88.526584, 32.501144], [-88.527402, 32.500841], [-88.528941, 32.500222], [-88.530605, 32.499529], [-88.531455, 32.499178], [-88.532101, 32.498949], [-88.532833, 32.498735], [-88.533702, 32.498572], [-88.534588, 32.49849], [-88.535313, 32.498492], [-88.536084, 32.498556], [-88.537084, 32.498698], [-88.537819, 32.498852], [-88.538334, 32.498989], [-88.539317, 32.499415], [-88.54012, 32.499809], [-88.540832, 32.500222], [-88.541692, 32.500679], [-88.542574, 32.501148], [-88.54328, 32.501471], [-88.544159, 32.501795], [-88.545951, 32.502315], [-88.546793, 32.502582], [-88.547394, 32.502832], [-88.547905, 32.50311], [-88.548346, 32.503409], [-88.548721, 32.503714], [-88.549108, 32.504087], [-88.549482, 32.504528], [-88.549956, 32.505229], [-88.551685, 32.507747], [-88.552008, 32.508159], [-88.552714, 32.508772], [-88.553358, 32.509148], [-88.554675, 32.509632], [-88.556038, 32.510061], [-88.556906, 32.510447], [-88.557682, 32.510929], [-88.558791, 32.511792], [-88.559855, 32.512592], [-88.560523, 32.512941], [-88.561378, 32.513234], [-88.56232, 32.513403], [-88.565719, 32.513512], [-88.566719, 32.513459], [-88.567319, 32.513331], [-88.568148, 32.513081], [-88.568877, 32.512671], [-88.569693, 32.511959], [-88.570174, 32.511335], [-88.570689, 32.510745], [-88.571135, 32.510367], [-88.571825, 32.509949], [-88.572633, 32.509601], [-88.573736, 32.509117], [-88.57433, 32.508733], [-88.574832, 32.508321], [-88.575288, 32.507775], [-88.575513, 32.507409], [-88.5757, 32.507052], [-88.575886, 32.506405], [-88.576039, 32.505346], [-88.576335, 32.503341], [-88.57654, 32.502539], [-88.576934, 32.501729], [-88.57744, 32.501107], [-88.578446, 32.500184], [-88.579178, 32.499664], [-88.579592, 32.499325], [-88.580069, 32.498732], [-88.580423, 32.498111], [-88.580821, 32.497068], [-88.581072, 32.496412], [-88.58156, 32.495554], [-88.582269, 32.494772], [-88.583012, 32.494137], [-88.583664, 32.493551], [-88.584159, 32.493003], [-88.584741, 32.49223], [-88.58503, 32.491736], [-88.585351, 32.491081], [-88.585541, 32.490565], [-88.585727, 32.489883], [-88.58587, 32.488918], [-88.585958, 32.487669], [-88.586001, 32.487065], [-88.586117, 32.48599], [-88.586494, 32.484839], [-88.587101, 32.483873], [-88.587795, 32.482953], [-88.588615, 32.481879], [-88.589262, 32.48121], [-88.59021, 32.480486], [-88.593414, 32.478756], [-88.594939, 32.477793], [-88.595477, 32.477267], [-88.595841, 32.476745], [-88.596048, 32.476389], [-88.596273, 32.475727], [-88.596353, 32.475072], [-88.596001, 32.471816], [-88.595949, 32.471243], [-88.596085, 32.470281], [-88.596465, 32.469548], [-88.596979, 32.468953], [-88.597904, 32.468279], [-88.599378, 32.467748], [-88.600856, 32.46759], [-88.602295, 32.467423], [-88.610282, 32.466423], [-88.611198, 32.466324], [-88.611825, 32.466231], [-88.612446, 32.466102], [-88.613666, 32.46574], [-88.6156, 32.464773], [-88.616911, 32.463715], [-88.617576, 32.463004], [-88.618979, 32.461012], [-88.619735, 32.459965], [-88.620362, 32.459049], [-88.621961, 32.456698], [-88.623352, 32.454752], [-88.624493, 32.452808], [-88.625806, 32.45012], [-88.627461, 32.446723], [-88.628405, 32.445112], [-88.629331, 32.443725], [-88.630316, 32.442404], [-88.631651, 32.440831], [-88.632544, 32.439747], [-88.633207, 32.438975], [-88.634323, 32.437662], [-88.634906, 32.436965], [-88.635833, 32.435716], [-88.636381, 32.4349], [-88.637193, 32.433632], [-88.645466, 32.420914], [-88.646554, 32.419255], [-88.64742, 32.417935], [-88.647656, 32.417538], [-88.647826, 32.417271], [-88.64998, 32.413944], [-88.650522, 32.413132], [-88.65064, 32.412949], [-88.650744, 32.412782], [-88.651071, 32.412256], [-88.653008, 32.409397], [-88.653848, 32.408285], [-88.654837, 32.407118], [-88.65578, 32.406092], [-88.656237, 32.405608], [-88.658514, 32.403251], [-88.659286, 32.402392], [-88.660582, 32.401001], [-88.663212, 32.398227], [-88.665073, 32.396267], [-88.665979, 32.395308], [-88.667396, 32.393809], [-88.669122, 32.391986], [-88.670649, 32.390186], [-88.671644, 32.388738], [-88.672544, 32.387225], [-88.673041, 32.386272], [-88.673355, 32.385515], [-88.67381, 32.38439], [-88.674085, 32.383595], [-88.674726, 32.381824], [-88.676222, 32.378012], [-88.677607, 32.375891], [-88.678422, 32.374959], [-88.679089, 32.37426], [-88.680108, 32.373329], [-88.680705, 32.372845], [-88.680991, 32.372624], [-88.68122, 32.372467], [-88.682137, 32.371835], [-88.686478, 32.369156], [-88.689251, 32.367465], [-88.689813, 32.36711], [-88.691049, 32.366355], [-88.691341, 32.366173], [-88.691554, 32.366039], [-88.701868, 32.360211]]}}, {"type": "Feature", "properties": {"company": "Gulf, Mobile and Ohio Railroad", "line": "Gulf, Mobile and Ohio: Corinth \u2013 Meridian", "id": "gmo-corinth-tupelo-meridian", "color": "#5B7C99", "mode": "intercity_rail", "avg_speed_kmh": 55, "speed_source": "estimated: GM&O through service; unsourced", "geometry_source": "Real-traced from OpenStreetMap (ODbL) via Overpass along the Artesia Subdivision and CPKC Artesia Subdivision, the surviving Mobile and Ohio main line, routed Corinth - Tupelo - Meridian.", "geometry_quality": "Real-traced, 1450 points; 5% of the drawn length (9.7 mi across 17 places) is straight-line connector inserted where the mapped way network breaks. Traced 196.0 mi. This is the Mississippi portion of the M&O only -- the full Mobile-to-Columbus-Kentucky main line and the Gulf Coast Rebel's run north to St. Louis are NOT drawn. LATER ALIGNMENT: the corridor as it survives today, not a verified 1861 alignment. Straight-line repair 2026-08-29: 1 ruled segment totalling 10 mi replaced with OpenStreetMap-traced rail geometry (see geometry_repairs for the OSM lines each one followed).", "segments": [{"start": 1940, "end": 1958, "headway_min": 480, "note": "The Gulf, Mobile and Ohio was incorporated in 1938 to merge the Gulf, Mobile and Northern with the Mobile and Ohio, taking effect in 1940. Into the late 1950s its Gulf Coast Rebel -- originally Mobile to Union, Mississippi, later extended to St. Louis -- was still calling at Tupelo. GM&O merged into the Illinois Central on Aug 10 1972 to form the Illinois Central Gulf; the line is CPKC freight today. Frequency estimated/unsourced", "sources": ["Segment-level: this segment's own note carries the citation for its dates and service. Supporting references for the line:", "https://en.wikipedia.org/wiki/Mobile_and_Ohio_Railroad", "https://en.wikipedia.org/wiki/Gulf,_Mobile_and_Ohio_Railroad", "https://en.wikipedia.org/wiki/Tupelo,_Mississippi"]}], "geometry_repairs": [{"date": "2026-08-29", "from": [-88.683554, 34.364035], "to": [-88.710681, 34.22005], "chord_mi": 10.07, "traced_mi": 10.09, "snap_m": [0, 0], "bridged_mi": 0.0, "osm_lines": ["Artesia Subdivision (10.09 mi)"], "method": "Overpass rail graph, 8.0 km corridor, Dijkstra, simplified to 3.0 m"}]}, "geometry": {"type": "LineString", "coordinates": [[-88.522558, 34.934132], [-88.522523, 34.934027], [-88.521928, 34.93222], [-88.521862, 34.93202], [-88.521772, 34.931726], [-88.521467, 34.930806], [-88.519417, 34.92456], [-88.519253, 34.924107], [-88.519157, 34.923814], [-88.519086, 34.923566], [-88.518723, 34.922453], [-88.517682, 34.919309], [-88.517121, 34.917622], [-88.516736, 34.916429], [-88.516471, 34.915613], [-88.515943, 34.914029], [-88.515455, 34.912511], [-88.515314, 34.912087], [-88.515033, 34.911206], [-88.514459, 34.909336], [-88.514293, 34.908793], [-88.514194, 34.908347], [-88.513843, 34.906518], [-88.513626, 34.905092], [-88.513524, 34.904399], [-88.513086, 34.901564], [-88.512397, 34.89728], [-88.512082, 34.896474], [-88.51073, 34.894225], [-88.510372, 34.893079], [-88.510008, 34.889722], [-88.509923, 34.889115], [-88.509787, 34.888413], [-88.50959, 34.887794], [-88.509302, 34.887119], [-88.508809, 34.886135], [-88.507977, 34.884475], [-88.507011, 34.882173], [-88.506964, 34.882039], [-88.504528, 34.875089], [-88.503554, 34.872311], [-88.503372, 34.871793], [-88.500573, 34.863738], [-88.500456, 34.863397], [-88.500206, 34.862685], [-88.499812, 34.861508], [-88.499343, 34.859887], [-88.498412, 34.855446], [-88.498232, 34.854543], [-88.498007, 34.853495], [-88.497844, 34.852664], [-88.497727, 34.851874], [-88.497673, 34.851098], [-88.497655, 34.850292], [-88.497694, 34.849508], [-88.497775, 34.848755], [-88.497916, 34.848011], [-88.498177, 34.846787], [-88.498498, 34.845861], [-88.498758, 34.845205], [-88.499108, 34.844454], [-88.499351, 34.843994], [-88.499669, 34.84345], [-88.500038, 34.842868], [-88.50071, 34.841919], [-88.501786, 34.840497], [-88.502474, 34.839639], [-88.505064, 34.836218], [-88.507358, 34.833188], [-88.512102, 34.826923], [-88.516705, 34.820843], [-88.521344, 34.814554], [-88.521763, 34.813901], [-88.52221, 34.813191], [-88.523366, 34.811328], [-88.523425, 34.811198], [-88.524399, 34.809063], [-88.524753, 34.808108], [-88.52507, 34.807255], [-88.525567, 34.80558], [-88.527142, 34.800275], [-88.527269, 34.799661], [-88.527817, 34.797001], [-88.527841, 34.796808], [-88.528044, 34.795169], [-88.527855, 34.787506], [-88.527824, 34.786953], [-88.527566, 34.782335], [-88.527316, 34.777878], [-88.526941, 34.771129], [-88.526757, 34.767832], [-88.526583, 34.764535], [-88.526558, 34.763963], [-88.526502, 34.763057], [-88.526469, 34.762359], [-88.526243, 34.758423], [-88.526108, 34.755938], [-88.525786, 34.750096], [-88.525687, 34.748429], [-88.525517, 34.745407], [-88.525459, 34.744032], [-88.525321, 34.741151], [-88.525209, 34.738582], [-88.525272, 34.737458], [-88.525413, 34.736199], [-88.525693, 34.73422], [-88.525999, 34.732893], [-88.527148, 34.728599], [-88.527604, 34.726844], [-88.52926, 34.720728], [-88.530101, 34.717661], [-88.530441, 34.716372], [-88.531209, 34.713829], [-88.531815, 34.712294], [-88.532124, 34.711594], [-88.532605, 34.710597], [-88.533149, 34.709586], [-88.533855, 34.708387], [-88.534369, 34.707592], [-88.535081, 34.706581], [-88.536362, 34.704912], [-88.537007, 34.704158], [-88.538962, 34.7019], [-88.539461, 34.701318], [-88.540114, 34.700546], [-88.540635, 34.699863], [-88.54114, 34.699146], [-88.541582, 34.698393], [-88.54209, 34.697378], [-88.542663, 34.695938], [-88.543522, 34.693112], [-88.543749, 34.692568], [-88.543995, 34.692188], [-88.544374, 34.69171], [-88.544842, 34.691209], [-88.545353, 34.690781], [-88.546449, 34.689916], [-88.546933, 34.689472], [-88.54741, 34.688941], [-88.547685, 34.688541], [-88.547918, 34.688117], [-88.548119, 34.687606], [-88.548632, 34.686133], [-88.549014, 34.685036], [-88.549542, 34.683521], [-88.54985, 34.682781], [-88.550226, 34.682014], [-88.550835, 34.680965], [-88.551495, 34.679957], [-88.553771, 34.676562], [-88.554038, 34.676142], [-88.554721, 34.674973], [-88.555339, 34.67371], [-88.555443, 34.673385], [-88.555705, 34.672565], [-88.555889, 34.671916], [-88.556232, 34.670609], [-88.556643, 34.669004], [-88.557684, 34.664916], [-88.558038, 34.663555], [-88.558131, 34.663166], [-88.558566, 34.661466], [-88.558796, 34.660525], [-88.558915, 34.660034], [-88.559037, 34.659576], [-88.559172, 34.659084], [-88.559336, 34.658561], [-88.559583, 34.657981], [-88.559797, 34.657563], [-88.560092, 34.65708], [-88.560412, 34.656633], [-88.560763, 34.656216], [-88.561156, 34.6558], [-88.561534, 34.655443], [-88.562057, 34.655026], [-88.562295, 34.654849], [-88.562788, 34.654531], [-88.563439, 34.654096], [-88.56383, 34.653817], [-88.564171, 34.653509], [-88.564515, 34.653148], [-88.564627, 34.65302], [-88.564858, 34.652727], [-88.56518, 34.65222], [-88.56543, 34.651725], [-88.56618, 34.650152], [-88.566382, 34.649767], [-88.56672, 34.6493], [-88.566979, 34.648992], [-88.567217, 34.648745], [-88.568335, 34.64765], [-88.568853, 34.647111], [-88.569166, 34.646754], [-88.569432, 34.64642], [-88.569624, 34.646131], [-88.569755, 34.645905], [-88.569942, 34.645518], [-88.570099, 34.645085], [-88.570211, 34.644668], [-88.57055, 34.643296], [-88.571091, 34.640669], [-88.571159, 34.640426], [-88.571317, 34.639889], [-88.571841, 34.638314], [-88.572264, 34.637072], [-88.572749, 34.635651], [-88.573367, 34.633796], [-88.573794, 34.632946], [-88.573869, 34.632796], [-88.574035, 34.632469], [-88.574319, 34.631936], [-88.574941, 34.630972], [-88.575403, 34.630319], [-88.576113, 34.629459], [-88.576968, 34.628575], [-88.577596, 34.627992], [-88.578074, 34.627577], [-88.5792, 34.626706], [-88.581163, 34.62544], [-88.582079, 34.624849], [-88.584961, 34.622975], [-88.586172, 34.622191], [-88.591132, 34.618944], [-88.591633, 34.618622], [-88.592022, 34.61837], [-88.593141, 34.617637], [-88.595036, 34.616383], [-88.595796, 34.615798], [-88.596026, 34.61562], [-88.597491, 34.614275], [-88.598289, 34.613381], [-88.598519, 34.613093], [-88.600033, 34.610588], [-88.600783, 34.609032], [-88.603484, 34.600745], [-88.604183, 34.598257], [-88.604722, 34.596336], [-88.606309, 34.591291], [-88.607988, 34.585755], [-88.608076, 34.585482], [-88.608525, 34.584011], [-88.609152, 34.581996], [-88.609216, 34.581776], [-88.609664, 34.580326], [-88.610509, 34.577525], [-88.612225, 34.572153], [-88.613783, 34.566958], [-88.613871, 34.566667], [-88.614674, 34.56405], [-88.616873, 34.557205], [-88.618306, 34.552288], [-88.61918, 34.549536], [-88.61986, 34.547397], [-88.620436, 34.545502], [-88.620688, 34.544688], [-88.621595, 34.541781], [-88.621989, 34.540474], [-88.622669, 34.538252], [-88.622701, 34.538148], [-88.622765, 34.537942], [-88.62366, 34.534976], [-88.624454, 34.532507], [-88.624785, 34.531435], [-88.624819, 34.531322], [-88.62579, 34.52813], [-88.626951, 34.524429], [-88.627101, 34.523936], [-88.627226, 34.523526], [-88.627597, 34.522351], [-88.62853, 34.519249], [-88.629879, 34.514977], [-88.630689, 34.51237], [-88.630911, 34.511694], [-88.63117, 34.511021], [-88.631844, 34.509515], [-88.63223, 34.508719], [-88.632623, 34.507926], [-88.633169, 34.506836], [-88.633499, 34.506139], [-88.633778, 34.505438], [-88.633955, 34.504835], [-88.634011, 34.504301], [-88.634023, 34.504068], [-88.633962, 34.50335], [-88.633867, 34.502903], [-88.633049, 34.500656], [-88.632149, 34.498322], [-88.6319, 34.497474], [-88.63176, 34.496647], [-88.631709, 34.496122], [-88.631709, 34.495466], [-88.631806, 34.494776], [-88.632282, 34.492264], [-88.633306, 34.486978], [-88.63364, 34.485251], [-88.634682, 34.479871], [-88.634982, 34.478295], [-88.635394, 34.476281], [-88.635726, 34.474397], [-88.635937, 34.473465], [-88.636214, 34.472545], [-88.636511, 34.47173], [-88.636742, 34.471216], [-88.637262, 34.470203], [-88.638008, 34.469001], [-88.639003, 34.467675], [-88.639837, 34.466502], [-88.640355, 34.465773], [-88.640815, 34.465185], [-88.642699, 34.462782], [-88.647018, 34.457274], [-88.648266, 34.455682], [-88.649379, 34.454262], [-88.651013, 34.451881], [-88.651831, 34.450785], [-88.65363, 34.448373], [-88.653758, 34.448201], [-88.654002, 34.447875], [-88.65411, 34.447744], [-88.65422, 34.44761], [-88.654316, 34.447494], [-88.655494, 34.445949], [-88.655896, 34.44541], [-88.656436, 34.44469], [-88.658255, 34.442309], [-88.659471, 34.440715], [-88.661054, 34.438617], [-88.662867, 34.436241], [-88.663077, 34.435987], [-88.663871, 34.435114], [-88.664721, 34.434273], [-88.665199, 34.433863], [-88.665574, 34.433551], [-88.665885, 34.433306], [-88.667211, 34.432276], [-88.667896, 34.431641], [-88.668468, 34.430988], [-88.668946, 34.430292], [-88.669373, 34.429493], [-88.670594, 34.426913], [-88.672269, 34.423328], [-88.672593, 34.42262], [-88.673176, 34.421505], [-88.674064, 34.419457], [-88.674196, 34.419183], [-88.675698, 34.416039], [-88.676112, 34.415148], [-88.676254, 34.414838], [-88.677141, 34.412886], [-88.677445, 34.412095], [-88.6776, 34.411623], [-88.678049, 34.409403], [-88.678123, 34.408399], [-88.678127, 34.407925], [-88.677949, 34.405981], [-88.677823, 34.405286], [-88.677078, 34.402381], [-88.676916, 34.401769], [-88.676329, 34.399457], [-88.675783, 34.397353], [-88.675699, 34.396858], [-88.675557, 34.395764], [-88.675598, 34.394186], [-88.675631, 34.393637], [-88.675738, 34.391873], [-88.676134, 34.390343], [-88.676818, 34.387707], [-88.676901, 34.387425], [-88.676953, 34.387247], [-88.677176, 34.386673], [-88.677248, 34.386409], [-88.677553, 34.385323], [-88.677723, 34.384708], [-88.678271, 34.382749], [-88.679386, 34.378751], [-88.679563, 34.378141], [-88.679696, 34.377705], [-88.680113, 34.376259], [-88.680454, 34.375103], [-88.680996, 34.373104], [-88.681469, 34.371397], [-88.681733, 34.370471], [-88.683554, 34.364035], [-88.6879064, 34.3484927], [-88.689411, 34.34008], [-88.691793, 34.324783], [-88.692568, 34.320341], [-88.6942496, 34.3098098], [-88.6980952, 34.28671], [-88.700066, 34.275505], [-88.7007799, 34.2703862], [-88.7084066, 34.2249736], [-88.708736, 34.2234014], [-88.7091248, 34.2223182], [-88.709519, 34.221509], [-88.7100258, 34.2208131], [-88.710681, 34.22005], [-88.712859, 34.217734], [-88.715077, 34.215385], [-88.715543, 34.214825], [-88.715808, 34.214441], [-88.716051, 34.213976], [-88.716251, 34.213491], [-88.716386, 34.213021], [-88.716468, 34.212533], [-88.716511, 34.211166], [-88.716537, 34.210376], [-88.716625, 34.20987], [-88.716856, 34.209115], [-88.717889, 34.206433], [-88.718014, 34.206075], [-88.718329, 34.203825], [-88.718444, 34.203], [-88.718802, 34.201339], [-88.718959, 34.200294], [-88.719022, 34.199645], [-88.719037, 34.199016], [-88.719001, 34.198339], [-88.718913, 34.197638], [-88.718761, 34.196909], [-88.718455, 34.195913], [-88.718175, 34.195233], [-88.717618, 34.193943], [-88.717186, 34.192923], [-88.716946, 34.192298], [-88.71654, 34.190919], [-88.71642, 34.190182], [-88.716327, 34.189775], [-88.716212, 34.188518], [-88.716184, 34.187137], [-88.716201, 34.185671], [-88.716156, 34.184661], [-88.716147, 34.184048], [-88.716125, 34.181783], [-88.716078, 34.178196], [-88.71607, 34.177901], [-88.716044, 34.177715], [-88.716045, 34.177574], [-88.716003, 34.177056], [-88.715973, 34.176662], [-88.715049, 34.170579], [-88.715039, 34.170503], [-88.714979, 34.170029], [-88.71496, 34.169879], [-88.714838, 34.168919], [-88.714664, 34.16799], [-88.714426, 34.166507], [-88.714299, 34.165639], [-88.714156, 34.16482], [-88.714132, 34.164681], [-88.713895, 34.163054], [-88.713601, 34.161244], [-88.713553, 34.160882], [-88.713512, 34.160638], [-88.713419, 34.160044], [-88.713352, 34.159618], [-88.713192, 34.15858], [-88.713091, 34.157925], [-88.713038, 34.157603], [-88.713023, 34.157519], [-88.71293, 34.156865], [-88.712258, 34.152634], [-88.71173, 34.149253], [-88.71124, 34.146088], [-88.710901, 34.143925], [-88.710363, 34.140454], [-88.710267, 34.1397], [-88.709397, 34.13444], [-88.708822, 34.129921], [-88.70895, 34.128575], [-88.709092, 34.127731], [-88.709207, 34.12724], [-88.709682, 34.125899], [-88.710057, 34.125163], [-88.710076, 34.125109], [-88.71021, 34.12478], [-88.710354, 34.124319], [-88.710851, 34.122693], [-88.710951, 34.121871], [-88.710917, 34.121234], [-88.710833, 34.120521], [-88.710698, 34.119831], [-88.710499, 34.118881], [-88.71025, 34.11767], [-88.710233, 34.117457], [-88.710173, 34.117026], [-88.710118, 34.116197], [-88.710114, 34.115349], [-88.71015, 34.114915], [-88.710209, 34.114237], [-88.710555, 34.111985], [-88.711008, 34.109018], [-88.711271, 34.107311], [-88.712286, 34.101299], [-88.712682, 34.100091], [-88.713215, 34.098937], [-88.714716, 34.096277], [-88.715395, 34.095099], [-88.715954, 34.094094], [-88.716293, 34.093097], [-88.716437, 34.092304], [-88.716463, 34.091323], [-88.716448, 34.09087], [-88.716414, 34.090526], [-88.716302, 34.089424], [-88.716276, 34.088844], [-88.716274, 34.087932], [-88.716402, 34.086156], [-88.717537, 34.081833], [-88.718469, 34.078308], [-88.71915, 34.075663], [-88.720388, 34.070971], [-88.722474, 34.063068], [-88.723231, 34.060245], [-88.724029, 34.057703], [-88.724362, 34.05708], [-88.726232, 34.053581], [-88.726975, 34.052619], [-88.727173, 34.052253], [-88.729094, 34.048704], [-88.732446, 34.043362], [-88.733199, 34.042161], [-88.733965, 34.040941], [-88.736716, 34.036292], [-88.738168, 34.033997], [-88.740817, 34.029644], [-88.741327, 34.028786], [-88.741724, 34.028126], [-88.742094, 34.027486], [-88.743026, 34.025717], [-88.743676, 34.024246], [-88.743963, 34.023442], [-88.744415, 34.021854], [-88.744832, 34.020065], [-88.744977, 34.019554], [-88.745353, 34.017784], [-88.745487, 34.016715], [-88.745539, 34.015863], [-88.745575, 34.014726], [-88.745596, 34.013515], [-88.745563, 34.010813], [-88.745543, 34.010313], [-88.745492, 34.009728], [-88.745136, 34.008245], [-88.744996, 34.007702], [-88.744861, 34.007123], [-88.744745, 34.006695], [-88.744525, 34.00614], [-88.744227, 34.005434], [-88.74402, 34.00499], [-88.743725, 34.004269], [-88.74327, 34.002965], [-88.743086, 34.002356], [-88.742875, 34.001655], [-88.742803, 34.001378], [-88.742707, 34.000994], [-88.742617, 34.000607], [-88.742429, 33.999703], [-88.742262, 33.998718], [-88.742216, 33.998421], [-88.741736, 33.995336], [-88.741402, 33.993637], [-88.741063, 33.992356], [-88.740707, 33.991218], [-88.740105, 33.989592], [-88.739541, 33.98829], [-88.739057, 33.987303], [-88.73872, 33.986668], [-88.738004, 33.985407], [-88.736564, 33.983119], [-88.735352, 33.981082], [-88.734943, 33.980329], [-88.734285, 33.978906], [-88.733751, 33.977645], [-88.733497, 33.976923], [-88.733131, 33.975836], [-88.732882, 33.974944], [-88.732615, 33.973884], [-88.732369, 33.972667], [-88.732229, 33.971779], [-88.731978, 33.969921], [-88.731176, 33.964121], [-88.729808, 33.954094], [-88.729764, 33.953737], [-88.729726, 33.953437], [-88.729607, 33.952488], [-88.729302, 33.950781], [-88.728829, 33.948958], [-88.728407, 33.947566], [-88.727657, 33.945622], [-88.727013, 33.944207], [-88.726615, 33.943252], [-88.726395, 33.942679], [-88.726086, 33.941784], [-88.725335, 33.939092], [-88.725075, 33.937739], [-88.724888, 33.936416], [-88.724775, 33.935001], [-88.724261, 33.924503], [-88.723803, 33.911071], [-88.72369, 33.908187], [-88.72354, 33.904541], [-88.723413, 33.903081], [-88.723278, 33.902072], [-88.723018, 33.90063], [-88.722676, 33.899211], [-88.722449, 33.898441], [-88.722232, 33.897725], [-88.721729, 33.896327], [-88.721124, 33.894912], [-88.720459, 33.893544], [-88.720217, 33.893067], [-88.719713, 33.892072], [-88.718763, 33.890395], [-88.711158, 33.875113], [-88.708097, 33.869246], [-88.706454, 33.865662], [-88.697575, 33.848496], [-88.693475, 33.840184], [-88.690682, 33.83397], [-88.686322, 33.824768], [-88.685836, 33.823927], [-88.685403, 33.823258], [-88.684842, 33.822519], [-88.684127, 33.821642], [-88.682921, 33.820393], [-88.682149, 33.819757], [-88.680733, 33.818733], [-88.678893, 33.817658], [-88.677689, 33.817088], [-88.677074, 33.816837], [-88.676251, 33.816531], [-88.674749, 33.816047], [-88.674142, 33.815871], [-88.672888, 33.815454], [-88.672144, 33.815126], [-88.671429, 33.814737], [-88.670675, 33.814248], [-88.670099, 33.813787], [-88.669518, 33.81327], [-88.669021, 33.812708], [-88.668532, 33.81201], [-88.668191, 33.811411], [-88.667957, 33.810946], [-88.667754, 33.810398], [-88.667676, 33.810164], [-88.667615, 33.809943], [-88.667507, 33.809471], [-88.667409, 33.808821], [-88.66732, 33.808064], [-88.666644, 33.802406], [-88.665974, 33.796738], [-88.665627, 33.793836], [-88.66552, 33.792843], [-88.665347, 33.791717], [-88.665174, 33.790808], [-88.664932, 33.789733], [-88.664663, 33.788707], [-88.662473, 33.782143], [-88.657853, 33.768624], [-88.657444, 33.766792], [-88.657198, 33.765303], [-88.657091, 33.76315], [-88.657093, 33.762745], [-88.656916, 33.752987], [-88.656798, 33.748154], [-88.656808, 33.745868], [-88.656672, 33.741713], [-88.656264, 33.738598], [-88.655593, 33.73574], [-88.655395, 33.73511], [-88.654811, 33.733229], [-88.654425, 33.732149], [-88.650991, 33.7225], [-88.650721, 33.721617], [-88.650498, 33.720752], [-88.650126, 33.71918], [-88.649987, 33.718207], [-88.649873, 33.717241], [-88.649717, 33.7155], [-88.649688, 33.713496], [-88.649696, 33.712296], [-88.649658, 33.703301], [-88.649841, 33.694727], [-88.649798, 33.680234], [-88.65002, 33.668973], [-88.650034, 33.667609], [-88.650085, 33.659349], [-88.650132, 33.655129], [-88.65014, 33.650998], [-88.650203, 33.643219], [-88.65021, 33.642921], [-88.650235, 33.636756], [-88.650243, 33.636068], [-88.65026, 33.635286], [-88.650285, 33.634307], [-88.650286, 33.63244], [-88.650278, 33.632274], [-88.650324, 33.62641], [-88.650329, 33.625903], [-88.650327, 33.625735], [-88.650315, 33.62417], [-88.650318, 33.623564], [-88.650329, 33.621626], [-88.650347, 33.618493], [-88.650356, 33.617783], [-88.650337, 33.616278], [-88.650166, 33.614581], [-88.650058, 33.613864], [-88.649823, 33.612642], [-88.6494, 33.610829], [-88.65768, 33.602469], [-88.667795, 33.593257], [-88.662948, 33.588992], [-88.659058, 33.588273], [-88.653639, 33.587248], [-88.652177, 33.586812], [-88.642965, 33.582669], [-88.638616, 33.580701], [-88.638125, 33.580413], [-88.63771, 33.580089], [-88.63737, 33.579766], [-88.636918, 33.579218], [-88.636612, 33.5786], [-88.636322, 33.577871], [-88.634395, 33.570598], [-88.632804, 33.564619], [-88.632507, 33.563147], [-88.631896, 33.550949], [-88.631562, 33.538106], [-88.631562, 33.537486], [-88.631526, 33.536107], [-88.631422, 33.532411], [-88.631331, 33.528791], [-88.63132, 33.528369], [-88.631314, 33.527854], [-88.631297, 33.52691], [-88.631295, 33.526877], [-88.631298, 33.526825], [-88.631366, 33.525044], [-88.631378, 33.5247], [-88.631749, 33.519158], [-88.631871, 33.516444], [-88.632499, 33.506519], [-88.632591, 33.503868], [-88.632792, 33.500131], [-88.63302, 33.496163], [-88.633135, 33.494891], [-88.633274, 33.493841], [-88.633456, 33.492761], [-88.633798, 33.490994], [-88.634078, 33.489498], [-88.634307, 33.488265], [-88.634618, 33.486598], [-88.634951, 33.484926], [-88.635695, 33.481011], [-88.638083, 33.468297], [-88.640326, 33.456401], [-88.642685, 33.44372], [-88.642763, 33.443265], [-88.643632, 33.438459], [-88.643745, 33.437646], [-88.64387, 33.436431], [-88.643902, 33.435135], [-88.643979, 33.432826], [-88.643934, 33.429371], [-88.643955, 33.426997], [-88.643982, 33.423835], [-88.643972, 33.423191], [-88.643952, 33.422573], [-88.643889, 33.421527], [-88.643758, 33.420222], [-88.643645, 33.419344], [-88.643337, 33.416469], [-88.643126, 33.414632], [-88.642997, 33.413505], [-88.642937, 33.41299], [-88.642808, 33.411868], [-88.642433, 33.40857], [-88.64238, 33.408156], [-88.641919, 33.404104], [-88.6419, 33.403953], [-88.641744, 33.402563], [-88.641715, 33.402262], [-88.641316, 33.398007], [-88.641065, 33.394734], [-88.64106, 33.394675], [-88.64036, 33.385564], [-88.638643, 33.375625], [-88.638519, 33.374581], [-88.638202, 33.371761], [-88.637931, 33.369409], [-88.637799, 33.368202], [-88.637117, 33.362534], [-88.636038, 33.352811], [-88.635706, 33.350194], [-88.634908, 33.347141], [-88.633853, 33.344389], [-88.632824, 33.342218], [-88.619907, 33.318989], [-88.618584, 33.315405], [-88.617577, 33.311876], [-88.617339, 33.310047], [-88.617207, 33.305585], [-88.617218, 33.304803], [-88.61721, 33.30356], [-88.617222, 33.30315], [-88.617217, 33.301773], [-88.617231, 33.299654], [-88.617233, 33.295592], [-88.616889, 33.292317], [-88.616461, 33.290338], [-88.616243, 33.289459], [-88.616022, 33.288652], [-88.615754, 33.287913], [-88.615355, 33.286803], [-88.614042, 33.284018], [-88.61257, 33.281544], [-88.611598, 33.280141], [-88.611199, 33.279601], [-88.610721, 33.279004], [-88.608041, 33.275739], [-88.605742, 33.272934], [-88.604973, 33.272013], [-88.603095, 33.269706], [-88.602482, 33.26885], [-88.600158, 33.264933], [-88.591828, 33.250123], [-88.58671, 33.241132], [-88.585756, 33.239456], [-88.58511, 33.238192], [-88.584762, 33.237456], [-88.584512, 33.236881], [-88.58393, 33.235394], [-88.58364, 33.234535], [-88.583057, 33.232646], [-88.582715, 33.23077], [-88.582625, 33.230172], [-88.582474, 33.229073], [-88.582358, 33.227975], [-88.582327, 33.227142], [-88.582357, 33.223875], [-88.582311, 33.222407], [-88.582095, 33.190728], [-88.582088, 33.19066], [-88.581721, 33.18704], [-88.580617, 33.179617], [-88.577583, 33.161125], [-88.577511, 33.160672], [-88.576785, 33.156717], [-88.572943, 33.13365], [-88.571724, 33.125341], [-88.571495, 33.123901], [-88.571257, 33.122349], [-88.571221, 33.122039], [-88.571094, 33.120382], [-88.571069, 33.119209], [-88.571069, 33.117475], [-88.571072, 33.116331], [-88.571075, 33.115593], [-88.571089, 33.113714], [-88.571101, 33.112086], [-88.571059, 33.110038], [-88.571132, 33.106181], [-88.57115, 33.102095], [-88.571153, 33.101667], [-88.571202, 33.093352], [-88.571138, 33.087927], [-88.57125, 33.084095], [-88.571259, 33.082758], [-88.571173, 33.078133], [-88.571644, 33.073942], [-88.572197, 33.070399], [-88.573281, 33.064313], [-88.57349, 33.06296], [-88.573556, 33.062428], [-88.573667, 33.061718], [-88.574642, 33.054846], [-88.577623, 33.035081], [-88.57933, 33.023766], [-88.579525, 33.021292], [-88.579525, 33.021272], [-88.579503, 33.018726], [-88.579102, 33.0149], [-88.57901, 33.014247], [-88.578924, 33.013722], [-88.578815, 33.013268], [-88.578625, 33.012696], [-88.578435, 33.012235], [-88.578149, 33.011668], [-88.577888, 33.011252], [-88.577838, 33.011171], [-88.577533, 33.010756], [-88.577087, 33.010229], [-88.576715, 33.00986], [-88.576167, 33.009379], [-88.575054, 33.008469], [-88.574265, 33.007793], [-88.57359, 33.007144], [-88.57297, 33.006484], [-88.572381, 33.005786], [-88.571748, 33.004934], [-88.571476, 33.004502], [-88.571414, 33.004405], [-88.571159, 33.003968], [-88.570845, 33.00341], [-88.570507, 33.002725], [-88.570189, 33.001963], [-88.569924, 33.001228], [-88.569838, 33.000949], [-88.569704, 33.00049], [-88.56955, 32.999849], [-88.569426, 32.999175], [-88.569386, 32.998902], [-88.569342, 32.998488], [-88.569268, 32.997554], [-88.569254, 32.996517], [-88.569133, 32.994316], [-88.568887, 32.988873], [-88.568797, 32.987009], [-88.568732, 32.985204], [-88.568671, 32.983899], [-88.568573, 32.98169], [-88.568541, 32.980967], [-88.568436, 32.978513], [-88.568415, 32.978014], [-88.568378, 32.977125], [-88.568356, 32.976711], [-88.568336, 32.976204], [-88.568251, 32.974439], [-88.568134, 32.971359], [-88.566143, 32.962655], [-88.565863, 32.962206], [-88.565168, 32.961182], [-88.564331, 32.96015], [-88.563387, 32.95917], [-88.562227, 32.958143], [-88.560524, 32.95686], [-88.559551, 32.956146], [-88.554866, 32.952597], [-88.553766, 32.951585], [-88.552546, 32.950239], [-88.551964, 32.949358], [-88.549081, 32.944013], [-88.548216, 32.941881], [-88.548074, 32.941252], [-88.547872, 32.940234], [-88.547727, 32.938417], [-88.547764, 32.937281], [-88.547937, 32.935553], [-88.548071, 32.934352], [-88.548141, 32.933011], [-88.548115, 32.932032], [-88.547993, 32.930893], [-88.547797, 32.929859], [-88.547568, 32.929024], [-88.54726, 32.928162], [-88.547023, 32.927523], [-88.546778, 32.926985], [-88.546322, 32.926106], [-88.545578, 32.924914], [-88.543911, 32.922496], [-88.541148, 32.918689], [-88.540478, 32.917749], [-88.539979, 32.917044], [-88.538253, 32.914621], [-88.537352, 32.913353], [-88.535968, 32.911605], [-88.535104, 32.910608], [-88.534261, 32.909716], [-88.532828, 32.908352], [-88.531089, 32.906888], [-88.529708, 32.905854], [-88.524428, 32.901901], [-88.518832, 32.897567], [-88.518034, 32.896959], [-88.511755, 32.892354], [-88.507517, 32.889245], [-88.505544, 32.887645], [-88.503915, 32.886148], [-88.502521, 32.884725], [-88.501299, 32.883291], [-88.500332, 32.882022], [-88.499471, 32.880765], [-88.498373, 32.878973], [-88.49621, 32.87513], [-88.486551, 32.85897], [-88.485805, 32.857695], [-88.476461, 32.84182], [-88.475252, 32.839814], [-88.473917, 32.83755], [-88.472217, 32.83468], [-88.472094, 32.834474], [-88.472057, 32.83441], [-88.471424, 32.833351], [-88.469841, 32.830683], [-88.469468, 32.830056], [-88.468256, 32.827987], [-88.467271, 32.826333], [-88.4665, 32.825017], [-88.465424, 32.823224], [-88.463819, 32.820501], [-88.461928, 32.817324], [-88.461233, 32.816009], [-88.461073, 32.815684], [-88.460609, 32.814506], [-88.46027, 32.813303], [-88.459946, 32.811268], [-88.458529, 32.802697], [-88.457962, 32.799267], [-88.457496, 32.796451], [-88.457491, 32.794229], [-88.458256, 32.790559], [-88.458375, 32.789989], [-88.460875, 32.780799], [-88.461529, 32.778185], [-88.462434, 32.774826], [-88.462725, 32.773743], [-88.462936, 32.772896], [-88.463011, 32.772633], [-88.463634, 32.770323], [-88.463917, 32.769352], [-88.464326, 32.768318], [-88.464881, 32.767323], [-88.465548, 32.766272], [-88.466588, 32.764656], [-88.472609, 32.757], [-88.473743, 32.755349], [-88.473978, 32.754847], [-88.474956, 32.752758], [-88.4756, 32.750237], [-88.475599, 32.750132], [-88.475565, 32.747075], [-88.475547, 32.746966], [-88.474409, 32.740275], [-88.474567, 32.738488], [-88.474491, 32.736862], [-88.474475, 32.736074], [-88.474458, 32.735731], [-88.474377, 32.735032], [-88.474273, 32.734412], [-88.474137, 32.733799], [-88.473898, 32.732929], [-88.473312, 32.731366], [-88.473273, 32.731249], [-88.472398, 32.729194], [-88.472086, 32.728311], [-88.471881, 32.727627], [-88.471697, 32.726752], [-88.471521, 32.72579], [-88.471462, 32.725076], [-88.471419, 32.724034], [-88.471447, 32.723212], [-88.471504, 32.722593], [-88.471706, 32.721358], [-88.471747, 32.721102], [-88.47201, 32.72021], [-88.472634, 32.718066], [-88.472797, 32.717241], [-88.47292, 32.715757], [-88.473063, 32.708356], [-88.473119, 32.702754], [-88.472428, 32.69826], [-88.471978, 32.695579], [-88.471917, 32.694403], [-88.471952, 32.693535], [-88.472116, 32.691701], [-88.47235, 32.689121], [-88.472426, 32.688434], [-88.472483, 32.687814], [-88.47253, 32.687169], [-88.472579, 32.686654], [-88.473088, 32.682402], [-88.473094, 32.68232], [-88.473009, 32.680786], [-88.469477, 32.665695], [-88.468821, 32.663154], [-88.464252, 32.655413], [-88.463625, 32.654138], [-88.463193, 32.652973], [-88.462726, 32.651711], [-88.462478, 32.650131], [-88.462393, 32.648436], [-88.462443, 32.646626], [-88.462629, 32.64548], [-88.462667, 32.645361], [-88.463032, 32.64422], [-88.46438, 32.641537], [-88.467791, 32.636893], [-88.468421, 32.635913], [-88.468767, 32.63539], [-88.469776, 32.633771], [-88.470613, 32.632572], [-88.471798, 32.631189], [-88.472863, 32.630024], [-88.475687, 32.626741], [-88.476144, 32.626118], [-88.476865, 32.625135], [-88.479743, 32.620956], [-88.48135, 32.618635], [-88.481728, 32.617968], [-88.482091, 32.617054], [-88.482202, 32.616149], [-88.482128, 32.614655], [-88.482269, 32.613423], [-88.482406, 32.612746], [-88.482543, 32.612088], [-88.482557, 32.611439], [-88.482428, 32.610668], [-88.48215, 32.609985], [-88.481576, 32.609162], [-88.480909, 32.608341], [-88.48058, 32.607792], [-88.480358, 32.607184], [-88.48025, 32.606613], [-88.480043, 32.604747], [-88.479684, 32.604014], [-88.478628, 32.602401], [-88.477725, 32.601035], [-88.477421, 32.600483], [-88.477091, 32.599787], [-88.476877, 32.59926], [-88.476695, 32.598589], [-88.476599, 32.597977], [-88.476551, 32.596992], [-88.476606, 32.596196], [-88.476962, 32.594683], [-88.477147, 32.594024], [-88.477306, 32.593279], [-88.477528, 32.592149], [-88.477628, 32.591301], [-88.477691, 32.59008], [-88.477654, 32.589129], [-88.477472, 32.587771], [-88.477315, 32.586822], [-88.477259, 32.586486], [-88.477158, 32.585718], [-88.477093, 32.583969], [-88.477118, 32.582915], [-88.477276, 32.581734], [-88.477728, 32.578355], [-88.477807, 32.577849], [-88.478113, 32.575896], [-88.478987, 32.570259], [-88.479166, 32.569167], [-88.47976, 32.567138], [-88.480305, 32.565893], [-88.480918, 32.564765], [-88.481565, 32.563762], [-88.482061, 32.563121], [-88.483787, 32.56129], [-88.489158, 32.556444], [-88.494754, 32.551386], [-88.496665, 32.54966], [-88.497093, 32.549277], [-88.499294, 32.547285], [-88.500238, 32.546447], [-88.502068, 32.544791], [-88.504925, 32.542191], [-88.505706, 32.541342], [-88.506129, 32.540849], [-88.506499, 32.540372], [-88.506889, 32.539829], [-88.507325, 32.539155], [-88.507929, 32.53806], [-88.50829, 32.537283], [-88.508651, 32.536304], [-88.508858, 32.535683], [-88.509522, 32.532556], [-88.510164, 32.529211], [-88.511433, 32.522835], [-88.511593, 32.521972], [-88.511824, 32.52084], [-88.512538, 32.517177], [-88.512884, 32.51546], [-88.513376, 32.512946], [-88.513557, 32.512051], [-88.514324, 32.508144], [-88.51449, 32.507319], [-88.514605, 32.506831], [-88.51474, 32.506317], [-88.514876, 32.505898], [-88.515087, 32.505462], [-88.515252, 32.505182], [-88.515441, 32.504858], [-88.515689, 32.504545], [-88.515906, 32.504303], [-88.516356, 32.503887], [-88.516884, 32.503492], [-88.51756, 32.503104], [-88.518165, 32.50284], [-88.518836, 32.502623], [-88.519657, 32.502445], [-88.523989, 32.501692], [-88.524897, 32.501542], [-88.525841, 32.501356], [-88.526584, 32.501144], [-88.527402, 32.500841], [-88.528941, 32.500222], [-88.530605, 32.499529], [-88.531455, 32.499178], [-88.532101, 32.498949], [-88.532833, 32.498735], [-88.533702, 32.498572], [-88.534588, 32.49849], [-88.535313, 32.498492], [-88.536084, 32.498556], [-88.537084, 32.498698], [-88.537819, 32.498852], [-88.538334, 32.498989], [-88.539317, 32.499415], [-88.54012, 32.499809], [-88.540832, 32.500222], [-88.541692, 32.500679], [-88.542574, 32.501148], [-88.54328, 32.501471], [-88.544159, 32.501795], [-88.545951, 32.502315], [-88.546793, 32.502582], [-88.547394, 32.502832], [-88.547905, 32.50311], [-88.548346, 32.503409], [-88.548721, 32.503714], [-88.549108, 32.504087], [-88.549482, 32.504528], [-88.549956, 32.505229], [-88.551685, 32.507747], [-88.552008, 32.508159], [-88.552714, 32.508772], [-88.553358, 32.509148], [-88.554675, 32.509632], [-88.556038, 32.510061], [-88.556906, 32.510447], [-88.557682, 32.510929], [-88.558791, 32.511792], [-88.559855, 32.512592], [-88.560523, 32.512941], [-88.561378, 32.513234], [-88.56232, 32.513403], [-88.565719, 32.513512], [-88.566719, 32.513459], [-88.567319, 32.513331], [-88.568148, 32.513081], [-88.568877, 32.512671], [-88.569693, 32.511959], [-88.570174, 32.511335], [-88.570689, 32.510745], [-88.571135, 32.510367], [-88.571825, 32.509949], [-88.572633, 32.509601], [-88.573736, 32.509117], [-88.57433, 32.508733], [-88.574832, 32.508321], [-88.575288, 32.507775], [-88.575513, 32.507409], [-88.5757, 32.507052], [-88.575886, 32.506405], [-88.576039, 32.505346], [-88.576335, 32.503341], [-88.57654, 32.502539], [-88.576934, 32.501729], [-88.57744, 32.501107], [-88.578446, 32.500184], [-88.579178, 32.499664], [-88.579592, 32.499325], [-88.580069, 32.498732], [-88.580423, 32.498111], [-88.580821, 32.497068], [-88.581072, 32.496412], [-88.58156, 32.495554], [-88.582269, 32.494772], [-88.583012, 32.494137], [-88.583664, 32.493551], [-88.584159, 32.493003], [-88.584741, 32.49223], [-88.58503, 32.491736], [-88.585351, 32.491081], [-88.585541, 32.490565], [-88.585727, 32.489883], [-88.58587, 32.488918], [-88.585958, 32.487669], [-88.586001, 32.487065], [-88.586117, 32.48599], [-88.586494, 32.484839], [-88.587101, 32.483873], [-88.587795, 32.482953], [-88.588615, 32.481879], [-88.589262, 32.48121], [-88.59021, 32.480486], [-88.593414, 32.478756], [-88.594939, 32.477793], [-88.595477, 32.477267], [-88.595841, 32.476745], [-88.596048, 32.476389], [-88.596273, 32.475727], [-88.596353, 32.475072], [-88.596001, 32.471816], [-88.595949, 32.471243], [-88.596085, 32.470281], [-88.596465, 32.469548], [-88.596979, 32.468953], [-88.597904, 32.468279], [-88.599378, 32.467748], [-88.600856, 32.46759], [-88.602295, 32.467423], [-88.610282, 32.466423], [-88.611198, 32.466324], [-88.611825, 32.466231], [-88.612446, 32.466102], [-88.613666, 32.46574], [-88.6156, 32.464773], [-88.616911, 32.463715], [-88.617576, 32.463004], [-88.618979, 32.461012], [-88.619735, 32.459965], [-88.620362, 32.459049], [-88.621961, 32.456698], [-88.623352, 32.454752], [-88.624493, 32.452808], [-88.625806, 32.45012], [-88.627461, 32.446723], [-88.628405, 32.445112], [-88.629331, 32.443725], [-88.630316, 32.442404], [-88.631651, 32.440831], [-88.632544, 32.439747], [-88.633207, 32.438975], [-88.634323, 32.437662], [-88.634906, 32.436965], [-88.635833, 32.435716], [-88.636381, 32.4349], [-88.637193, 32.433632], [-88.645466, 32.420914], [-88.646554, 32.419255], [-88.64742, 32.417935], [-88.647656, 32.417538], [-88.647826, 32.417271], [-88.64998, 32.413944], [-88.650522, 32.413132], [-88.65064, 32.412949], [-88.650744, 32.412782], [-88.651071, 32.412256], [-88.653008, 32.409397], [-88.653848, 32.408285], [-88.654837, 32.407118], [-88.65578, 32.406092], [-88.656237, 32.405608], [-88.658514, 32.403251], [-88.659286, 32.402392], [-88.660582, 32.401001], [-88.663212, 32.398227], [-88.665073, 32.396267], [-88.665979, 32.395308], [-88.667396, 32.393809], [-88.669122, 32.391986], [-88.670649, 32.390186], [-88.671644, 32.388738], [-88.672544, 32.387225], [-88.673041, 32.386272], [-88.673355, 32.385515], [-88.67381, 32.38439], [-88.674085, 32.383595], [-88.674726, 32.381824], [-88.676222, 32.378012], [-88.677607, 32.375891], [-88.678422, 32.374959], [-88.679089, 32.37426], [-88.680108, 32.373329], [-88.680705, 32.372845], [-88.680991, 32.372624], [-88.68122, 32.372467], [-88.682137, 32.371835], [-88.686478, 32.369156], [-88.689251, 32.367465], [-88.689813, 32.36711], [-88.691049, 32.366355], [-88.691341, 32.366173], [-88.691554, 32.366039], [-88.701868, 32.360211]]}}]}