{
 "type": "FeatureCollection",
 "metadata": {
  "note": "The Monongahela Railway was a coal road, jointly owned by the Pennsylvania, the P&LE (New York Central) and, from 1927, the B&O - but it did carry passengers, and it gave Morgantown its second station. Its line ran up the WEST bank of the Monongahela, opposite the B&O, from Fairmont through Morgantown and Point Marion to Brownsville, Pennsylvania. Passenger service began in 1903, reached Fairmont by 1915, went over to a gas-electric doodlebug in 1940 and ended on 21 October 1950. RULE 1 NOTE: this layer is drawn only for the passenger years. The Monongahela hauled coal here long after 1950 - it lasted until Conrail bought it in 1993 - and the modern NS Loveridge Secondary is freight only. Do not extend these segments past 1950 on the strength of the railroad still existing.",
  "sources": [
   "https://en.wikipedia.org/wiki/Monongahela_Railway",
   "https://www.american-rails.com/mga.html",
   "https://onview.lib.wvu.edu/catalog/033806"
  ],
  "not_yet_sourced": [
   "train frequencies and schedules in every era - the headways here are estimates",
   "which stretches were open to passengers in 1903 (1903 is the start of Monongahela passenger service generally)",
   "the location and opening year of the Monongahela's Morgantown passenger station (a WVU photograph records it, but no date was checked)"
  ]
 },
 "features": [
  {
   "type": "Feature",
   "properties": {
    "company": "Monongahela Railway",
    "line": "Monongahela Railway: Fairmont \u2013 Point Marion",
    "id": "mga-fairmont-point-marion",
    "color": "#2F6F4E",
    "mode": "intercity_rail",
    "avg_speed_kmh": 35,
    "speed_source": "estimated: a coal road's local passenger train, latterly a gas-electric doodlebug; unsourced",
    "geometry_quality": "real-traced from OpenStreetMap ways tagged old_railway_operator=Monongahela - the still-active NS Loveridge Secondary north from Fairmont and the abandoned grade on the west bank opposite Morgantown. 39.6 mi traced Fairmont - Point Marion; straight-line bridging on the whole Fairmont - Brownsville trace totals 0.83 km over five connectors, the longest 298 m.",
    "segments": [
     {
      "start": 1915,
      "end": 1950,
      "headway_min": 600,
      "note": "The Monongahela Railway reached Morgantown on the WEST bank of the river - rails laid there in 1911 by the Buckhannon & Northern, which became part of the Monongahela - and its passenger trains were extended south to Fairmont by 1915, giving Morgantown a second passenger station, the Monongahela's own, across the river from the B&O. A gas-electric doodlebug took over in 1940 and lasted only a few years. The Monongahela was granted permission to drop its remaining Fairmont - Brownsville train and ended passenger service on 21 October 1950. It stayed a heavy coal hauler for decades afterwards; only the passenger years are drawn here.",
      "sources": [
       "Segment-level: the 1911 west-bank construction, passenger service reaching Fairmont by 1915, the 1940 doodlebug and the 21 October 1950 end of passenger service are from American-Rails and the Wikipedia article on the Monongahela Railway. The headway is an estimate and is not sourced.",
       "https://en.wikipedia.org/wiki/Monongahela_Railway",
       "https://www.american-rails.com/mga.html"
      ]
     }
    ]
   },
   "geometry": {
    "type": "LineString",
    "coordinates": [
     [
      -80.138891,
      39.481979
     ],
     [
      -80.136351,
      39.48307
     ],
     [
      -80.134723,
      39.483371
     ],
     [
      -80.127281,
      39.483409
     ],
     [
      -80.123557,
      39.484961
     ],
     [
      -80.11942,
      39.486238
     ],
     [
      -80.111884,
      39.487968
     ],
     [
      -80.109705,
      39.489049
     ],
     [
      -80.103025,
      39.497746
     ],
     [
      -80.102973,
      39.498987
     ],
     [
      -80.105172,
      39.502994
     ],
     [
      -80.105404,
      39.504446
     ],
     [
      -80.104237,
      39.507592
     ],
     [
      -80.10267,
      39.508947
     ],
     [
      -80.10202,
      39.509856
     ],
     [
      -80.102013,
      39.51339
     ],
     [
      -80.10173,
      39.51424
     ],
     [
      -80.100757,
      39.515042
     ],
     [
      -80.097603,
      39.516017
     ],
     [
      -80.086812,
      39.523171
     ],
     [
      -80.084973,
      39.525503
     ],
     [
      -80.082709,
      39.527396
     ],
     [
      -80.084431,
      39.525869
     ],
     [
      -80.08694,
      39.521507
     ],
     [
      -80.088228,
      39.520691
     ],
     [
      -80.090018,
      39.520464
     ],
     [
      -80.091123,
      39.520703
     ],
     [
      -80.092236,
      39.521326
     ],
     [
      -80.095622,
      39.525081
     ],
     [
      -80.102574,
      39.530171
     ],
     [
      -80.105375,
      39.53143
     ],
     [
      -80.107836,
      39.531961
     ],
     [
      -80.110923,
      39.532115
     ],
     [
      -80.112555,
      39.531848
     ],
     [
      -80.118099,
      39.53009
     ],
     [
      -80.121586,
      39.530087
     ],
     [
      -80.118099,
      39.53009
     ],
     [
      -80.112555,
      39.531848
     ],
     [
      -80.110923,
      39.532115
     ],
     [
      -80.107836,
      39.531961
     ],
     [
      -80.105375,
      39.53143
     ],
     [
      -80.102574,
      39.530171
     ],
     [
      -80.09702,
      39.526176
     ],
     [
      -80.095622,
      39.525081
     ],
     [
      -80.09175,
      39.520973
     ],
     [
      -80.090717,
      39.520581
     ],
     [
      -80.089437,
      39.520455
     ],
     [
      -80.088228,
      39.520691
     ],
     [
      -80.08727,
      39.521219
     ],
     [
      -80.08654,
      39.522023
     ],
     [
      -80.084431,
      39.525869
     ],
     [
      -80.078312,
      39.530803
     ],
     [
      -80.077423,
      39.531694
     ],
     [
      -80.076569,
      39.533626
     ],
     [
      -80.076892,
      39.534844
     ],
     [
      -80.077443,
      39.535425
     ],
     [
      -80.078559,
      39.536073
     ],
     [
      -80.083066,
      39.537719
     ],
     [
      -80.08562,
      39.539602
     ],
     [
      -80.0871,
      39.541409
     ],
     [
      -80.08754,
      39.542785
     ],
     [
      -80.087473,
      39.54497
     ],
     [
      -80.085857,
      39.548214
     ],
     [
      -80.08483,
      39.549574
     ],
     [
      -80.082254,
      39.551534
     ],
     [
      -80.080504,
      39.552259
     ],
     [
      -80.07727,
      39.552936
     ],
     [
      -80.075845,
      39.552939
     ],
     [
      -80.073114,
      39.552216
     ],
     [
      -80.069735,
      39.550179
     ],
     [
      -80.066796,
      39.549208
     ],
     [
      -80.065228,
      39.549251
     ],
     [
      -80.064458,
      39.549481
     ],
     [
      -80.063036,
      39.550367
     ],
     [
      -80.062033,
      39.552053
     ],
     [
      -80.060186,
      39.556484
     ],
     [
      -80.057363,
      39.559558
     ],
     [
      -80.0548,
      39.561336
     ],
     [
      -80.048294,
      39.569517
     ],
     [
      -80.048455,
      39.571104
     ],
     [
      -80.048801,
      39.571637
     ],
     [
      -80.052531,
      39.574379
     ],
     [
      -80.05356,
      39.575524
     ],
     [
      -80.054342,
      39.57703
     ],
     [
      -80.054586,
      39.579115
     ],
     [
      -80.054182,
      39.58052
     ],
     [
      -80.052759,
      39.582068
     ],
     [
      -80.051167,
      39.582854
     ],
     [
      -80.048237,
      39.583392
     ],
     [
      -80.044761,
      39.582445
     ],
     [
      -80.04259,
      39.581331
     ],
     [
      -80.041434,
      39.580386
     ],
     [
      -80.040653,
      39.579316
     ],
     [
      -80.0379,
      39.5743
     ],
     [
      -80.035991,
      39.572237
     ],
     [
      -80.033768,
      39.57118
     ],
     [
      -80.028329,
      39.569852
     ],
     [
      -80.026203,
      39.568933
     ],
     [
      -80.023822,
      39.566956
     ],
     [
      -80.021402,
      39.563248
     ],
     [
      -80.01982,
      39.55995
     ],
     [
      -80.016944,
      39.55697
     ],
     [
      -80.014509,
      39.555819
     ],
     [
      -80.012429,
      39.555631
     ],
     [
      -80.011084,
      39.555865
     ],
     [
      -80.007291,
      39.55752
     ],
     [
      -79.999791,
      39.559495
     ],
     [
      -79.998523,
      39.560379
     ],
     [
      -79.998265,
      39.561742
     ],
     [
      -79.999075,
      39.562817
     ],
     [
      -80.00545,
      39.566972
     ],
     [
      -80.006264,
      39.567773
     ],
     [
      -80.006972,
      39.568973
     ],
     [
      -80.007373,
      39.571072
     ],
     [
      -80.007167,
      39.572125
     ],
     [
      -80.004744,
      39.57754
     ],
     [
      -80.005319,
      39.578705
     ],
     [
      -80.006781,
      39.579738
     ],
     [
      -80.011849,
      39.5815
     ],
     [
      -80.015527,
      39.583359
     ],
     [
      -80.017468,
      39.585176
     ],
     [
      -80.019112,
      39.587392
     ],
     [
      -80.019734,
      39.58965
     ],
     [
      -80.019552,
      39.591148
     ],
     [
      -80.018667,
      39.592733
     ],
     [
      -80.017545,
      39.593817
     ],
     [
      -80.01616,
      39.594658
     ],
     [
      -80.014794,
      39.595166
     ],
     [
      -80.013109,
      39.595238
     ],
     [
      -80.01225,
      39.59492
     ],
     [
      -80.007581,
      39.591542
     ],
     [
      -80.004852,
      39.590009
     ],
     [
      -80.003043,
      39.589419
     ],
     [
      -80.001558,
      39.589394
     ],
     [
      -79.995012,
      39.59097
     ],
     [
      -79.99056,
      39.59147
     ],
     [
      -79.987183,
      39.59112
     ],
     [
      -79.979056,
      39.589675
     ],
     [
      -79.977491,
      39.589698
     ],
     [
      -79.975185,
      39.590353
     ],
     [
      -79.971191,
      39.591924
     ],
     [
      -79.967338,
      39.594349
     ],
     [
      -79.966484,
      39.596107
     ],
     [
      -79.966797,
      39.597993
     ],
     [
      -79.967927,
      39.599982
     ],
     [
      -79.970771,
      39.603186
     ],
     [
      -79.972103,
      39.605646
     ],
     [
      -79.973029,
      39.609532
     ],
     [
      -79.973372,
      39.613126
     ],
     [
      -79.973232,
      39.61493
     ],
     [
      -79.967015,
      39.625172
     ],
     [
      -79.963461,
      39.628591
     ],
     [
      -79.960666,
      39.631879
     ],
     [
      -79.960286,
      39.633326
     ],
     [
      -79.960589,
      39.635094
     ],
     [
      -79.961335,
      39.636272
     ],
     [
      -79.962886,
      39.637806
     ],
     [
      -79.964996,
      39.639145
     ],
     [
      -79.966517,
      39.639809
     ],
     [
      -79.969256,
      39.640351
     ],
     [
      -79.975349,
      39.640067
     ],
     [
      -79.978971,
      39.6405
     ],
     [
      -79.981322,
      39.641218
     ],
     [
      -79.986632,
      39.643445
     ],
     [
      -79.989839,
      39.645316
     ],
     [
      -79.991287,
      39.646554
     ],
     [
      -79.992732,
      39.648288
     ],
     [
      -79.994279,
      39.651518
     ],
     [
      -79.994649,
      39.654373
     ],
     [
      -79.994103,
      39.660102
     ],
     [
      -79.993159,
      39.661335
     ],
     [
      -79.988685,
      39.664748
     ],
     [
      -79.986413,
      39.667142
     ],
     [
      -79.982066,
      39.674525
     ],
     [
      -79.979053,
      39.678569
     ],
     [
      -79.97291,
      39.682873
     ],
     [
      -79.97024,
      39.684477
     ],
     [
      -79.966821,
      39.685597
     ],
     [
      -79.961159,
      39.686245
     ],
     [
      -79.959074,
      39.686122
     ],
     [
      -79.954752,
      39.685411
     ],
     [
      -79.948073,
      39.685729
     ],
     [
      -79.946006,
      39.68642
     ],
     [
      -79.942177,
      39.688179
     ],
     [
      -79.941345,
      39.688768
     ],
     [
      -79.94028,
      39.690392
     ],
     [
      -79.939828,
      39.692176
     ],
     [
      -79.939744,
      39.697328
     ],
     [
      -79.939283,
      39.700605
     ],
     [
      -79.93836,
      39.702739
     ],
     [
      -79.936052,
      39.706186
     ],
     [
      -79.926996,
      39.712698
     ],
     [
      -79.922326,
      39.71735
     ],
     [
      -79.918002,
      39.722181
     ],
     [
      -79.913414,
      39.728518
     ],
     [
      -79.907607,
      39.734077
     ],
     [
      -79.906599,
      39.735912
     ]
    ]
   }
  },
  {
   "type": "Feature",
   "properties": {
    "company": "Monongahela Railway",
    "line": "Monongahela Railway: Point Marion \u2013 Brownsville",
    "id": "mga-point-marion-brownsville",
    "color": "#2F6F4E",
    "mode": "intercity_rail",
    "avg_speed_kmh": 35,
    "speed_source": "estimated: local passenger service on a coal railroad; unsourced",
    "geometry_quality": "real-traced from OpenStreetMap ways tagged old_railway_operator=Monongahela, including the Greene River Trail on the abandoned west-bank grade. 33.3 mi traced Point Marion - Brownsville; 73.0 mi for the whole Fairmont - Brownsville line.",
    "segments": [
     {
      "start": 1903,
      "end": 1950,
      "headway_min": 600,
      "note": "The Monongahela's passenger service dates from 1903 at the Brownsville end, where the railroad had its headquarters and, from January 1929, a two-storey union station. Seventeen stops are recorded across the system. Passenger service ended 21 October 1950. Frequency estimated, unsourced.",
      "sources": [
       "Segment-level: the 1903 start of passenger service, the 1929 Brownsville union station and the 21 October 1950 end are from American-Rails and Wikipedia. NOT SOURCED: how much of the Point Marion - Brownsville line was open to passengers in 1903 - the year is the start of Monongahela passenger service generally, not verified for this specific stretch.",
       "https://en.wikipedia.org/wiki/Monongahela_Railway",
       "https://www.american-rails.com/mga.html"
      ]
     }
    ]
   },
   "geometry": {
    "type": "LineString",
    "coordinates": [
     [
      -79.906599,
      39.735912
     ],
     [
      -79.905512,
      39.738507
     ],
     [
      -79.905544,
      39.74009
     ],
     [
      -79.908407,
      39.745485
     ],
     [
      -79.910033,
      39.747478
     ],
     [
      -79.911547,
      39.748586
     ],
     [
      -79.913685,
      39.749494
     ],
     [
      -79.91997,
      39.750015
     ],
     [
      -79.922965,
      39.750692
     ],
     [
      -79.924777,
      39.751494
     ],
     [
      -79.928964,
      39.753988
     ],
     [
      -79.933715,
      39.758786
     ],
     [
      -79.936058,
      39.762588
     ],
     [
      -79.936981,
      39.764818
     ],
     [
      -79.936401,
      39.769467
     ],
     [
      -79.937932,
      39.777791
     ],
     [
      -79.937696,
      39.779017
     ],
     [
      -79.936747,
      39.780191
     ],
     [
      -79.931272,
      39.782495
     ],
     [
      -79.928933,
      39.783883
     ],
     [
      -79.927423,
      39.784466
     ],
     [
      -79.925918,
      39.784746
     ],
     [
      -79.919183,
      39.784946
     ],
     [
      -79.916951,
      39.785589
     ],
     [
      -79.910522,
      39.788895
     ],
     [
      -79.909097,
      39.790038
     ],
     [
      -79.907958,
      39.791865
     ],
     [
      -79.907511,
      39.794025
     ],
     [
      -79.90789,
      39.797487
     ],
     [
      -79.90875,
      39.799888
     ],
     [
      -79.910352,
      39.802591
     ],
     [
      -79.91327,
      39.80582
     ],
     [
      -79.916169,
      39.809601
     ],
     [
      -79.917969,
      39.813417
     ],
     [
      -79.91964,
      39.82277
     ],
     [
      -79.92053,
      39.834168
     ],
     [
      -79.921413,
      39.836577
     ],
     [
      -79.92332,
      39.838791
     ],
     [
      -79.925408,
      39.840164
     ],
     [
      -79.927376,
      39.840752
     ],
     [
      -79.931474,
      39.841234
     ],
     [
      -79.933773,
      39.841794
     ],
     [
      -79.935793,
      39.842865
     ],
     [
      -79.936461,
      39.844149
     ],
     [
      -79.936245,
      39.845348
     ],
     [
      -79.935468,
      39.846255
     ],
     [
      -79.928371,
      39.849617
     ],
     [
      -79.925936,
      39.851209
     ],
     [
      -79.924732,
      39.852432
     ],
     [
      -79.923428,
      39.854792
     ],
     [
      -79.923095,
      39.857048
     ],
     [
      -79.92402,
      39.860133
     ],
     [
      -79.925354,
      39.862198
     ],
     [
      -79.928193,
      39.864926
     ],
     [
      -79.928983,
      39.866289
     ],
     [
      -79.929102,
      39.867779
     ],
     [
      -79.928472,
      39.870037
     ],
     [
      -79.927313,
      39.871048
     ],
     [
      -79.924562,
      39.872242
     ],
     [
      -79.918146,
      39.874264
     ],
     [
      -79.916125,
      39.875795
     ],
     [
      -79.915128,
      39.877106
     ],
     [
      -79.914319,
      39.879123
     ],
     [
      -79.916665,
      39.879289
     ],
     [
      -79.916693,
      39.880969
     ],
     [
      -79.917856,
      39.883966
     ],
     [
      -79.919715,
      39.886403
     ],
     [
      -79.921175,
      39.887476
     ],
     [
      -79.923043,
      39.890185
     ],
     [
      -79.925311,
      39.89426
     ],
     [
      -79.92571,
      39.895621
     ],
     [
      -79.929018,
      39.900161
     ],
     [
      -79.930901,
      39.904895
     ],
     [
      -79.931106,
      39.906921
     ],
     [
      -79.930438,
      39.909809
     ],
     [
      -79.928639,
      39.912847
     ],
     [
      -79.926673,
      39.91482
     ],
     [
      -79.925309,
      39.916767
     ],
     [
      -79.924987,
      39.917868
     ],
     [
      -79.924639,
      39.91815
     ],
     [
      -79.924335,
      39.919803
     ],
     [
      -79.925482,
      39.922252
     ],
     [
      -79.927325,
      39.924137
     ],
     [
      -79.931698,
      39.927077
     ],
     [
      -79.933176,
      39.928696
     ],
     [
      -79.93657,
      39.931669
     ],
     [
      -79.937962,
      39.933795
     ],
     [
      -79.938171,
      39.93451
     ],
     [
      -79.941449,
      39.939033
     ],
     [
      -79.945359,
      39.943191
     ],
     [
      -79.942908,
      39.945108
     ],
     [
      -79.947329,
      39.949916
     ],
     [
      -79.950393,
      39.952108
     ],
     [
      -79.9548,
      39.954515
     ],
     [
      -79.957998,
      39.955781
     ],
     [
      -79.961713,
      39.956438
     ],
     [
      -79.966222,
      39.956743
     ],
     [
      -79.972253,
      39.956482
     ],
     [
      -79.976266,
      39.955761
     ],
     [
      -79.988365,
      39.95184
     ],
     [
      -79.991384,
      39.951588
     ],
     [
      -79.995604,
      39.952017
     ],
     [
      -79.99801,
      39.952591
     ],
     [
      -79.999903,
      39.953486
     ],
     [
      -80.002752,
      39.955699
     ],
     [
      -80.004597,
      39.957451
     ],
     [
      -80.005669,
      39.959108
     ],
     [
      -80.006807,
      39.961993
     ],
     [
      -80.007418,
      39.964709
     ],
     [
      -80.007616,
      39.967587
     ],
     [
      -80.007465,
      39.971386
     ],
     [
      -80.007137,
      39.973034
     ],
     [
      -80.006293,
      39.974742
     ],
     [
      -80.004185,
      39.976868
     ],
     [
      -80.001574,
      39.978221
     ],
     [
      -79.994766,
      39.980202
     ],
     [
      -79.992334,
      39.981898
     ],
     [
      -79.990334,
      39.984538
     ],
     [
      -79.989614,
      39.986762
     ],
     [
      -79.989774,
      39.989706
     ],
     [
      -79.990894,
      39.993353
     ],
     [
      -79.993438,
      39.999065
     ],
     [
      -79.993824,
      40.002498
     ],
     [
      -79.99363,
      40.003737
     ],
     [
      -79.99309,
      40.004908
     ],
     [
      -79.991766,
      40.006747
     ],
     [
      -79.989561,
      40.008519
     ],
     [
      -79.987227,
      40.009704
     ],
     [
      -79.983722,
      40.010672
     ],
     [
      -79.980138,
      40.010976
     ],
     [
      -79.974077,
      40.010601
     ],
     [
      -79.970957,
      40.009689
     ],
     [
      -79.969212,
      40.008873
     ],
     [
      -79.967022,
      40.007106
     ],
     [
      -79.965476,
      40.005009
     ],
     [
      -79.96254,
      39.99953
     ],
     [
      -79.959772,
      39.996378
     ],
     [
      -79.955213,
      39.993621
     ],
     [
      -79.950289,
      39.992878
     ],
     [
      -79.947489,
      39.992926
     ],
     [
      -79.945793,
      39.993214
     ],
     [
      -79.940118,
      39.995166
     ],
     [
      -79.93679,
      39.996852
     ],
     [
      -79.934663,
      39.998394
     ],
     [
      -79.931685,
      40.001941
     ],
     [
      -79.929707,
      40.006586
     ],
     [
      -79.927498,
      40.009659
     ],
     [
      -79.924446,
      40.012724
     ],
     [
      -79.921149,
      40.015275
     ],
     [
      -79.919786,
      40.016058
     ],
     [
      -79.914072,
      40.018285
     ],
     [
      -79.9015,
      40.021273
     ],
     [
      -79.900281,
      40.021312
     ],
     [
      -79.897579,
      40.020946
     ],
     [
      -79.894065,
      40.020931
     ],
     [
      -79.891129,
      40.021244
     ],
     [
      -79.888555,
      40.021856
     ]
    ]
   }
  }
 ]
}