{
 "type": "FeatureCollection",
 "metadata": {
  "note": "The Morgantown & Kingwood Railroad ran 47.9 miles east from Morgantown, West Virginia, up Deckers Creek through Sabraton, Masontown and Reedsville to Kingwood, then down to M&K Junction on the B&O main line at Rowlesburg. Built in three phases - Morgantown to Bretz (September 1903), Bretz to Kingwood (March 1906), Kingwood to Rowlesburg (July 1907) - it was leased by the Baltimore & Ohio in 1920 and bought outright in 1922. Passenger service, twice daily to Kingwood by 1906 and three trains a day in a 1927 B&O timetable, ended in 1953. The line is drawn as three geometry pieces so each opens in the year it actually opened, and each piece is split again at the 1920 B&O lease so the color tracks who ran the trains (Rule 4). Coal, building stone, glass sand and lumber were the freight traffic; the Morgantown end is now the Deckers Creek Trail.",
  "sources": [
   "https://en.wikipedia.org/wiki/Morgantown_and_Kingwood_Railroad",
   "https://www.wvncrails.org/morgantown-and-kingwood-railroad.html",
   "https://www.wvencyclopedia.org/entries/1358",
   "https://montrails.org/rail-trail-history/"
  ],
  "not_yet_sourced": [
   "train frequencies - all headways here are estimates",
   "the exact year in the 1930s when service dropped from three trains a day to two (1935 is an editorial split)",
   "the exact 1953 date of the last M&K passenger train"
  ]
 },
 "features": [
  {
   "type": "Feature",
   "properties": {
    "company": "Morgantown and Kingwood Railroad",
    "line": "Morgantown and Kingwood: Morgantown \u2013 Bretz",
    "id": "mk-morgantown-bretz",
    "color": "#9C5518",
    "mode": "intercity_rail",
    "avg_speed_kmh": 30,
    "speed_source": "estimated: a steeply graded Appalachian short line built for coal, running two or three mixed/passenger trains a day; unsourced",
    "geometry_quality": "real-traced from OpenStreetMap: the abandoned M&K grade up Deckers Creek, now the Deckers Creek Trail (ways tagged old_railway_operator=B&O). 17.7 mi traced, no straight-line approximation.",
    "segments": [
     {
      "start": 1903,
      "end": 1920,
      "headway_min": 420,
      "note": "Chartered 10 January 1899 by George C. Sturgiss and built in three phases from Morgantown: the first phase, Morgantown out along Deckers Creek through Sabraton, Dellslow and Masontown to Bretz, opened in September 1903. Stephen B. Elkins bought the company in 1902. Independent operation ended when the Baltimore & Ohio leased the M&K in 1920 (buying it outright in 1922). Frequency estimated, unsourced.",
      "sources": [
       "Segment-level: the phase opening dates, the 1899 charter, the Elkins purchase and the 1920 B&O lease are from the Wikipedia article on the M&K and from WVNC Rails; the headway is an estimate and is not sourced.",
       "https://en.wikipedia.org/wiki/Morgantown_and_Kingwood_Railroad",
       "https://www.wvncrails.org/morgantown-and-kingwood-railroad.html",
       "https://www.wvencyclopedia.org/entries/1358",
       "https://montrails.org/rail-trail-history/"
      ]
     }
    ]
   },
   "geometry": {
    "type": "LineString",
    "coordinates": [
     [
      -79.956225,
      39.62751
     ],
     [
      -79.95468,
      39.628039
     ],
     [
      -79.953203,
      39.629441
     ],
     [
      -79.952092,
      39.62954
     ],
     [
      -79.950679,
      39.628899
     ],
     [
      -79.948387,
      39.628379
     ],
     [
      -79.946809,
      39.627269
     ],
     [
      -79.944969,
      39.625002
     ],
     [
      -79.944177,
      39.624838
     ],
     [
      -79.943555,
      39.625026
     ],
     [
      -79.941272,
      39.626511
     ],
     [
      -79.938372,
      39.629356
     ],
     [
      -79.937364,
      39.629653
     ],
     [
      -79.935591,
      39.629754
     ],
     [
      -79.933067,
      39.628805
     ],
     [
      -79.930665,
      39.627282
     ],
     [
      -79.92765,
      39.625897
     ],
     [
      -79.925566,
      39.622344
     ],
     [
      -79.926198,
      39.61944
     ],
     [
      -79.925142,
      39.618013
     ],
     [
      -79.924813,
      39.616852
     ],
     [
      -79.92403,
      39.615766
     ],
     [
      -79.9234,
      39.614081
     ],
     [
      -79.92341,
      39.611081
     ],
     [
      -79.921045,
      39.607832
     ],
     [
      -79.91929,
      39.607152
     ],
     [
      -79.91863,
      39.606652
     ],
     [
      -79.918457,
      39.606013
     ],
     [
      -79.918936,
      39.603462
     ],
     [
      -79.918521,
      39.602636
     ],
     [
      -79.917823,
      39.602242
     ],
     [
      -79.916414,
      39.602213
     ],
     [
      -79.913874,
      39.602807
     ],
     [
      -79.911824,
      39.60361
     ],
     [
      -79.909578,
      39.604166
     ],
     [
      -79.907591,
      39.60528
     ],
     [
      -79.905317,
      39.606112
     ],
     [
      -79.899976,
      39.606478
     ],
     [
      -79.89909,
      39.606424
     ],
     [
      -79.898004,
      39.606042
     ],
     [
      -79.896872,
      39.605199
     ],
     [
      -79.896673,
      39.604057
     ],
     [
      -79.897354,
      39.601023
     ],
     [
      -79.896785,
      39.600193
     ],
     [
      -79.895909,
      39.599912
     ],
     [
      -79.894644,
      39.600253
     ],
     [
      -79.89364,
      39.602031
     ],
     [
      -79.892679,
      39.602579
     ],
     [
      -79.890004,
      39.603621
     ],
     [
      -79.887915,
      39.603616
     ],
     [
      -79.887215,
      39.603815
     ],
     [
      -79.886714,
      39.604369
     ],
     [
      -79.886269,
      39.60601
     ],
     [
      -79.885369,
      39.606574
     ],
     [
      -79.884525,
      39.606551
     ],
     [
      -79.882733,
      39.606002
     ],
     [
      -79.877026,
      39.603936
     ],
     [
      -79.874998,
      39.602456
     ],
     [
      -79.873397,
      39.600841
     ],
     [
      -79.871708,
      39.599863
     ],
     [
      -79.869075,
      39.597861
     ],
     [
      -79.867105,
      39.597214
     ],
     [
      -79.864648,
      39.596849
     ],
     [
      -79.863444,
      39.595626
     ],
     [
      -79.862973,
      39.592154
     ],
     [
      -79.863446,
      39.590605
     ],
     [
      -79.866182,
      39.587286
     ],
     [
      -79.867177,
      39.585567
     ],
     [
      -79.869315,
      39.584518
     ],
     [
      -79.869782,
      39.583608
     ],
     [
      -79.86916,
      39.582795
     ],
     [
      -79.866348,
      39.581783
     ],
     [
      -79.864838,
      39.580606
     ],
     [
      -79.863204,
      39.579809
     ],
     [
      -79.861332,
      39.577987
     ],
     [
      -79.860375,
      39.576017
     ],
     [
      -79.859578,
      39.575762
     ],
     [
      -79.856986,
      39.575587
     ],
     [
      -79.854299,
      39.574456
     ],
     [
      -79.853249,
      39.573185
     ],
     [
      -79.851068,
      39.572653
     ],
     [
      -79.849017,
      39.571453
     ],
     [
      -79.848,
      39.571505
     ],
     [
      -79.845343,
      39.572735
     ],
     [
      -79.84467,
      39.572761
     ],
     [
      -79.843196,
      39.572367
     ],
     [
      -79.84111,
      39.570276
     ],
     [
      -79.83895,
      39.569201
     ],
     [
      -79.837276,
      39.56698
     ],
     [
      -79.836732,
      39.566474
     ],
     [
      -79.835957,
      39.56619
     ],
     [
      -79.832196,
      39.565996
     ],
     [
      -79.830662,
      39.565681
     ],
     [
      -79.828752,
      39.564863
     ],
     [
      -79.822438,
      39.564776
     ],
     [
      -79.821119,
      39.564532
     ],
     [
      -79.819627,
      39.563841
     ],
     [
      -79.817358,
      39.563854
     ],
     [
      -79.814928,
      39.561819
     ],
     [
      -79.813051,
      39.56081
     ],
     [
      -79.808729,
      39.56062
     ],
     [
      -79.807665,
      39.560268
     ],
     [
      -79.806214,
      39.558608
     ],
     [
      -79.803019,
      39.555739
     ],
     [
      -79.802692,
      39.555037
     ],
     [
      -79.802866,
      39.554281
     ],
     [
      -79.803682,
      39.553714
     ],
     [
      -79.804763,
      39.553613
     ],
     [
      -79.805669,
      39.553981
     ],
     [
      -79.807477,
      39.555359
     ],
     [
      -79.808609,
      39.55528
     ],
     [
      -79.817024,
      39.551006
     ],
     [
      -79.817449,
      39.550461
     ],
     [
      -79.817578,
      39.549738
     ],
     [
      -79.817364,
      39.549212
     ],
     [
      -79.816591,
      39.548633
     ],
     [
      -79.814295,
      39.548066
     ],
     [
      -79.813812,
      39.547409
     ],
     [
      -79.813571,
      39.545572
     ],
     [
      -79.812702,
      39.544476
     ],
     [
      -79.811409,
      39.543462
     ],
     [
      -79.811307,
      39.543057
     ],
     [
      -79.812101,
      39.53885
     ],
     [
      -79.808095,
      39.50831
     ],
     [
      -79.806945,
      39.507378
     ],
     [
      -79.800078,
      39.50485
     ]
    ]
   }
  },
  {
   "type": "Feature",
   "properties": {
    "company": "Baltimore and Ohio Railroad",
    "line": "Baltimore and Ohio: Morgantown \u2013 Bretz (M&K Branch)",
    "id": "bo-mk-morgantown-bretz",
    "color": "#00447C",
    "mode": "intercity_rail",
    "avg_speed_kmh": 30,
    "speed_source": "estimated: B&O branch-line service, latterly Brill motor cars; unsourced",
    "geometry_quality": "real-traced from OpenStreetMap: the abandoned M&K grade up Deckers Creek, now the Deckers Creek Trail (ways tagged old_railway_operator=B&O). 17.7 mi traced, no straight-line approximation.",
    "segments": [
     {
      "start": 1920,
      "end": 1935,
      "headway_min": 420,
      "note": "The B&O leased the M&K in 1920 and bought it in 1922, running it as a branch. A 1927 B&O timetable lists three trains a day between Morgantown and M&K Junction. Frequency estimated from that timetable but not verified against it.",
      "sources": [
       "Segment-level: the 1920 lease, 1922 purchase and the three-trains-a-day 1927 timetable are from WVNC Rails; the headway is an estimate.",
       "https://en.wikipedia.org/wiki/Morgantown_and_Kingwood_Railroad",
       "https://www.wvncrails.org/morgantown-and-kingwood-railroad.html",
       "https://www.wvencyclopedia.org/entries/1358",
       "https://montrails.org/rail-trail-history/"
      ]
     },
     {
      "start": 1935,
      "end": 1953,
      "headway_min": 600,
      "note": "By the 1930s service was down to two trains a day, latterly worked by Brill motor cars. Passenger service on the M&K ceased in 1953, the same year the B&O ended passenger trains on the FM&P through Morgantown. Coal freight continued for decades afterwards; the Morgantown - Reedsville end is now the Deckers Creek Trail. Frequency estimated, unsourced.",
      "sources": [
       "Segment-level: the 1930s decline to two trains a day, the Brill motor cars and the 1953 end of passenger service are from WVNC Rails; the 1935 start year for this segment is an editorial split within 'by the 1930s' and is NOT sourced to a specific year.",
       "https://en.wikipedia.org/wiki/Morgantown_and_Kingwood_Railroad",
       "https://www.wvncrails.org/morgantown-and-kingwood-railroad.html",
       "https://www.wvencyclopedia.org/entries/1358",
       "https://montrails.org/rail-trail-history/"
      ]
     }
    ]
   },
   "geometry": {
    "type": "LineString",
    "coordinates": [
     [
      -79.956225,
      39.62751
     ],
     [
      -79.95468,
      39.628039
     ],
     [
      -79.953203,
      39.629441
     ],
     [
      -79.952092,
      39.62954
     ],
     [
      -79.950679,
      39.628899
     ],
     [
      -79.948387,
      39.628379
     ],
     [
      -79.946809,
      39.627269
     ],
     [
      -79.944969,
      39.625002
     ],
     [
      -79.944177,
      39.624838
     ],
     [
      -79.943555,
      39.625026
     ],
     [
      -79.941272,
      39.626511
     ],
     [
      -79.938372,
      39.629356
     ],
     [
      -79.937364,
      39.629653
     ],
     [
      -79.935591,
      39.629754
     ],
     [
      -79.933067,
      39.628805
     ],
     [
      -79.930665,
      39.627282
     ],
     [
      -79.92765,
      39.625897
     ],
     [
      -79.925566,
      39.622344
     ],
     [
      -79.926198,
      39.61944
     ],
     [
      -79.925142,
      39.618013
     ],
     [
      -79.924813,
      39.616852
     ],
     [
      -79.92403,
      39.615766
     ],
     [
      -79.9234,
      39.614081
     ],
     [
      -79.92341,
      39.611081
     ],
     [
      -79.921045,
      39.607832
     ],
     [
      -79.91929,
      39.607152
     ],
     [
      -79.91863,
      39.606652
     ],
     [
      -79.918457,
      39.606013
     ],
     [
      -79.918936,
      39.603462
     ],
     [
      -79.918521,
      39.602636
     ],
     [
      -79.917823,
      39.602242
     ],
     [
      -79.916414,
      39.602213
     ],
     [
      -79.913874,
      39.602807
     ],
     [
      -79.911824,
      39.60361
     ],
     [
      -79.909578,
      39.604166
     ],
     [
      -79.907591,
      39.60528
     ],
     [
      -79.905317,
      39.606112
     ],
     [
      -79.899976,
      39.606478
     ],
     [
      -79.89909,
      39.606424
     ],
     [
      -79.898004,
      39.606042
     ],
     [
      -79.896872,
      39.605199
     ],
     [
      -79.896673,
      39.604057
     ],
     [
      -79.897354,
      39.601023
     ],
     [
      -79.896785,
      39.600193
     ],
     [
      -79.895909,
      39.599912
     ],
     [
      -79.894644,
      39.600253
     ],
     [
      -79.89364,
      39.602031
     ],
     [
      -79.892679,
      39.602579
     ],
     [
      -79.890004,
      39.603621
     ],
     [
      -79.887915,
      39.603616
     ],
     [
      -79.887215,
      39.603815
     ],
     [
      -79.886714,
      39.604369
     ],
     [
      -79.886269,
      39.60601
     ],
     [
      -79.885369,
      39.606574
     ],
     [
      -79.884525,
      39.606551
     ],
     [
      -79.882733,
      39.606002
     ],
     [
      -79.877026,
      39.603936
     ],
     [
      -79.874998,
      39.602456
     ],
     [
      -79.873397,
      39.600841
     ],
     [
      -79.871708,
      39.599863
     ],
     [
      -79.869075,
      39.597861
     ],
     [
      -79.867105,
      39.597214
     ],
     [
      -79.864648,
      39.596849
     ],
     [
      -79.863444,
      39.595626
     ],
     [
      -79.862973,
      39.592154
     ],
     [
      -79.863446,
      39.590605
     ],
     [
      -79.866182,
      39.587286
     ],
     [
      -79.867177,
      39.585567
     ],
     [
      -79.869315,
      39.584518
     ],
     [
      -79.869782,
      39.583608
     ],
     [
      -79.86916,
      39.582795
     ],
     [
      -79.866348,
      39.581783
     ],
     [
      -79.864838,
      39.580606
     ],
     [
      -79.863204,
      39.579809
     ],
     [
      -79.861332,
      39.577987
     ],
     [
      -79.860375,
      39.576017
     ],
     [
      -79.859578,
      39.575762
     ],
     [
      -79.856986,
      39.575587
     ],
     [
      -79.854299,
      39.574456
     ],
     [
      -79.853249,
      39.573185
     ],
     [
      -79.851068,
      39.572653
     ],
     [
      -79.849017,
      39.571453
     ],
     [
      -79.848,
      39.571505
     ],
     [
      -79.845343,
      39.572735
     ],
     [
      -79.84467,
      39.572761
     ],
     [
      -79.843196,
      39.572367
     ],
     [
      -79.84111,
      39.570276
     ],
     [
      -79.83895,
      39.569201
     ],
     [
      -79.837276,
      39.56698
     ],
     [
      -79.836732,
      39.566474
     ],
     [
      -79.835957,
      39.56619
     ],
     [
      -79.832196,
      39.565996
     ],
     [
      -79.830662,
      39.565681
     ],
     [
      -79.828752,
      39.564863
     ],
     [
      -79.822438,
      39.564776
     ],
     [
      -79.821119,
      39.564532
     ],
     [
      -79.819627,
      39.563841
     ],
     [
      -79.817358,
      39.563854
     ],
     [
      -79.814928,
      39.561819
     ],
     [
      -79.813051,
      39.56081
     ],
     [
      -79.808729,
      39.56062
     ],
     [
      -79.807665,
      39.560268
     ],
     [
      -79.806214,
      39.558608
     ],
     [
      -79.803019,
      39.555739
     ],
     [
      -79.802692,
      39.555037
     ],
     [
      -79.802866,
      39.554281
     ],
     [
      -79.803682,
      39.553714
     ],
     [
      -79.804763,
      39.553613
     ],
     [
      -79.805669,
      39.553981
     ],
     [
      -79.807477,
      39.555359
     ],
     [
      -79.808609,
      39.55528
     ],
     [
      -79.817024,
      39.551006
     ],
     [
      -79.817449,
      39.550461
     ],
     [
      -79.817578,
      39.549738
     ],
     [
      -79.817364,
      39.549212
     ],
     [
      -79.816591,
      39.548633
     ],
     [
      -79.814295,
      39.548066
     ],
     [
      -79.813812,
      39.547409
     ],
     [
      -79.813571,
      39.545572
     ],
     [
      -79.812702,
      39.544476
     ],
     [
      -79.811409,
      39.543462
     ],
     [
      -79.811307,
      39.543057
     ],
     [
      -79.812101,
      39.53885
     ],
     [
      -79.808095,
      39.50831
     ],
     [
      -79.806945,
      39.507378
     ],
     [
      -79.800078,
      39.50485
     ]
    ]
   }
  },
  {
   "type": "Feature",
   "properties": {
    "company": "Morgantown and Kingwood Railroad",
    "line": "Morgantown and Kingwood: Bretz \u2013 Kingwood",
    "id": "mk-bretz-kingwood",
    "color": "#9C5518",
    "mode": "intercity_rail",
    "avg_speed_kmh": 30,
    "speed_source": "estimated: a steeply graded Appalachian short line built for coal, running two or three mixed/passenger trains a day; unsourced",
    "geometry_quality": "real-traced from OpenStreetMap ways named 'Morgantown and Kingwood Railroad' (railway=abandoned, old_railway_operator=B&O). 11.6 mi traced, no straight-line approximation.",
    "segments": [
     {
      "start": 1906,
      "end": 1920,
      "headway_min": 420,
      "note": "Chartered 10 January 1899 by George C. Sturgiss and built in three phases from Morgantown: the second phase, Bretz through Reedsville to Kingwood, opened in March 1906; by that year the line was running two passenger trains a day to Kingwood. Stephen B. Elkins bought the company in 1902. Independent operation ended when the Baltimore & Ohio leased the M&K in 1920 (buying it outright in 1922). Frequency estimated, unsourced.",
      "sources": [
       "Segment-level: the phase opening dates, the 1899 charter, the Elkins purchase and the 1920 B&O lease are from the Wikipedia article on the M&K and from WVNC Rails; the headway is an estimate and is not sourced.",
       "https://en.wikipedia.org/wiki/Morgantown_and_Kingwood_Railroad",
       "https://www.wvncrails.org/morgantown-and-kingwood-railroad.html",
       "https://www.wvencyclopedia.org/entries/1358",
       "https://montrails.org/rail-trail-history/"
      ]
     }
    ]
   },
   "geometry": {
    "type": "LineString",
    "coordinates": [
     [
      -79.800078,
      39.50485
     ],
     [
      -79.790642,
      39.501397
     ],
     [
      -79.790112,
      39.50132
     ],
     [
      -79.788647,
      39.501643
     ],
     [
      -79.786911,
      39.502963
     ],
     [
      -79.785928,
      39.503378
     ],
     [
      -79.784865,
      39.503515
     ],
     [
      -79.783426,
      39.503175
     ],
     [
      -79.781919,
      39.502055
     ],
     [
      -79.780862,
      39.50161
     ],
     [
      -79.773505,
      39.501354
     ],
     [
      -79.772482,
      39.500587
     ],
     [
      -79.772168,
      39.49932
     ],
     [
      -79.77137,
      39.498588
     ],
     [
      -79.769391,
      39.498405
     ],
     [
      -79.766732,
      39.498977
     ],
     [
      -79.762774,
      39.497993
     ],
     [
      -79.761209,
      39.498337
     ],
     [
      -79.759385,
      39.499432
     ],
     [
      -79.758673,
      39.500324
     ],
     [
      -79.758335,
      39.50144
     ],
     [
      -79.758982,
      39.503491
     ],
     [
      -79.758805,
      39.504612
     ],
     [
      -79.755615,
      39.507702
     ],
     [
      -79.754909,
      39.508085
     ],
     [
      -79.753626,
      39.508171
     ],
     [
      -79.752542,
      39.507542
     ],
     [
      -79.752158,
      39.506786
     ],
     [
      -79.752276,
      39.506237
     ],
     [
      -79.752601,
      39.50594
     ],
     [
      -79.754522,
      39.505459
     ],
     [
      -79.75526,
      39.504475
     ],
     [
      -79.755142,
      39.503972
     ],
     [
      -79.753399,
      39.502324
     ],
     [
      -79.753252,
      39.501798
     ],
     [
      -79.754256,
      39.500653
     ],
     [
      -79.756542,
      39.499366
     ],
     [
      -79.756542,
      39.498542
     ],
     [
      -79.754799,
      39.497146
     ],
     [
      -79.754268,
      39.495316
     ],
     [
      -79.753795,
      39.494836
     ],
     [
      -79.753352,
      39.494584
     ],
     [
      -79.752171,
      39.494493
     ],
     [
      -79.750487,
      39.494859
     ],
     [
      -79.749926,
      39.494721
     ],
     [
      -79.74845,
      39.492684
     ],
     [
      -79.746737,
      39.491975
     ],
     [
      -79.744882,
      39.492393
     ],
     [
      -79.744019,
      39.493874
     ],
     [
      -79.740355,
      39.496322
     ],
     [
      -79.734507,
      39.497419
     ],
     [
      -79.732794,
      39.497853
     ],
     [
      -79.732085,
      39.498288
     ],
     [
      -79.731612,
      39.498974
     ],
     [
      -79.731788,
      39.500086
     ],
     [
      -79.729914,
      39.504107
     ],
     [
      -79.728555,
      39.505137
     ],
     [
      -79.727846,
      39.505366
     ],
     [
      -79.726369,
      39.50548
     ],
     [
      -79.725719,
      39.505296
     ],
     [
      -79.723268,
      39.503718
     ],
     [
      -79.722116,
      39.503512
     ],
     [
      -79.718542,
      39.503877
     ],
     [
      -79.715588,
      39.503007
     ],
     [
      -79.714052,
      39.502892
     ],
     [
      -79.710271,
      39.503142
     ],
     [
      -79.708587,
      39.504171
     ],
     [
      -79.706636,
      39.504766
     ],
     [
      -79.704155,
      39.504833
     ],
     [
      -79.702619,
      39.505153
     ],
     [
      -79.70123,
      39.505747
     ],
     [
      -79.697714,
      39.506204
     ],
     [
      -79.696857,
      39.506615
     ],
     [
      -79.694315,
      39.508719
     ],
     [
      -79.693163,
      39.509131
     ],
     [
      -79.691361,
      39.508901
     ],
     [
      -79.690328,
      39.508351
     ],
     [
      -79.688055,
      39.506359
     ],
     [
      -79.685604,
      39.504847
     ],
     [
      -79.685725,
      39.502605
     ],
     [
      -79.683082,
      39.498243
     ],
     [
      -79.682138,
      39.497555
     ],
     [
      -79.67954,
      39.496341
     ],
     [
      -79.677918,
      39.494829
     ],
     [
      -79.676973,
      39.494371
     ],
     [
      -79.674702,
      39.491989
     ],
     [
      -79.674113,
      39.490845
     ],
     [
      -79.674705,
      39.48922
     ],
     [
      -79.67571,
      39.488512
     ],
     [
      -79.677042,
      39.486202
     ],
     [
      -79.676899,
      39.482907
     ],
     [
      -79.677195,
      39.481969
     ],
     [
      -79.677787,
      39.481214
     ],
     [
      -79.678644,
      39.480483
     ],
     [
      -79.680889,
      39.479248
     ],
     [
      -79.682189,
      39.478677
     ],
     [
      -79.684199,
      39.478175
     ],
     [
      -79.685085,
      39.477604
     ],
     [
      -79.685292,
      39.477032
     ],
     [
      -79.684671,
      39.476031
     ],
     [
      -79.683311,
      39.475829
     ],
     [
      -79.682592,
      39.475997
     ]
    ]
   }
  },
  {
   "type": "Feature",
   "properties": {
    "company": "Baltimore and Ohio Railroad",
    "line": "Baltimore and Ohio: Bretz \u2013 Kingwood (M&K Branch)",
    "id": "bo-mk-bretz-kingwood",
    "color": "#00447C",
    "mode": "intercity_rail",
    "avg_speed_kmh": 30,
    "speed_source": "estimated: B&O branch-line service, latterly Brill motor cars; unsourced",
    "geometry_quality": "real-traced from OpenStreetMap ways named 'Morgantown and Kingwood Railroad' (railway=abandoned, old_railway_operator=B&O). 11.6 mi traced, no straight-line approximation.",
    "segments": [
     {
      "start": 1920,
      "end": 1935,
      "headway_min": 420,
      "note": "The B&O leased the M&K in 1920 and bought it in 1922, running it as a branch. A 1927 B&O timetable lists three trains a day between Morgantown and M&K Junction. Frequency estimated from that timetable but not verified against it.",
      "sources": [
       "Segment-level: the 1920 lease, 1922 purchase and the three-trains-a-day 1927 timetable are from WVNC Rails; the headway is an estimate.",
       "https://en.wikipedia.org/wiki/Morgantown_and_Kingwood_Railroad",
       "https://www.wvncrails.org/morgantown-and-kingwood-railroad.html",
       "https://www.wvencyclopedia.org/entries/1358",
       "https://montrails.org/rail-trail-history/"
      ]
     },
     {
      "start": 1935,
      "end": 1953,
      "headway_min": 600,
      "note": "By the 1930s service was down to two trains a day, latterly worked by Brill motor cars. Passenger service on the M&K ceased in 1953, the same year the B&O ended passenger trains on the FM&P through Morgantown. Coal freight continued for decades afterwards; the Morgantown - Reedsville end is now the Deckers Creek Trail. Frequency estimated, unsourced.",
      "sources": [
       "Segment-level: the 1930s decline to two trains a day, the Brill motor cars and the 1953 end of passenger service are from WVNC Rails; the 1935 start year for this segment is an editorial split within 'by the 1930s' and is NOT sourced to a specific year.",
       "https://en.wikipedia.org/wiki/Morgantown_and_Kingwood_Railroad",
       "https://www.wvncrails.org/morgantown-and-kingwood-railroad.html",
       "https://www.wvencyclopedia.org/entries/1358",
       "https://montrails.org/rail-trail-history/"
      ]
     }
    ]
   },
   "geometry": {
    "type": "LineString",
    "coordinates": [
     [
      -79.800078,
      39.50485
     ],
     [
      -79.790642,
      39.501397
     ],
     [
      -79.790112,
      39.50132
     ],
     [
      -79.788647,
      39.501643
     ],
     [
      -79.786911,
      39.502963
     ],
     [
      -79.785928,
      39.503378
     ],
     [
      -79.784865,
      39.503515
     ],
     [
      -79.783426,
      39.503175
     ],
     [
      -79.781919,
      39.502055
     ],
     [
      -79.780862,
      39.50161
     ],
     [
      -79.773505,
      39.501354
     ],
     [
      -79.772482,
      39.500587
     ],
     [
      -79.772168,
      39.49932
     ],
     [
      -79.77137,
      39.498588
     ],
     [
      -79.769391,
      39.498405
     ],
     [
      -79.766732,
      39.498977
     ],
     [
      -79.762774,
      39.497993
     ],
     [
      -79.761209,
      39.498337
     ],
     [
      -79.759385,
      39.499432
     ],
     [
      -79.758673,
      39.500324
     ],
     [
      -79.758335,
      39.50144
     ],
     [
      -79.758982,
      39.503491
     ],
     [
      -79.758805,
      39.504612
     ],
     [
      -79.755615,
      39.507702
     ],
     [
      -79.754909,
      39.508085
     ],
     [
      -79.753626,
      39.508171
     ],
     [
      -79.752542,
      39.507542
     ],
     [
      -79.752158,
      39.506786
     ],
     [
      -79.752276,
      39.506237
     ],
     [
      -79.752601,
      39.50594
     ],
     [
      -79.754522,
      39.505459
     ],
     [
      -79.75526,
      39.504475
     ],
     [
      -79.755142,
      39.503972
     ],
     [
      -79.753399,
      39.502324
     ],
     [
      -79.753252,
      39.501798
     ],
     [
      -79.754256,
      39.500653
     ],
     [
      -79.756542,
      39.499366
     ],
     [
      -79.756542,
      39.498542
     ],
     [
      -79.754799,
      39.497146
     ],
     [
      -79.754268,
      39.495316
     ],
     [
      -79.753795,
      39.494836
     ],
     [
      -79.753352,
      39.494584
     ],
     [
      -79.752171,
      39.494493
     ],
     [
      -79.750487,
      39.494859
     ],
     [
      -79.749926,
      39.494721
     ],
     [
      -79.74845,
      39.492684
     ],
     [
      -79.746737,
      39.491975
     ],
     [
      -79.744882,
      39.492393
     ],
     [
      -79.744019,
      39.493874
     ],
     [
      -79.740355,
      39.496322
     ],
     [
      -79.734507,
      39.497419
     ],
     [
      -79.732794,
      39.497853
     ],
     [
      -79.732085,
      39.498288
     ],
     [
      -79.731612,
      39.498974
     ],
     [
      -79.731788,
      39.500086
     ],
     [
      -79.729914,
      39.504107
     ],
     [
      -79.728555,
      39.505137
     ],
     [
      -79.727846,
      39.505366
     ],
     [
      -79.726369,
      39.50548
     ],
     [
      -79.725719,
      39.505296
     ],
     [
      -79.723268,
      39.503718
     ],
     [
      -79.722116,
      39.503512
     ],
     [
      -79.718542,
      39.503877
     ],
     [
      -79.715588,
      39.503007
     ],
     [
      -79.714052,
      39.502892
     ],
     [
      -79.710271,
      39.503142
     ],
     [
      -79.708587,
      39.504171
     ],
     [
      -79.706636,
      39.504766
     ],
     [
      -79.704155,
      39.504833
     ],
     [
      -79.702619,
      39.505153
     ],
     [
      -79.70123,
      39.505747
     ],
     [
      -79.697714,
      39.506204
     ],
     [
      -79.696857,
      39.506615
     ],
     [
      -79.694315,
      39.508719
     ],
     [
      -79.693163,
      39.509131
     ],
     [
      -79.691361,
      39.508901
     ],
     [
      -79.690328,
      39.508351
     ],
     [
      -79.688055,
      39.506359
     ],
     [
      -79.685604,
      39.504847
     ],
     [
      -79.685725,
      39.502605
     ],
     [
      -79.683082,
      39.498243
     ],
     [
      -79.682138,
      39.497555
     ],
     [
      -79.67954,
      39.496341
     ],
     [
      -79.677918,
      39.494829
     ],
     [
      -79.676973,
      39.494371
     ],
     [
      -79.674702,
      39.491989
     ],
     [
      -79.674113,
      39.490845
     ],
     [
      -79.674705,
      39.48922
     ],
     [
      -79.67571,
      39.488512
     ],
     [
      -79.677042,
      39.486202
     ],
     [
      -79.676899,
      39.482907
     ],
     [
      -79.677195,
      39.481969
     ],
     [
      -79.677787,
      39.481214
     ],
     [
      -79.678644,
      39.480483
     ],
     [
      -79.680889,
      39.479248
     ],
     [
      -79.682189,
      39.478677
     ],
     [
      -79.684199,
      39.478175
     ],
     [
      -79.685085,
      39.477604
     ],
     [
      -79.685292,
      39.477032
     ],
     [
      -79.684671,
      39.476031
     ],
     [
      -79.683311,
      39.475829
     ],
     [
      -79.682592,
      39.475997
     ]
    ]
   }
  },
  {
   "type": "Feature",
   "properties": {
    "company": "Morgantown and Kingwood Railroad",
    "line": "Morgantown and Kingwood: Kingwood \u2013 M&K Junction",
    "id": "mk-kingwood-mk-junction",
    "color": "#9C5518",
    "mode": "intercity_rail",
    "avg_speed_kmh": 30,
    "speed_source": "estimated: a steeply graded Appalachian short line built for coal, running two or three mixed/passenger trains a day; unsourced",
    "geometry_quality": "real-traced from OpenStreetMap ways named 'Morgantown and Kingwood Railroad' (railway=abandoned). 17.4 mi traced, no straight-line approximation. The whole line traces at 46.7 mi against a documented 47.9 mi main line.",
    "segments": [
     {
      "start": 1907,
      "end": 1920,
      "headway_min": 420,
      "note": "Chartered 10 January 1899 by George C. Sturgiss and built in three phases from Morgantown: the last phase, Kingwood through Albright and Manheim to M&K Junction on the B&O main line at Rowlesburg, opened in July 1907. Stephen B. Elkins bought the company in 1902. Independent operation ended when the Baltimore & Ohio leased the M&K in 1920 (buying it outright in 1922). Frequency estimated, unsourced.",
      "sources": [
       "Segment-level: the phase opening dates, the 1899 charter, the Elkins purchase and the 1920 B&O lease are from the Wikipedia article on the M&K and from WVNC Rails; the headway is an estimate and is not sourced.",
       "https://en.wikipedia.org/wiki/Morgantown_and_Kingwood_Railroad",
       "https://www.wvncrails.org/morgantown-and-kingwood-railroad.html",
       "https://www.wvencyclopedia.org/entries/1358",
       "https://montrails.org/rail-trail-history/"
      ]
     }
    ]
   },
   "geometry": {
    "type": "LineString",
    "coordinates": [
     [
      -79.682592,
      39.475997
     ],
     [
      -79.680328,
      39.477031
     ],
     [
      -79.675527,
      39.481274
     ],
     [
      -79.673765,
      39.485857
     ],
     [
      -79.672167,
      39.488304
     ],
     [
      -79.670807,
      39.489333
     ],
     [
      -79.66992,
      39.489561
     ],
     [
      -79.668857,
      39.489491
     ],
     [
      -79.66546,
      39.488823
     ],
     [
      -79.664481,
      39.488441
     ],
     [
      -79.662051,
      39.486753
     ],
     [
      -79.661147,
      39.486571
     ],
     [
      -79.660415,
      39.486464
     ],
     [
      -79.65911,
      39.486721
     ],
     [
      -79.658517,
      39.487065
     ],
     [
      -79.657971,
      39.48784
     ],
     [
      -79.65787,
      39.490168
     ],
     [
      -79.657277,
      39.491632
     ],
     [
      -79.656686,
      39.491998
     ],
     [
      -79.654619,
      39.492492
     ],
     [
      -79.653569,
      39.493264
     ],
     [
      -79.653419,
      39.493755
     ],
     [
      -79.653955,
      39.495733
     ],
     [
      -79.653163,
      39.496456
     ],
     [
      -79.652482,
      39.4976
     ],
     [
      -79.65236,
      39.500087
     ],
     [
      -79.651576,
      39.503108
     ],
     [
      -79.65004,
      39.503702
     ],
     [
      -79.649153,
      39.50361
     ],
     [
      -79.648534,
      39.503289
     ],
     [
      -79.647841,
      39.50131
     ],
     [
      -79.647757,
      39.497211
     ],
     [
      -79.646566,
      39.495332
     ],
     [
      -79.646646,
      39.493253
     ],
     [
      -79.646348,
      39.492574
     ],
     [
      -79.645412,
      39.491587
     ],
     [
      -79.643796,
      39.490667
     ],
     [
      -79.642785,
      39.489394
     ],
     [
      -79.639946,
      39.488274
     ],
     [
      -79.637881,
      39.486808
     ],
     [
      -79.636909,
      39.485617
     ],
     [
      -79.636439,
      39.484221
     ],
     [
      -79.636032,
      39.480903
     ],
     [
      -79.636152,
      39.479873
     ],
     [
      -79.637487,
      39.476488
     ],
     [
      -79.638317,
      39.474772
     ],
     [
      -79.639087,
      39.473858
     ],
     [
      -79.642839,
      39.472351
     ],
     [
      -79.644081,
      39.471369
     ],
     [
      -79.651151,
      39.462818
     ],
     [
      -79.655464,
      39.46106
     ],
     [
      -79.661843,
      39.459487
     ],
     [
      -79.663881,
      39.458779
     ],
     [
      -79.669405,
      39.456244
     ],
     [
      -79.67041,
      39.455535
     ],
     [
      -79.676243,
      39.449672
     ],
     [
      -79.679055,
      39.44491
     ],
     [
      -79.679932,
      39.444071
     ],
     [
      -79.681515,
      39.44321
     ],
     [
      -79.683125,
      39.441556
     ],
     [
      -79.683909,
      39.439265
     ],
     [
      -79.683791,
      39.437088
     ],
     [
      -79.684334,
      39.434492
     ],
     [
      -79.685666,
      39.431663
     ],
     [
      -79.68472,
      39.4278
     ],
     [
      -79.685665,
      39.425268
     ],
     [
      -79.685271,
      39.423796
     ],
     [
      -79.68594,
      39.421945
     ],
     [
      -79.685575,
      39.419494
     ],
     [
      -79.686388,
      39.416817
     ],
     [
      -79.686479,
      39.414074
     ],
     [
      -79.686996,
      39.4126
     ],
     [
      -79.686963,
      39.411931
     ],
     [
      -79.685851,
      39.410086
     ],
     [
      -79.682619,
      39.407876
     ],
     [
      -79.68127,
      39.40665
     ],
     [
      -79.679453,
      39.402921
     ],
     [
      -79.679453,
      39.401251
     ],
     [
      -79.682776,
      39.397359
     ],
     [
      -79.683879,
      39.396737
     ],
     [
      -79.685923,
      39.396506
     ],
     [
      -79.690688,
      39.396604
     ],
     [
      -79.695309,
      39.397416
     ],
     [
      -79.696572,
      39.397143
     ],
     [
      -79.699214,
      39.395458
     ],
     [
      -79.699748,
      39.394519
     ],
     [
      -79.700259,
      39.392377
     ],
     [
      -79.700059,
      39.389377
     ],
     [
      -79.69954,
      39.388176
     ],
     [
      -79.699797,
      39.385943
     ],
     [
      -79.701623,
      39.383753
     ],
     [
      -79.704025,
      39.38249
     ],
     [
      -79.704926,
      39.379953
     ],
     [
      -79.705024,
      39.377275
     ],
     [
      -79.70482,
      39.376356
     ],
     [
      -79.703632,
      39.375006
     ],
     [
      -79.701561,
      39.374249
     ],
     [
      -79.700251,
      39.373499
     ],
     [
      -79.699024,
      39.372219
     ],
     [
      -79.697354,
      39.36885
     ],
     [
      -79.694586,
      39.365897
     ],
     [
      -79.693409,
      39.363563
     ],
     [
      -79.691112,
      39.360655
     ],
     [
      -79.685974,
      39.352817
     ],
     [
      -79.684342,
      39.351818
     ],
     [
      -79.679981,
      39.350611
     ],
     [
      -79.672938,
      39.350483
     ]
    ]
   }
  },
  {
   "type": "Feature",
   "properties": {
    "company": "Baltimore and Ohio Railroad",
    "line": "Baltimore and Ohio: Kingwood \u2013 M&K Junction (M&K Branch)",
    "id": "bo-mk-kingwood-mk-junction",
    "color": "#00447C",
    "mode": "intercity_rail",
    "avg_speed_kmh": 30,
    "speed_source": "estimated: B&O branch-line service, latterly Brill motor cars; unsourced",
    "geometry_quality": "real-traced from OpenStreetMap ways named 'Morgantown and Kingwood Railroad' (railway=abandoned). 17.4 mi traced, no straight-line approximation. The whole line traces at 46.7 mi against a documented 47.9 mi main line.",
    "segments": [
     {
      "start": 1920,
      "end": 1935,
      "headway_min": 420,
      "note": "The B&O leased the M&K in 1920 and bought it in 1922, running it as a branch. A 1927 B&O timetable lists three trains a day between Morgantown and M&K Junction. Frequency estimated from that timetable but not verified against it.",
      "sources": [
       "Segment-level: the 1920 lease, 1922 purchase and the three-trains-a-day 1927 timetable are from WVNC Rails; the headway is an estimate.",
       "https://en.wikipedia.org/wiki/Morgantown_and_Kingwood_Railroad",
       "https://www.wvncrails.org/morgantown-and-kingwood-railroad.html",
       "https://www.wvencyclopedia.org/entries/1358",
       "https://montrails.org/rail-trail-history/"
      ]
     },
     {
      "start": 1935,
      "end": 1953,
      "headway_min": 600,
      "note": "By the 1930s service was down to two trains a day, latterly worked by Brill motor cars. Passenger service on the M&K ceased in 1953, the same year the B&O ended passenger trains on the FM&P through Morgantown. Coal freight continued for decades afterwards; the Morgantown - Reedsville end is now the Deckers Creek Trail. Frequency estimated, unsourced.",
      "sources": [
       "Segment-level: the 1930s decline to two trains a day, the Brill motor cars and the 1953 end of passenger service are from WVNC Rails; the 1935 start year for this segment is an editorial split within 'by the 1930s' and is NOT sourced to a specific year.",
       "https://en.wikipedia.org/wiki/Morgantown_and_Kingwood_Railroad",
       "https://www.wvncrails.org/morgantown-and-kingwood-railroad.html",
       "https://www.wvencyclopedia.org/entries/1358",
       "https://montrails.org/rail-trail-history/"
      ]
     }
    ]
   },
   "geometry": {
    "type": "LineString",
    "coordinates": [
     [
      -79.682592,
      39.475997
     ],
     [
      -79.680328,
      39.477031
     ],
     [
      -79.675527,
      39.481274
     ],
     [
      -79.673765,
      39.485857
     ],
     [
      -79.672167,
      39.488304
     ],
     [
      -79.670807,
      39.489333
     ],
     [
      -79.66992,
      39.489561
     ],
     [
      -79.668857,
      39.489491
     ],
     [
      -79.66546,
      39.488823
     ],
     [
      -79.664481,
      39.488441
     ],
     [
      -79.662051,
      39.486753
     ],
     [
      -79.661147,
      39.486571
     ],
     [
      -79.660415,
      39.486464
     ],
     [
      -79.65911,
      39.486721
     ],
     [
      -79.658517,
      39.487065
     ],
     [
      -79.657971,
      39.48784
     ],
     [
      -79.65787,
      39.490168
     ],
     [
      -79.657277,
      39.491632
     ],
     [
      -79.656686,
      39.491998
     ],
     [
      -79.654619,
      39.492492
     ],
     [
      -79.653569,
      39.493264
     ],
     [
      -79.653419,
      39.493755
     ],
     [
      -79.653955,
      39.495733
     ],
     [
      -79.653163,
      39.496456
     ],
     [
      -79.652482,
      39.4976
     ],
     [
      -79.65236,
      39.500087
     ],
     [
      -79.651576,
      39.503108
     ],
     [
      -79.65004,
      39.503702
     ],
     [
      -79.649153,
      39.50361
     ],
     [
      -79.648534,
      39.503289
     ],
     [
      -79.647841,
      39.50131
     ],
     [
      -79.647757,
      39.497211
     ],
     [
      -79.646566,
      39.495332
     ],
     [
      -79.646646,
      39.493253
     ],
     [
      -79.646348,
      39.492574
     ],
     [
      -79.645412,
      39.491587
     ],
     [
      -79.643796,
      39.490667
     ],
     [
      -79.642785,
      39.489394
     ],
     [
      -79.639946,
      39.488274
     ],
     [
      -79.637881,
      39.486808
     ],
     [
      -79.636909,
      39.485617
     ],
     [
      -79.636439,
      39.484221
     ],
     [
      -79.636032,
      39.480903
     ],
     [
      -79.636152,
      39.479873
     ],
     [
      -79.637487,
      39.476488
     ],
     [
      -79.638317,
      39.474772
     ],
     [
      -79.639087,
      39.473858
     ],
     [
      -79.642839,
      39.472351
     ],
     [
      -79.644081,
      39.471369
     ],
     [
      -79.651151,
      39.462818
     ],
     [
      -79.655464,
      39.46106
     ],
     [
      -79.661843,
      39.459487
     ],
     [
      -79.663881,
      39.458779
     ],
     [
      -79.669405,
      39.456244
     ],
     [
      -79.67041,
      39.455535
     ],
     [
      -79.676243,
      39.449672
     ],
     [
      -79.679055,
      39.44491
     ],
     [
      -79.679932,
      39.444071
     ],
     [
      -79.681515,
      39.44321
     ],
     [
      -79.683125,
      39.441556
     ],
     [
      -79.683909,
      39.439265
     ],
     [
      -79.683791,
      39.437088
     ],
     [
      -79.684334,
      39.434492
     ],
     [
      -79.685666,
      39.431663
     ],
     [
      -79.68472,
      39.4278
     ],
     [
      -79.685665,
      39.425268
     ],
     [
      -79.685271,
      39.423796
     ],
     [
      -79.68594,
      39.421945
     ],
     [
      -79.685575,
      39.419494
     ],
     [
      -79.686388,
      39.416817
     ],
     [
      -79.686479,
      39.414074
     ],
     [
      -79.686996,
      39.4126
     ],
     [
      -79.686963,
      39.411931
     ],
     [
      -79.685851,
      39.410086
     ],
     [
      -79.682619,
      39.407876
     ],
     [
      -79.68127,
      39.40665
     ],
     [
      -79.679453,
      39.402921
     ],
     [
      -79.679453,
      39.401251
     ],
     [
      -79.682776,
      39.397359
     ],
     [
      -79.683879,
      39.396737
     ],
     [
      -79.685923,
      39.396506
     ],
     [
      -79.690688,
      39.396604
     ],
     [
      -79.695309,
      39.397416
     ],
     [
      -79.696572,
      39.397143
     ],
     [
      -79.699214,
      39.395458
     ],
     [
      -79.699748,
      39.394519
     ],
     [
      -79.700259,
      39.392377
     ],
     [
      -79.700059,
      39.389377
     ],
     [
      -79.69954,
      39.388176
     ],
     [
      -79.699797,
      39.385943
     ],
     [
      -79.701623,
      39.383753
     ],
     [
      -79.704025,
      39.38249
     ],
     [
      -79.704926,
      39.379953
     ],
     [
      -79.705024,
      39.377275
     ],
     [
      -79.70482,
      39.376356
     ],
     [
      -79.703632,
      39.375006
     ],
     [
      -79.701561,
      39.374249
     ],
     [
      -79.700251,
      39.373499
     ],
     [
      -79.699024,
      39.372219
     ],
     [
      -79.697354,
      39.36885
     ],
     [
      -79.694586,
      39.365897
     ],
     [
      -79.693409,
      39.363563
     ],
     [
      -79.691112,
      39.360655
     ],
     [
      -79.685974,
      39.352817
     ],
     [
      -79.684342,
      39.351818
     ],
     [
      -79.679981,
      39.350611
     ],
     [
      -79.672938,
      39.350483
     ]
    ]
   }
  }
 ]
}