{"type": "FeatureCollection", "metadata": {"note": "The Overland Route as it actually ran in the twentieth century - the single busiest passenger corridor the map was missing. data/first_transcontinental_railroad.geojson draws the 1869 line and stops in 1942, when the original Promontory Summit segment was scrapped for the war effort, so between 1942 and Amtrak in 1971 the map had no line at all through Reno, Elko, Cheyenne or North Platte - even though the Overland Limited, the City of San Francisco, the Challenger and the City of Los Angeles all ran here daily. This layer draws the post-1904 alignment: Union Pacific Omaha - Ogden and Southern Pacific Ogden - Oakland over the Lucin Cutoff, 1904 to Amtrak. It deliberately overlaps the existing first-transcontinental layer for 1904-1942, because the two are different alignments over the Great Salt Lake - Promontory Summit versus the Lucin causeway - and the older layer\u2019s geometry is a schematic town-to-town approximation while this one is traced from OSM. The Chicago - Omaha leg (Chicago and North Western to October 30 1955, Milwaukee Road after) is not drawn here.", "sources": ["https://en.wikipedia.org/wiki/Overland_Route_(Union_Pacific_Railroad)", "https://en.wikipedia.org/wiki/City_of_San_Francisco_(train)", "https://en.wikipedia.org/wiki/San_Francisco_Zephyr", "data/first_transcontinental_railroad.geojson (existing layer, 1869 alignment)"], "geometry_sources": ["Traced from OpenStreetMap route relations pulled whole from the OSM API and stitched into one graph at their closest node pairs. Omaha - Ogden: 2280868 UP Omaha Subdivision, 7524286 Columbus, 7430259 Kearney, 8912095 North Platte Terminal, 7129340 Sidney, 7429476 Laramie, 7429530 Rawlins, 7429637 Evanston and 5407633 Ogden subdivisions. Ogden - Oakland: 8805633 Lucin Cutoff, 1521602 Lakeside, 4766672 Shafter, 1521601 Elko, 4766671 Nevada, 4489569 Roseville and 4493104 Martinez subdivisions. Dijkstra between terminals, Douglas-Peucker at 20 m."], "not_yet_sourced": ["No Union Pacific or Southern Pacific timetable was consulted for this layer. Every avg_speed_kmh is derived from the City of San Francisco\u2019s overall Chicago - Oakland schedule, and every headway_min is an estimate - the route carried several daily trains each way in its prime, not the one this file\u2019s 1440 implies.", "The Chicago - Omaha leg of the Overland Route is not drawn: the Chicago and North Western line to 1955 and the Milwaukee Road line after it are both absent from the map, so the corridor as drawn starts at Omaha.", "Amtrak\u2019s San Francisco Zephyr (June 11 1972 - July 15 1983) ran Chicago - Denver - Ogden - Oakland, using the Union Pacific between Denver and Ogden rather than the Omaha line drawn here. Its Denver - Cheyenne leg is not drawn anywhere on the map, and the train itself is not drawn.", "The exact year the Union Pacific line east of Ogden reached its present alignment is not checked segment by segment; 1904 is used as the start year for the whole route because that is when the Lucin Cutoff changed the route as a whole."], "passenger_only_rule": "Both features end in 1971 with the Amtrak transition, not with the railroad: Union Pacific still runs freight over all of it. Amtrak service since 1971 - the City of San Francisco to June 1972, the San Francisco Zephyr to 1983 and the California Zephyr since - is drawn in data/amtrak.geojson."}, "features": [{"type": "Feature", "properties": {"company": "Union Pacific Railroad", "line": "Union Pacific: Overland Route (Omaha \u2013 Ogden)", "id": "up-omaha-ogden-overland", "color": "#F2A900", "mode": "intercity_rail", "avg_speed_kmh": 75, "speed_source": "Estimated from the City of San Francisco\u2019s 39h45 Chicago - Oakland schedule of 1936 (about 92 km/h over the whole 2,270-mile run) knocked down for the slower trains that shared the line; no Union Pacific timetable for this segment alone was consulted.", "segments": [{"start": 1904, "end": 1936, "headway_min": 720, "note": "The Overland Route in its post-Lucin form. The Lucin Cutoff - 102.9 miles of new line from just west of Ogden straight across the Great Salt Lake to Lucin, opened 1904 - took 43.8 miles, 3,919 degrees of curvature and 1,515 feet of climb out of the route and left the original 1869 line through Promontory Summit as a branch. The Overland Limited, renamed from the Overland Flyer on November 17 1895, was the route\u2019s flagship. headway_min is an unsourced estimate.", "sources": ["Segment-level: the 1904 Lucin Cutoff, its 102.9-mile length and the 43.8 miles / 3,919 degrees / 1,515 feet it saved, the 1,029-mile Omaha - Ogden distance and the November 17 1895 renaming of the Overland Flyer to Overland Limited are all from the Wikipedia Overland Route article. headway_min is an estimate.", "https://en.wikipedia.org/wiki/Overland_Route_(Union_Pacific_Railroad)"]}, {"start": 1936, "end": 1955, "headway_min": 1440, "note": "Streamliner era: the City of San Francisco began June 14 1936, running Chicago - Omaha - Ogden - Oakland in 39 hours 45 minutes each way, with the Chicago and North Western handling Chicago - Omaha, the Union Pacific Omaha - Ogden and the Southern Pacific Ogden - Oakland. The Overland Limited ran alongside it. headway_min 1440 counts one City of San Francisco each way; the route carried several other trains besides.", "sources": ["Segment-level: the June 14 1936 inaugural and the 39h45 schedule are from the Wikipedia City of San Francisco article; the C&NW\u2019s role from the Overland Route article.", "https://en.wikipedia.org/wiki/City_of_San_Francisco_(train)", "https://en.wikipedia.org/wiki/Overland_Route_(Union_Pacific_Railroad)"]}, {"start": 1955, "end": 1971, "headway_min": 1440, "note": "The Chicago and North Western gave up the Chicago - Omaha leg to the Milwaukee Road on October 30 1955. The Overland Limited made its last run on January 2 1963. Union Pacific and Southern Pacific passenger operation ended with Amtrak on May 1 1971; Amtrak kept a City of San Francisco going until June 1972.", "sources": ["Segment-level: the October 30 1955 switch from the C&NW to the Milwaukee Road and the January 2 1963 end of the Overland Limited are from the Wikipedia Overland Route article; the May 1 1971 Amtrak transition and Amtrak\u2019s continuation of the City of San Francisco into June 1972 are from the Wikipedia City of San Francisco article.", "https://en.wikipedia.org/wiki/Overland_Route_(Union_Pacific_Railroad)", "https://en.wikipedia.org/wiki/City_of_San_Francisco_(train)"]}], "geometry_source": "Traced from OpenStreetMap route relations pulled whole from the OSM API and stitched into one graph at their closest node pairs. Omaha - Ogden: 2280868 UP Omaha Subdivision, 7524286 Columbus, 7430259 Kearney, 8912095 North Platte Terminal, 7129340 Sidney, 7429476 Laramie, 7429530 Rawlins, 7429637 Evanston and 5407633 Ogden subdivisions. Ogden - Oakland: 8805633 Lucin Cutoff, 1521602 Lakeside, 4766672 Shafter, 1521601 Elko, 4766671 Nevada, 4489569 Roseville and 4493104 Martinez subdivisions. Dijkstra between terminals, Douglas-Peucker at 20 m.", "geometry_quality": "Traced from nine UP subdivision relations: 986 traced miles against the 1,029 miles the Overland Route article gives for Omaha - Ogden, about 4 per cent short - the trace starts at the Omaha end of the relation rather than at the Council Bluffs station the mileage is measured from. Passes within 2 km of Fremont, Grand Island, North Platte, Sidney, Cheyenne, Laramie, Rawlins, Green River and Evanston. One 5.0 km straight-line join was needed where two OSM relations do not touch; everything else is on real track. Long straight legs of up to 38 km are the Douglas-Peucker simplification of genuinely straight Nebraska and Wyoming tangents, not invented geometry. This is the present-day alignment - the 1869 line through Promontory Summit is a different route and is drawn, schematically, in data/first_transcontinental_railroad.geojson. Straight-line repair 2026-08-29: 9 ruled segments totalling 158 mi replaced with OpenStreetMap-traced rail geometry (see geometry_repairs for the OSM lines each one followed).", "geometry_repairs": [{"date": "2026-08-29", "from": [-108.31754, 41.62955], "to": [-108.50353, 41.58518], "chord_mi": 10.12, "traced_mi": 10.1, "snap_m": [0, 0], "bridged_mi": 0.0, "osm_lines": ["UP Rawlins Subdivision (10.1 mi)"], "method": "Overpass rail graph, 8.0 km corridor, Dijkstra, simplified to 3.0 m"}, {"date": "2026-08-29", "from": [-99.81102, 40.7913], "to": [-100.08699, 40.89334], "chord_mi": 15.96, "traced_mi": 16.06, "snap_m": [0, 0], "bridged_mi": 0.0, "osm_lines": ["UP Kearney Subdivision (16.06 mi)"], "method": "Overpass rail graph, 8.0 km corridor, Dijkstra, simplified to 3.0 m"}, {"date": "2026-08-29", "from": [-100.4472, 41.05521], "to": [-100.64111, 41.1134], "chord_mi": 10.83, "traced_mi": 10.87, "snap_m": [0, 0], "bridged_mi": 0.0, "osm_lines": ["UP Kearney Subdivision (10.87 mi)"], "method": "Overpass rail graph, 8.0 km corridor, Dijkstra, simplified to 3.0 m"}, {"date": "2026-08-29", "from": [-99.15638, 40.68948], "to": [-99.61054, 40.7473], "chord_mi": 23.89, "traced_mi": 24.12, "snap_m": [0, 0], "bridged_mi": 0.0, "osm_lines": ["UP Kearney Subdivision (24.12 mi)"], "method": "Overpass rail graph, 8.0 km corridor, Dijkstra, simplified to 3.0 m"}, {"date": "2026-08-29", "from": [-98.87432, 40.74171], "to": [-99.08172, 40.69492], "chord_mi": 11.23, "traced_mi": 11.33, "snap_m": [0, 0], "bridged_mi": 0.0, "osm_lines": ["UP Kearney Subdivision (11.33 mi)"], "method": "Overpass rail graph, 8.0 km corridor, Dijkstra, simplified to 3.0 m"}, {"date": "2026-08-29", "from": [-98.53117, 40.84053], "to": [-98.72985, 40.78127], "chord_mi": 11.09, "traced_mi": 11.17, "snap_m": [0, 1], "bridged_mi": 0.0, "osm_lines": ["UP Kearney Subdivision (11.17 mi)"], "method": "Overpass rail graph, 8.0 km corridor, Dijkstra, simplified to 3.0 m"}, {"date": "2026-08-29", "from": [-97.67669, 41.31045], "to": [-98.27803, 40.95055], "chord_mi": 39.89, "traced_mi": 39.97, "snap_m": [0, 0], "bridged_mi": 0.0, "osm_lines": ["UP Columbus Subdivision (39.97 mi)"], "method": "Overpass rail graph, 8.0 km corridor, Dijkstra, simplified to 3.0 m"}, {"date": "2026-08-29", "from": [-96.97455, 41.45527], "to": [-97.4145, 41.42247], "chord_mi": 22.93, "traced_mi": 22.91, "snap_m": [0, 0], "bridged_mi": 0.0, "osm_lines": ["UP Columbus Subdivision (22.91 mi)"], "method": "Overpass rail graph, 8.0 km corridor, Dijkstra, simplified to 3.0 m"}, {"date": "2026-08-29", "from": [-96.54646, 41.44552], "to": [-96.77293, 41.46075], "chord_mi": 11.79, "traced_mi": 11.78, "snap_m": [1, 0], "bridged_mi": 0.0, "osm_lines": ["UP Columbus Subdivision (11.78 mi)"], "method": "Overpass rail graph, 8.0 km corridor, Dijkstra, simplified to 3.0 m"}]}, "geometry": {"type": "LineString", "coordinates": [[-95.93307, 41.25108], [-95.93598, 41.25003], [-95.94431, 41.24303], [-95.94861, 41.24023], [-95.95126, 41.23512], [-95.95248, 41.23002], [-95.95542, 41.22628], [-95.95882, 41.22519], [-95.96958, 41.22477], [-95.97997, 41.22191], [-95.98824, 41.22159], [-96.12529, 41.2215], [-96.13068, 41.22225], [-96.13401, 41.22369], [-96.15294, 41.23381], [-96.15523, 41.23536], [-96.17055, 41.25471], [-96.17451, 41.26157], [-96.17587, 41.26325], [-96.17825, 41.26493], [-96.19504, 41.27433], [-96.19884, 41.27537], [-96.21291, 41.2764], [-96.22819, 41.28034], [-96.24083, 41.28289], [-96.24686, 41.28457], [-96.24977, 41.2844], [-96.25673, 41.28172], [-96.26097, 41.28113], [-96.28017, 41.28465], [-96.28434, 41.28612], [-96.33709, 41.31105], [-96.39386, 41.34426], [-96.39813, 41.34707], [-96.40208, 41.3505], [-96.43741, 41.38709], [-96.48679, 41.42498], [-96.48992, 41.42666], [-96.49654, 41.42926], [-96.50177, 41.43071], [-96.5464571, 41.4455242], [-96.5479167, 41.4459603], [-96.5492554, 41.4462821], [-96.5506969, 41.4465458], [-96.5523113, 41.4467495], [-96.586859, 41.4494812], [-96.7224843, 41.4577068], [-96.7320896, 41.4583245], [-96.7729314, 41.4607487], [-96.90595, 41.46358], [-96.9745525, 41.4552664], [-96.9944757, 41.4538586], [-97.00031, 41.453507], [-97.0021316, 41.4533256], [-97.213359, 41.4383655], [-97.2236887, 41.4375825], [-97.3308218, 41.4299208], [-97.4057608, 41.4244924], [-97.4079185, 41.4242693], [-97.4101309, 41.4238753], [-97.4123189, 41.42328], [-97.4144989, 41.4224657], [-97.6766893, 41.3104471], [-97.6823847, 41.3071369], [-97.7529637, 41.265392], [-97.7586266, 41.2619833], [-97.8255558, 41.2221824], [-97.8376171, 41.2150599], [-97.847823, 41.2089242], [-97.9103015, 41.1716714], [-98.0238499, 41.1036975], [-98.0621419, 41.0806408], [-98.1414592, 41.0327682], [-98.1441432, 41.0311935], [-98.2741336, 40.952395], [-98.276025, 40.9513948], [-98.2780334, 40.9505535], [-98.34462, 40.92566], [-98.5311722, 40.8405302], [-98.5325309, 40.8399814], [-98.5347905, 40.839205], [-98.7298454, 40.781267], [-98.8743217, 40.741706], [-98.9314374, 40.7288995], [-99.0429451, 40.7036951], [-99.0788293, 40.6955435], [-99.0817217, 40.694921], [-99.14115, 40.69032], [-99.1563834, 40.6894778], [-99.1577512, 40.6894843], [-99.1590376, 40.6895429], [-99.1611564, 40.6897507], [-99.3732371, 40.7169715], [-99.5173994, 40.7353779], [-99.5304847, 40.7370811], [-99.5787901, 40.7432034], [-99.6105396, 40.7473014], [-99.8110179, 40.7912982], [-99.8118267, 40.7915589], [-99.8251223, 40.7964915], [-99.8632479, 40.8108387], [-99.9250943, 40.8340108], [-99.9734339, 40.852063], [-100.0267379, 40.8718922], [-100.0348451, 40.8750008], [-100.0434591, 40.8781765], [-100.052751, 40.8814729], [-100.0841805, 40.8922626], [-100.0869902, 40.8933395], [-100.2722, 40.97348], [-100.30251, 40.98812], [-100.31747, 40.99754], [-100.32239, 40.99883], [-100.3348, 40.99953], [-100.34098, 41.00152], [-100.34441, 41.00357], [-100.38205, 41.03235], [-100.38679, 41.03495], [-100.4472031, 41.0552103], [-100.5135153, 41.0751598], [-100.5172618, 41.0763277], [-100.6411105, 41.1133996], [-100.70533, 41.14271], [-100.70852, 41.14376], [-100.71144, 41.14417], [-100.71486, 41.14406], [-100.71813, 41.14335], [-100.73192, 41.13732], [-100.73455, 41.13669], [-100.73695, 41.13658], [-100.8159, 41.1468], [-100.84165, 41.15045], [-100.84747, 41.15169], [-100.85309, 41.15227], [-100.88522, 41.15359], [-100.9908, 41.15901], [-101.07316, 41.16043], [-101.19184, 41.15125], [-101.22132, 41.14451], [-101.24841, 41.13615], [-101.26442, 41.13221], [-101.30656, 41.12433], [-101.31932, 41.12312], [-101.33621, 41.12399], [-101.34116, 41.12392], [-101.38208, 41.12002], [-101.41342, 41.12203], [-101.44959, 41.12657], [-101.45488, 41.1266], [-101.50749, 41.12382], [-101.51044, 41.12419], [-101.5192, 41.12694], [-101.52822, 41.12793], [-101.5968, 41.12973], [-101.61707, 41.12896], [-101.63136, 41.12988], [-101.65873, 41.13356], [-101.66449, 41.13357], [-101.67979, 41.13168], [-101.70027, 41.12577], [-101.75145, 41.11946], [-101.75542, 41.11831], [-101.77341, 41.11122], [-101.77701, 41.11026], [-101.89124, 41.09127], [-101.9633, 41.08414], [-102.00862, 41.07473], [-102.03141, 41.07284], [-102.05229, 41.06977], [-102.10127, 41.05179], [-102.10574, 41.051], [-102.13179, 41.04886], [-102.16032, 41.04163], [-102.26429, 40.98467], [-102.26874, 40.98271], [-102.27501, 40.98151], [-102.34002, 40.97861], [-102.34529, 40.97916], [-102.35045, 40.9808], [-102.3685, 40.98996], [-102.37261, 40.99294], [-102.37466, 40.99532], [-102.42204, 41.06434], [-102.42398, 41.06635], [-102.432, 41.07288], [-102.43812, 41.07696], [-102.4463, 41.08098], [-102.51318, 41.1076], [-102.56808, 41.12701], [-102.58462, 41.13386], [-102.63017, 41.14571], [-102.64613, 41.15125], [-102.64984, 41.15176], [-102.69963, 41.15496], [-102.7468, 41.15432], [-102.80459, 41.15546], [-102.89043, 41.151], [-102.91194, 41.14823], [-103.01941, 41.14519], [-103.02513, 41.14635], [-103.0467, 41.15455], [-103.07769, 41.17074], [-103.10319, 41.18317], [-103.13114, 41.19303], [-103.17535, 41.20561], [-103.19358, 41.20795], [-103.23456, 41.21036], [-103.24801, 41.2096], [-103.25119, 41.21029], [-103.25539, 41.21253], [-103.25839, 41.2135], [-103.27265, 41.21463], [-103.2977, 41.21451], [-103.3548, 41.21829], [-103.41843, 41.22872], [-103.48462, 41.23577], [-103.53676, 41.23947], [-103.5491, 41.2398], [-103.65538, 41.2385], [-103.68813, 41.24089], [-103.69869, 41.24099], [-103.7251, 41.23855], [-103.76012, 41.23111], [-103.78385, 41.22945], [-103.80608, 41.22985], [-103.8348, 41.23303], [-103.8527, 41.23287], [-103.87804, 41.23366], [-103.8825, 41.23334], [-103.88664, 41.23234], [-103.8967, 41.22865], [-103.8988, 41.22751], [-103.90625, 41.22199], [-103.91133, 41.2192], [-103.94302, 41.20589], [-103.94863, 41.20406], [-103.97774, 41.19768], [-103.99885, 41.19242], [-104.06255, 41.18562], [-104.06825, 41.18426], [-104.07517, 41.18135], [-104.07831, 41.17941], [-104.08924, 41.16762], [-104.09202, 41.16525], [-104.11326, 41.15305], [-104.11736, 41.15133], [-104.12358, 41.15024], [-104.15891, 41.14818], [-104.17553, 41.14856], [-104.19058, 41.15035], [-104.20218, 41.15273], [-104.23369, 41.1608], [-104.24217, 41.16345], [-104.31646, 41.19037], [-104.32093, 41.19149], [-104.3464, 41.19432], [-104.38549, 41.20138], [-104.39759, 41.20222], [-104.41692, 41.20269], [-104.41959, 41.20346], [-104.43208, 41.20927], [-104.43866, 41.21085], [-104.47159, 41.21334], [-104.55829, 41.21644], [-104.56188, 41.2157], [-104.59898, 41.20422], [-104.62687, 41.19336], [-104.6286, 41.1922], [-104.63019, 41.19043], [-104.63838, 41.17421], [-104.63982, 41.17214], [-104.64265, 41.16945], [-104.64658, 41.1671], [-104.68592, 41.14867], [-104.68948, 41.14826], [-104.69617, 41.14925], [-104.71251, 41.14639], [-104.71649, 41.14481], [-104.74637, 41.1296], [-104.75152, 41.12828], [-104.78613, 41.13004], [-104.79033, 41.13085], [-104.80171, 41.13469], [-104.80557, 41.13469], [-104.83111, 41.12528], [-104.84112, 41.1225], [-104.85296, 41.11714], [-104.90673, 41.09698], [-104.92037, 41.09454], [-104.94782, 41.086], [-104.95172, 41.08516], [-104.95669, 41.08491], [-104.96063, 41.08538], [-104.98107, 41.09029], [-104.99765, 41.09055], [-105.00991, 41.09256], [-105.04092, 41.09428], [-105.04331, 41.09418], [-105.06611, 41.09065], [-105.08743, 41.0915], [-105.09059, 41.09255], [-105.0974, 41.09749], [-105.09948, 41.09849], [-105.11533, 41.10002], [-105.13568, 41.09954], [-105.15227, 41.10098], [-105.16563, 41.09892], [-105.17544, 41.09946], [-105.18821, 41.10201], [-105.18998, 41.10208], [-105.20095, 41.09958], [-105.20927, 41.09659], [-105.21365, 41.0961], [-105.22249, 41.09858], [-105.24028, 41.10075], [-105.25157, 41.10626], [-105.27466, 41.11252], [-105.28521, 41.11886], [-105.28867, 41.12017], [-105.3062, 41.12242], [-105.31831, 41.12179], [-105.33115, 41.12319], [-105.33308, 41.12291], [-105.33484, 41.12203], [-105.33869, 41.11628], [-105.34566, 41.11161], [-105.34692, 41.11037], [-105.34738, 41.10902], [-105.34724, 41.10744], [-105.34456, 41.10419], [-105.34391, 41.10263], [-105.34423, 41.10086], [-105.34587, 41.09919], [-105.3482, 41.0984], [-105.35692, 41.09788], [-105.36412, 41.09893], [-105.36744, 41.0985], [-105.37911, 41.09283], [-105.38044, 41.09157], [-105.38295, 41.08753], [-105.3846, 41.08618], [-105.39574, 41.0817], [-105.39879, 41.08132], [-105.40558, 41.08212], [-105.41456, 41.08438], [-105.41684, 41.08414], [-105.42814, 41.08131], [-105.44292, 41.08361], [-105.44665, 41.08379], [-105.45168, 41.08305], [-105.4653, 41.07851], [-105.46857, 41.07811], [-105.47984, 41.07935], [-105.48229, 41.0801], [-105.49326, 41.0898], [-105.4955, 41.09323], [-105.49989, 41.10439], [-105.49955, 41.1067], [-105.49657, 41.11214], [-105.49628, 41.11384], [-105.49668, 41.11622], [-105.49768, 41.118], [-105.49918, 41.11949], [-105.50187, 41.12104], [-105.50709, 41.12301], [-105.50862, 41.12417], [-105.50977, 41.12573], [-105.51027, 41.12843], [-105.50886, 41.13523], [-105.50878, 41.1373], [-105.50931, 41.13904], [-105.51329, 41.14711], [-105.51469, 41.14867], [-105.52731, 41.15814], [-105.52963, 41.15916], [-105.53686, 41.16081], [-105.53897, 41.16177], [-105.54866, 41.17137], [-105.54912, 41.17329], [-105.5484, 41.1832], [-105.549, 41.1885], [-105.54889, 41.20841], [-105.54969, 41.21033], [-105.55341, 41.21425], [-105.55432, 41.21609], [-105.56089, 41.25757], [-105.56231, 41.26], [-105.59542, 41.29453], [-105.5975, 41.29748], [-105.59765, 41.29873], [-105.59522, 41.32148], [-105.59553, 41.32553], [-105.60678, 41.38463], [-105.62695, 41.45938], [-105.69832, 41.5788], [-105.70093, 41.58302], [-105.70336, 41.58573], [-105.72543, 41.60321], [-105.73391, 41.60687], [-105.76335, 41.62715], [-105.79626, 41.66223], [-105.79991, 41.66494], [-105.85266, 41.68519], [-105.88323, 41.70262], [-105.88563, 41.70483], [-105.89091, 41.7121], [-105.89219, 41.71338], [-105.89449, 41.71482], [-105.90278, 41.71867], [-105.90657, 41.71971], [-105.91065, 41.72019], [-105.92429, 41.71972], [-105.92704, 41.72042], [-105.93378, 41.72331], [-105.93716, 41.72399], [-105.95235, 41.72332], [-105.96345, 41.72448], [-105.96993, 41.72626], [-105.97506, 41.72928], [-105.97871, 41.73334], [-105.97986, 41.73567], [-105.98052, 41.73806], [-105.98617, 41.80494], [-105.98704, 41.80736], [-105.98881, 41.81007], [-105.99112, 41.81229], [-105.99456, 41.81444], [-105.9995, 41.81614], [-106.0112, 41.8179], [-106.01637, 41.81959], [-106.06874, 41.84606], [-106.10744, 41.86115], [-106.17981, 41.89362], [-106.18388, 41.89495], [-106.19004, 41.89553], [-106.24529, 41.89209], [-106.25123, 41.8922], [-106.34052, 41.90707], [-106.34606, 41.90771], [-106.35893, 41.90786], [-106.38902, 41.91069], [-106.39351, 41.91027], [-106.41309, 41.90616], [-106.41764, 41.90614], [-106.42981, 41.90726], [-106.43499, 41.90699], [-106.44671, 41.90485], [-106.45777, 41.90112], [-106.47206, 41.8982], [-106.47818, 41.89523], [-106.4812, 41.89328], [-106.49639, 41.8793], [-106.50354, 41.87535], [-106.50834, 41.87374], [-106.55507, 41.8683], [-106.57406, 41.86831], [-106.60375, 41.86117], [-106.61908, 41.85291], [-106.63493, 41.83565], [-106.63732, 41.83404], [-106.64039, 41.833], [-106.66007, 41.83029], [-106.66533, 41.83024], [-106.66867, 41.83073], [-106.6723, 41.83178], [-106.68407, 41.83731], [-106.68847, 41.83792], [-106.69955, 41.83653], [-106.72198, 41.83622], [-106.72613, 41.8353], [-106.73719, 41.83175], [-106.74018, 41.83123], [-106.74347, 41.83132], [-106.75432, 41.83283], [-106.75772, 41.83264], [-106.76127, 41.83183], [-106.76516, 41.83], [-106.77346, 41.82422], [-106.77819, 41.81856], [-106.78165, 41.81584], [-106.78533, 41.81417], [-106.79935, 41.80993], [-106.80371, 41.80735], [-106.80634, 41.80428], [-106.80749, 41.80136], [-106.80759, 41.79804], [-106.80602, 41.78784], [-106.80636, 41.78528], [-106.8079, 41.78218], [-106.81116, 41.779], [-106.83087, 41.76401], [-106.83411, 41.76249], [-106.83713, 41.76179], [-106.86529, 41.75822], [-106.86888, 41.75841], [-106.87641, 41.7597], [-106.88137, 41.76067], [-106.88917, 41.76397], [-106.90291, 41.76578], [-106.90593, 41.76662], [-106.90888, 41.76817], [-106.91895, 41.7753], [-106.9223, 41.77665], [-106.92576, 41.77728], [-106.95532, 41.77745], [-106.97075, 41.7797], [-106.99636, 41.7808], [-107.15124, 41.77663], [-107.15554, 41.77702], [-107.19408, 41.78468], [-107.20846, 41.78874], [-107.21473, 41.78965], [-107.23075, 41.78842], [-107.24713, 41.78482], [-107.25183, 41.78345], [-107.26026, 41.77921], [-107.28211, 41.77097], [-107.29267, 41.76504], [-107.29663, 41.76383], [-107.30085, 41.76324], [-107.30633, 41.76343], [-107.3588, 41.77175], [-107.38009, 41.77799], [-107.38437, 41.77831], [-107.39707, 41.77803], [-107.40095, 41.77722], [-107.40452, 41.77589], [-107.42485, 41.76424], [-107.44256, 41.75774], [-107.44636, 41.75696], [-107.45821, 41.75578], [-107.5078, 41.74359], [-107.55553, 41.7342], [-107.59248, 41.72264], [-107.59541, 41.72248], [-107.61202, 41.72341], [-107.65752, 41.71613], [-107.69957, 41.71985], [-107.70317, 41.71964], [-107.76221, 41.70183], [-107.78736, 41.68943], [-107.79178, 41.68819], [-107.79615, 41.68808], [-107.81419, 41.69023], [-107.83736, 41.69855], [-107.86274, 41.70442], [-107.86731, 41.70472], [-107.8947, 41.70305], [-107.89923, 41.70217], [-107.92086, 41.6955], [-107.94537, 41.68621], [-107.96923, 41.67235], [-107.98515, 41.66129], [-107.98858, 41.65963], [-107.99158, 41.65884], [-108.12169, 41.65159], [-108.15432, 41.64345], [-108.17565, 41.64206], [-108.19377, 41.63784], [-108.19924, 41.63766], [-108.21608, 41.63859], [-108.25057, 41.63448], [-108.25709, 41.63204], [-108.26997, 41.62341], [-108.27377, 41.6224], [-108.2775, 41.62246], [-108.28979, 41.62523], [-108.29814, 41.62595], [-108.31366, 41.62911], [-108.3175414, 41.6295515], [-108.3192009, 41.6294126], [-108.3208759, 41.6291004], [-108.3454349, 41.6238931], [-108.3493092, 41.6229687], [-108.3626192, 41.6196144], [-108.3826536, 41.6143142], [-108.3852122, 41.6137575], [-108.3894015, 41.6127545], [-108.3964032, 41.6112011], [-108.4045324, 41.6096128], [-108.4059835, 41.6092638], [-108.458596, 41.5953611], [-108.4664941, 41.5934819], [-108.4802634, 41.5911729], [-108.4879507, 41.5893762], [-108.4999424, 41.5864523], [-108.5013489, 41.5860163], [-108.5035282, 41.585183], [-108.5088, 41.5819], [-108.52259, 41.57007], [-108.53672, 41.5602], [-108.54157, 41.55769], [-108.56558, 41.54827], [-108.59397, 41.52529], [-108.61306, 41.51455], [-108.61621, 41.51357], [-108.61814, 41.51337], [-108.63897, 41.51451], [-108.64366, 41.51543], [-108.6902, 41.5382], [-108.69256, 41.53965], [-108.69457, 41.54145], [-108.69614, 41.54368], [-108.69701, 41.54591], [-108.7043, 41.58586], [-108.70607, 41.5905], [-108.70895, 41.59398], [-108.71222, 41.59637], [-108.74918, 41.61567], [-108.75311, 41.61881], [-108.75463, 41.62112], [-108.75811, 41.63033], [-108.76003, 41.63363], [-108.77368, 41.64758], [-108.77569, 41.65059], [-108.77618, 41.65285], [-108.77606, 41.65524], [-108.77187, 41.66862], [-108.77243, 41.67152], [-108.77346, 41.67308], [-108.77504, 41.67452], [-108.77836, 41.67594], [-108.80368, 41.68205], [-108.81668, 41.68736], [-108.82272, 41.68798], [-108.84342, 41.68716], [-108.86805, 41.69165], [-108.87237, 41.69168], [-108.87583, 41.69121], [-108.8957, 41.68662], [-108.92443, 41.67122], [-108.92833, 41.66981], [-108.93484, 41.66885], [-108.95276, 41.66825], [-108.95878, 41.66702], [-109.03436, 41.63279], [-109.04753, 41.62981], [-109.08529, 41.62231], [-109.08878, 41.6211], [-109.09864, 41.61582], [-109.10236, 41.61443], [-109.14141, 41.60497], [-109.1448, 41.60296], [-109.14805, 41.59779], [-109.15067, 41.59614], [-109.15273, 41.59579], [-109.17657, 41.59508], [-109.18686, 41.59113], [-109.18925, 41.59069], [-109.19244, 41.59092], [-109.2034, 41.59378], [-109.20623, 41.59385], [-109.20895, 41.59326], [-109.21514, 41.58954], [-109.22278, 41.58561], [-109.2243, 41.58407], [-109.22692, 41.57951], [-109.22886, 41.57717], [-109.23113, 41.57535], [-109.23441, 41.57366], [-109.27431, 41.56424], [-109.29731, 41.56002], [-109.30042, 41.55863], [-109.31062, 41.55168], [-109.32568, 41.54762], [-109.34715, 41.54067], [-109.34861, 41.53975], [-109.34954, 41.53834], [-109.3511, 41.53097], [-109.35222, 41.52979], [-109.35391, 41.52894], [-109.35717, 41.52879], [-109.36601, 41.53139], [-109.36841, 41.53164], [-109.37538, 41.53001], [-109.3863, 41.5287], [-109.39421, 41.52701], [-109.40403, 41.5269], [-109.41222, 41.52489], [-109.4145, 41.52492], [-109.42132, 41.52615], [-109.42303, 41.52609], [-109.42464, 41.52558], [-109.42612, 41.52449], [-109.42856, 41.52052], [-109.4299, 41.51917], [-109.43319, 41.51765], [-109.43532, 41.51727], [-109.43824, 41.51755], [-109.44471, 41.51964], [-109.45374, 41.52109], [-109.46315, 41.52491], [-109.47201, 41.52966], [-109.47463, 41.52963], [-109.48024, 41.52787], [-109.482, 41.52779], [-109.48391, 41.52824], [-109.48612, 41.53007], [-109.49641, 41.54608], [-109.49756, 41.54714], [-109.4998, 41.54829], [-109.50319, 41.54879], [-109.51061, 41.54715], [-109.51527, 41.54732], [-109.52705, 41.55127], [-109.55112, 41.55806], [-109.55407, 41.55814], [-109.55723, 41.55739], [-109.56757, 41.55182], [-109.58297, 41.54923], [-109.60646, 41.55017], [-109.60838, 41.55076], [-109.61663, 41.55515], [-109.6213, 41.55596], [-109.65042, 41.55174], [-109.65289, 41.55177], [-109.65584, 41.5524], [-109.65901, 41.55409], [-109.69881, 41.58175], [-109.70199, 41.58508], [-109.71441, 41.60199], [-109.72477, 41.61085], [-109.72668, 41.61193], [-109.72937, 41.61276], [-109.75348, 41.61553], [-109.75766, 41.61648], [-109.77095, 41.62069], [-109.7831, 41.62305], [-109.81523, 41.62551], [-109.91393, 41.61749], [-109.93899, 41.61672], [-109.94224, 41.61572], [-109.94475, 41.61422], [-109.96747, 41.59506], [-109.97122, 41.5924], [-109.9848, 41.58549], [-110.01671, 41.57423], [-110.12342, 41.56928], [-110.14752, 41.56461], [-110.16922, 41.56291], [-110.17562, 41.56105], [-110.20577, 41.54626], [-110.24378, 41.53883], [-110.24734, 41.53887], [-110.28638, 41.54426], [-110.29161, 41.54421], [-110.29688, 41.54312], [-110.30152, 41.5411], [-110.32447, 41.52704], [-110.33895, 41.51251], [-110.33976, 41.51038], [-110.34009, 41.50213], [-110.34117, 41.49973], [-110.35606, 41.4876], [-110.36746, 41.47999], [-110.37345, 41.47726], [-110.38013, 41.47178], [-110.38717, 41.46758], [-110.40044, 41.46293], [-110.40252, 41.46187], [-110.40516, 41.45921], [-110.4084, 41.45132], [-110.41068, 41.44847], [-110.43375, 41.43463], [-110.43832, 41.43296], [-110.44291, 41.43219], [-110.45375, 41.43141], [-110.48308, 41.43061], [-110.50799, 41.42198], [-110.51504, 41.42026], [-110.52956, 41.42081], [-110.53957, 41.42247], [-110.54309, 41.42235], [-110.5612, 41.41919], [-110.57062, 41.4153], [-110.57344, 41.41317], [-110.57619, 41.40871], [-110.57687, 41.39517], [-110.57794, 41.39247], [-110.58325, 41.38809], [-110.6017, 41.37748], [-110.60338, 41.37576], [-110.61041, 41.36631], [-110.61597, 41.35104], [-110.61585, 41.34888], [-110.61293, 41.33772], [-110.61338, 41.33433], [-110.61487, 41.33071], [-110.6191, 41.32536], [-110.6247, 41.31528], [-110.63199, 41.30812], [-110.63345, 41.30604], [-110.63451, 41.30342], [-110.63478, 41.3], [-110.63271, 41.29397], [-110.63254, 41.29], [-110.63402, 41.28673], [-110.6427, 41.2772], [-110.64617, 41.27494], [-110.65461, 41.27245], [-110.65882, 41.2706], [-110.67562, 41.26001], [-110.68345, 41.25334], [-110.69955, 41.24447], [-110.70742, 41.2414], [-110.7093, 41.24033], [-110.7217, 41.22983], [-110.72722, 41.22322], [-110.73319, 41.21861], [-110.73572, 41.21762], [-110.75439, 41.2134], [-110.78263, 41.20215], [-110.7853, 41.19962], [-110.79771, 41.18027], [-110.80059, 41.17834], [-110.82425, 41.17418], [-110.82809, 41.17442], [-110.83213, 41.17574], [-110.83533, 41.17809], [-110.84114, 41.18415], [-110.84861, 41.18725], [-110.8516, 41.18955], [-110.85345, 41.19227], [-110.85861, 41.20512], [-110.86033, 41.2076], [-110.86301, 41.20997], [-110.86547, 41.21139], [-110.86921, 41.21275], [-110.89869, 41.21743], [-110.90272, 41.21864], [-110.90591, 41.2202], [-110.91902, 41.22853], [-110.92119, 41.23047], [-110.93865, 41.25906], [-110.94499, 41.26704], [-110.9464, 41.26793], [-110.94892, 41.26848], [-110.95649, 41.26704], [-110.95912, 41.26715], [-110.96146, 41.26772], [-110.96394, 41.26885], [-110.97574, 41.27704], [-110.97858, 41.27825], [-110.98168, 41.27883], [-110.98555, 41.27869], [-110.98918, 41.2776], [-110.99192, 41.27588], [-110.99372, 41.2739], [-111.00707, 41.25432], [-111.00927, 41.25241], [-111.0117, 41.25124], [-111.01492, 41.25055], [-111.02617, 41.24923], [-111.04112, 41.24907], [-111.05671, 41.25147], [-111.06141, 41.25099], [-111.06542, 41.24969], [-111.06767, 41.24848], [-111.07008, 41.24656], [-111.09101, 41.22457], [-111.09793, 41.21092], [-111.09963, 41.2089], [-111.11026, 41.20176], [-111.11792, 41.19434], [-111.12027, 41.1933], [-111.12518, 41.19276], [-111.12713, 41.19212], [-111.13102, 41.1871], [-111.13555, 41.18461], [-111.13739, 41.18277], [-111.14145, 41.18168], [-111.14284, 41.1808], [-111.14623, 41.17627], [-111.14712, 41.17442], [-111.1502, 41.17268], [-111.15215, 41.17028], [-111.15668, 41.16856], [-111.15822, 41.16737], [-111.15876, 41.1659], [-111.15832, 41.16354], [-111.15974, 41.16094], [-111.1598, 41.15898], [-111.16046, 41.15695], [-111.15925, 41.15123], [-111.16049, 41.14788], [-111.15982, 41.14536], [-111.15986, 41.14414], [-111.16021, 41.14322], [-111.16218, 41.14094], [-111.16267, 41.13784], [-111.16373, 41.13652], [-111.17322, 41.13113], [-111.17749, 41.12782], [-111.17893, 41.12542], [-111.18071, 41.12406], [-111.18251, 41.12354], [-111.18932, 41.12291], [-111.19221, 41.12183], [-111.19996, 41.11425], [-111.21144, 41.10603], [-111.21408, 41.10155], [-111.21849, 41.09867], [-111.22144, 41.09621], [-111.22476, 41.092], [-111.23183, 41.08745], [-111.23323, 41.08671], [-111.24136, 41.08467], [-111.24473, 41.08336], [-111.25966, 41.07372], [-111.27104, 41.0677], [-111.28057, 41.06527], [-111.2865, 41.06199], [-111.29312, 41.05762], [-111.3012, 41.0513], [-111.30551, 41.04716], [-111.3079, 41.04611], [-111.31365, 41.04492], [-111.32376, 41.04161], [-111.32662, 41.04021], [-111.331, 41.03698], [-111.3333, 41.03401], [-111.33691, 41.03096], [-111.36392, 41.0204], [-111.36788, 41.0177], [-111.36933, 41.0138], [-111.37076, 41.01233], [-111.37811, 41.00992], [-111.38683, 41.0033], [-111.39175, 41.00047], [-111.39642, 40.99867], [-111.40336, 40.99405], [-111.41069, 40.99074], [-111.41879, 40.9829], [-111.43663, 40.97289], [-111.43824, 40.97235], [-111.44032, 40.97255], [-111.44187, 40.97352], [-111.44949, 40.98574], [-111.4509, 40.98727], [-111.45776, 40.99255], [-111.46227, 40.99513], [-111.46693, 40.99993], [-111.46896, 41.00153], [-111.47832, 41.00857], [-111.48689, 41.01438], [-111.49914, 41.02811], [-111.5107, 41.03822], [-111.5256, 41.04756], [-111.52742, 41.04966], [-111.53041, 41.0559], [-111.53159, 41.05725], [-111.53317, 41.05816], [-111.54199, 41.06088], [-111.54732, 41.06423], [-111.5494, 41.06513], [-111.55254, 41.06572], [-111.55587, 41.0655], [-111.56493, 41.06284], [-111.57062, 41.06219], [-111.57795, 41.06079], [-111.58861, 41.05821], [-111.59089, 41.05691], [-111.59271, 41.05436], [-111.59392, 41.05333], [-111.59583, 41.0527], [-111.5999, 41.05251], [-111.60164, 41.05193], [-111.60501, 41.04892], [-111.60675, 41.04815], [-111.60861, 41.04819], [-111.6129, 41.04984], [-111.61551, 41.0504], [-111.62848, 41.05029], [-111.64931, 41.04605], [-111.65383, 41.04445], [-111.65999, 41.04128], [-111.66232, 41.04088], [-111.66444, 41.04106], [-111.66619, 41.04162], [-111.6975, 41.05672], [-111.71114, 41.06566], [-111.73427, 41.08671], [-111.75017, 41.10846], [-111.7529, 41.11006], [-111.76238, 41.11266], [-111.76446, 41.11408], [-111.76523, 41.11567], [-111.76512, 41.11871], [-111.76562, 41.12186], [-111.76642, 41.12362], [-111.76786, 41.12528], [-111.76975, 41.1266], [-111.78736, 41.13586], [-111.78977, 41.13636], [-111.8195, 41.13888], [-111.82822, 41.13746], [-111.83046, 41.1374], [-111.83507, 41.13848], [-111.83945, 41.13862], [-111.84342, 41.1395], [-111.8488, 41.13854], [-111.85545, 41.13877], [-111.85894, 41.13851], [-111.87336, 41.13908], [-111.88255, 41.13816], [-111.88836, 41.13861], [-111.89654, 41.13701], [-111.89887, 41.13691], [-111.90505, 41.13846], [-111.92403, 41.14619], [-111.92725, 41.14643], [-111.94177, 41.14545], [-111.94465, 41.14567], [-111.96428, 41.15087], [-111.98844, 41.15862], [-111.99067, 41.15995], [-111.99238, 41.16187], [-111.99438, 41.167], [-111.99458, 41.16867], [-111.98567, 41.19743], [-111.98375, 41.21108], [-111.98224, 41.21864], [-111.98249, 41.22058]]}}, {"type": "Feature", "properties": {"company": "Southern Pacific Railroad", "line": "Southern Pacific: Overland Route (Ogden \u2013 Oakland)", "id": "sp-ogden-oakland-overland", "color": "#C1272D", "mode": "intercity_rail", "avg_speed_kmh": 70, "speed_source": "Estimated on the same basis as the Union Pacific half, allowing for the slower crossing of Donner Pass; no Southern Pacific timetable for this segment alone was consulted.", "segments": [{"start": 1904, "end": 1936, "headway_min": 720, "note": "The Overland Route in its post-Lucin form. The Lucin Cutoff - 102.9 miles of new line from just west of Ogden straight across the Great Salt Lake to Lucin, opened 1904 - took 43.8 miles, 3,919 degrees of curvature and 1,515 feet of climb out of the route and left the original 1869 line through Promontory Summit as a branch. The Overland Limited, renamed from the Overland Flyer on November 17 1895, was the route\u2019s flagship. headway_min is an unsourced estimate. The Southern Pacific had leased the Central Pacific\u2019s operations since 1885, so this half of the route was Southern Pacific-run throughout the era drawn here.", "sources": ["Segment-level: the 1904 Lucin Cutoff details and the 1885 Southern Pacific lease of Central Pacific operations are from the Wikipedia Overland Route article. headway_min is an estimate.", "https://en.wikipedia.org/wiki/Overland_Route_(Union_Pacific_Railroad)"]}, {"start": 1936, "end": 1955, "headway_min": 1440, "note": "Streamliner era: the City of San Francisco began June 14 1936, running Chicago - Omaha - Ogden - Oakland in 39 hours 45 minutes each way, with the Chicago and North Western handling Chicago - Omaha, the Union Pacific Omaha - Ogden and the Southern Pacific Ogden - Oakland. The Overland Limited ran alongside it. headway_min 1440 counts one City of San Francisco each way; the route carried several other trains besides.", "sources": ["Segment-level: as for the Union Pacific half - the June 14 1936 inaugural and 39h45 schedule from the Wikipedia City of San Francisco article.", "https://en.wikipedia.org/wiki/City_of_San_Francisco_(train)", "https://en.wikipedia.org/wiki/Overland_Route_(Union_Pacific_Railroad)"]}, {"start": 1955, "end": 1971, "headway_min": 1440, "note": "The Chicago and North Western gave up the Chicago - Omaha leg to the Milwaukee Road on October 30 1955. The Overland Limited made its last run on January 2 1963. Union Pacific and Southern Pacific passenger operation ended with Amtrak on May 1 1971; Amtrak kept a City of San Francisco going until June 1972. Amtrak\u2019s San Francisco Zephyr then ran this same Ogden - Reno - Oakland track from June 11 1972 to July 15 1983, and the California Zephyr has used it since; both are drawn in data/amtrak.geojson rather than here.", "sources": ["Segment-level: the January 2 1963 Overland Limited end from the Wikipedia Overland Route article; the May 1 1971 Amtrak transition from the City of San Francisco article; the June 11 1972 - July 15 1983 San Francisco Zephyr dates and its July 16 1983 renaming to California Zephyr from the Wikipedia San Francisco Zephyr article.", "https://en.wikipedia.org/wiki/Overland_Route_(Union_Pacific_Railroad)", "https://en.wikipedia.org/wiki/City_of_San_Francisco_(train)", "https://en.wikipedia.org/wiki/San_Francisco_Zephyr"]}], "geometry_source": "Traced from OpenStreetMap route relations pulled whole from the OSM API and stitched into one graph at their closest node pairs. Omaha - Ogden: 2280868 UP Omaha Subdivision, 7524286 Columbus, 7430259 Kearney, 8912095 North Platte Terminal, 7129340 Sidney, 7429476 Laramie, 7429530 Rawlins, 7429637 Evanston and 5407633 Ogden subdivisions. Ogden - Oakland: 8805633 Lucin Cutoff, 1521602 Lakeside, 4766672 Shafter, 1521601 Elko, 4766671 Nevada, 4489569 Roseville and 4493104 Martinez subdivisions. Dijkstra between terminals, Douglas-Peucker at 20 m.", "geometry_quality": "Traced from seven relations including the Lucin Cutoff itself (OSM 8805633): 776 traced miles Ogden - Oakland, against a route the Overland Route article describes as 43.8 miles shorter than the pre-1904 line. The trace passes within 1.3 km of Lucin and within 0.5 km of Wells, Elko, Winnemucca, Lovelock, Reno, Truckee, Colfax, Sacramento and Martinez - and stays 50 km away from Salt Lake City and Wendover, confirming it follows the Southern Pacific over the lake rather than the ex-Western Pacific line to the south. Four internal gaps of 6-10 km where the OSM relations do not touch are bridged with straight lines, the longest 9.5 km near Lovelock. Long straight legs are Douglas-Peucker simplification of real tangents. Straight-line repair 2026-08-29: 6 ruled segments totalling 116 mi replaced with OpenStreetMap-traced rail geometry (see geometry_repairs for the OSM lines each one followed).", "geometry_repairs": [{"date": "2026-08-29", "from": [-121.73864, 38.54248], "to": [-121.94266, 38.31262], "chord_mi": 19.23, "traced_mi": 19.34, "snap_m": [0, 0], "bridged_mi": 0.0, "osm_lines": ["UP Martinez Subdivision (19.34 mi)"], "method": "Overpass rail graph, 8.0 km corridor, Dijkstra, simplified to 3.0 m"}, {"date": "2026-08-29", "from": [-118.78934, 39.71024], "to": [-119.02557, 39.56875], "chord_mi": 15.91, "traced_mi": 15.93, "snap_m": [1, 0], "bridged_mi": 0.0, "osm_lines": ["UP Nevada Subdivision (15.93 mi)"], "method": "Overpass rail graph, 8.0 km corridor, Dijkstra, simplified to 3.0 m"}, {"date": "2026-08-29", "from": [-116.90559, 40.62085], "to": [-117.14243, 40.80573], "chord_mi": 17.93, "traced_mi": 17.81, "snap_m": [0, 0], "bridged_mi": 0.0, "osm_lines": ["UP Elko Subdivision (17.81 mi)"], "method": "Overpass rail graph, 8.0 km corridor, Dijkstra, simplified to 3.0 m"}, {"date": "2026-08-29", "from": [-114.03791, 41.3433], "to": [-114.25723, 41.22623], "chord_mi": 14.19, "traced_mi": 13.98, "snap_m": [0, 0], "bridged_mi": 0.0, "osm_lines": ["UP Lakeside Subdivision (13.98 mi)"], "method": "Overpass rail graph, 8.0 km corridor, Dijkstra, simplified to 3.0 m"}, {"date": "2026-08-29", "from": [-113.17495, 41.26616], "to": [-113.86427, 41.33887], "chord_mi": 36.98, "traced_mi": 36.13, "snap_m": [1, 1], "bridged_mi": 0.0, "osm_lines": ["UP Lakeside Subdivision (36.13 mi)"], "method": "Overpass rail graph, 8.0 km corridor, Dijkstra, simplified to 3.0 m"}, {"date": "2026-08-29", "from": [-112.53592, 41.22034], "to": [-112.75021, 41.22423], "chord_mi": 11.39, "traced_mi": 11.15, "snap_m": [0, 0], "bridged_mi": 0.0, "osm_lines": ["UP Lakeside Subdivision (11.15 mi)"], "method": "Overpass rail graph, 8.0 km corridor, Dijkstra, simplified to 3.0 m"}]}, "geometry": {"type": "LineString", "coordinates": [[-111.98739, 41.2325], [-111.98835, 41.23455], [-111.99019, 41.23645], [-111.99268, 41.23819], [-111.99587, 41.23951], [-112.03085, 41.24483], [-112.04734, 41.24395], [-112.2165, 41.24473], [-112.23645, 41.24313], [-112.26114, 41.2448], [-112.26693, 41.24475], [-112.27504, 41.24377], [-112.41249, 41.22199], [-112.41553, 41.22089], [-112.41831, 41.21931], [-112.42845, 41.20973], [-112.4321, 41.20804], [-112.43721, 41.20723], [-112.46177, 41.21017], [-112.48182, 41.2155], [-112.52446, 41.21655], [-112.52808, 41.21721], [-112.53592, 41.2203376], [-112.5368924, 41.2205483], [-112.5380514, 41.2207267], [-112.5403139, 41.2208717], [-112.6288273, 41.222553], [-112.7349085, 41.2244615], [-112.7469792, 41.2245975], [-112.748317, 41.2245233], [-112.7493903, 41.2243843], [-112.7502089, 41.2242286], [-112.75785, 41.22148], [-112.76291, 41.22082], [-112.86796, 41.22267], [-113.1749461, 41.2661645], [-113.2668255, 41.276138], [-113.3756617, 41.2878433], [-113.5323877, 41.304536], [-113.6620509, 41.318173], [-113.8222315, 41.3348134], [-113.8597065, 41.3386641], [-113.8618818, 41.338805], [-113.8642663, 41.3388654], [-113.87685, 41.33828], [-113.88277, 41.33869], [-113.88737, 41.33971], [-113.89167, 41.3413], [-113.92216, 41.3575], [-113.95404, 41.36534], [-113.97137, 41.37165], [-113.97547, 41.37224], [-113.97891, 41.37212], [-113.98251, 41.37132], [-113.98552, 41.37003], [-114.01612, 41.34993], [-114.01855, 41.3489], [-114.0379119, 41.3432995], [-114.0405853, 41.3419266], [-114.0845057, 41.3187572], [-114.1585066, 41.2796139], [-114.2127137, 41.2508892], [-114.2538686, 41.2290129], [-114.2550764, 41.2283015], [-114.2559914, 41.227604], [-114.2568356, 41.226749], [-114.2572331, 41.2262322], [-114.2671, 41.20881], [-114.26869, 41.20694], [-114.27528, 41.20102], [-114.27652, 41.19902], [-114.27668, 41.1975], [-114.27601, 41.19556], [-114.26833, 41.18533], [-114.26743, 41.18257], [-114.26726, 41.18014], [-114.26781, 41.17692], [-114.26918, 41.17314], [-114.27622, 41.16188], [-114.27697, 41.15947], [-114.27748, 41.15576], [-114.27824, 41.15447], [-114.28515, 41.14935], [-114.28738, 41.14833], [-114.29512, 41.1475], [-114.30046, 41.14749], [-114.31107, 41.14481], [-114.31704, 41.14264], [-114.32532, 41.13775], [-114.34176, 41.13069], [-114.36186, 41.11464], [-114.36386, 41.1135], [-114.37092, 41.11073], [-114.39157, 41.10883], [-114.39453, 41.10913], [-114.39691, 41.11011], [-114.41392, 41.12381], [-114.49012, 41.17724], [-114.49406, 41.17965], [-114.52319, 41.19517], [-114.52596, 41.19737], [-114.52956, 41.20138], [-114.53133, 41.20264], [-114.53471, 41.20347], [-114.55241, 41.20314], [-114.55496, 41.20427], [-114.55905, 41.20972], [-114.56172, 41.21113], [-114.59176, 41.21706], [-114.59476, 41.21661], [-114.59737, 41.21504], [-114.5985, 41.21347], [-114.60025, 41.20691], [-114.60267, 41.20443], [-114.60549, 41.20314], [-114.6084, 41.20267], [-114.61226, 41.20319], [-114.6267, 41.21027], [-114.62963, 41.21092], [-114.63293, 41.21067], [-114.65879, 41.20472], [-114.66294, 41.20289], [-114.6692, 41.19784], [-114.67035, 41.19729], [-114.67177, 41.19688], [-114.6814, 41.19597], [-114.69064, 41.19204], [-114.69315, 41.19031], [-114.69791, 41.18173], [-114.70275, 41.17669], [-114.70534, 41.17513], [-114.70776, 41.17465], [-114.74285, 41.17292], [-114.74622, 41.17194], [-114.74841, 41.1699], [-114.74903, 41.16725], [-114.7467, 41.16145], [-114.74661, 41.15988], [-114.74727, 41.15729], [-114.74911, 41.15487], [-114.75761, 41.14657], [-114.75964, 41.14524], [-114.76162, 41.14317], [-114.76556, 41.13458], [-114.77152, 41.12335], [-114.77419, 41.1217], [-114.78323, 41.11863], [-114.80159, 41.11536], [-114.80464, 41.1153], [-114.81216, 41.11712], [-114.81878, 41.11791], [-114.82711, 41.12044], [-114.83753, 41.11929], [-114.84193, 41.12029], [-114.84583, 41.12014], [-114.8491, 41.12059], [-114.85734, 41.12078], [-114.8737, 41.11746], [-114.88742, 41.11193], [-114.89801, 41.10913], [-114.91144, 41.10365], [-114.91383, 41.10336], [-114.923, 41.10441], [-114.92678, 41.10414], [-114.93113, 41.10266], [-114.93572, 41.09907], [-114.93742, 41.09857], [-114.93951, 41.09849], [-114.94438, 41.09906], [-114.94744, 41.10028], [-114.96984, 41.11769], [-114.97552, 41.12136], [-114.99284, 41.12917], [-114.99862, 41.13074], [-115.06608, 41.13708], [-115.13121, 41.12875], [-115.13557, 41.12772], [-115.13886, 41.12635], [-115.16841, 41.11123], [-115.17327, 41.10977], [-115.1893, 41.10671], [-115.1937, 41.10522], [-115.24884, 41.07574], [-115.25417, 41.07325], [-115.27908, 41.06384], [-115.34833, 41.04528], [-115.35226, 41.04361], [-115.38221, 41.02793], [-115.41575, 41.00456], [-115.41999, 41.0011], [-115.42363, 40.99748], [-115.42679, 40.99345], [-115.45686, 40.94644], [-115.45949, 40.94317], [-115.46187, 40.94112], [-115.46535, 40.93905], [-115.48359, 40.93189], [-115.48867, 40.93076], [-115.52094, 40.92771], [-115.55114, 40.92894], [-115.55565, 40.92983], [-115.60297, 40.94388], [-115.60595, 40.94427], [-115.64893, 40.93612], [-115.65468, 40.93452], [-115.6602, 40.93221], [-115.68158, 40.92097], [-115.68689, 40.91711], [-115.71416, 40.88178], [-115.72645, 40.86275], [-115.72897, 40.86016], [-115.74192, 40.84905], [-115.75077, 40.83611], [-115.76306, 40.82569], [-115.76556, 40.82439], [-115.76801, 40.82376], [-115.79079, 40.82149], [-115.80415, 40.81744], [-115.80829, 40.81554], [-115.85139, 40.79188], [-115.87189, 40.78296], [-115.90764, 40.77214], [-115.91159, 40.7703], [-115.91953, 40.76566], [-115.92761, 40.7621], [-115.93428, 40.75789], [-115.94, 40.75246], [-115.94328, 40.74779], [-115.94854, 40.73722], [-115.95355, 40.73123], [-115.95807, 40.7276], [-115.97977, 40.71384], [-115.98178, 40.71327], [-115.9843, 40.71312], [-116.00216, 40.71539], [-116.00626, 40.71682], [-116.01993, 40.72363], [-116.02622, 40.72529], [-116.02996, 40.72552], [-116.06472, 40.72496], [-116.0694, 40.7244], [-116.09129, 40.71944], [-116.11729, 40.70911], [-116.13229, 40.69884], [-116.14036, 40.69542], [-116.14274, 40.69349], [-116.15304, 40.67932], [-116.15459, 40.67658], [-116.15534, 40.67432], [-116.1559, 40.67018], [-116.1576, 40.66443], [-116.16074, 40.64838], [-116.16538, 40.63873], [-116.16822, 40.6342], [-116.16992, 40.63261], [-116.17441, 40.63083], [-116.17609, 40.62972], [-116.17728, 40.62819], [-116.17885, 40.62435], [-116.18005, 40.62319], [-116.18201, 40.62255], [-116.18522, 40.62275], [-116.18704, 40.62245], [-116.19232, 40.62011], [-116.19471, 40.61837], [-116.19613, 40.61614], [-116.20104, 40.60128], [-116.20347, 40.5992], [-116.2103, 40.59744], [-116.21296, 40.59573], [-116.214, 40.59406], [-116.21863, 40.58239], [-116.21986, 40.58085], [-116.22143, 40.57984], [-116.22402, 40.57911], [-116.23259, 40.5782], [-116.23484, 40.57891], [-116.23866, 40.58132], [-116.24141, 40.58222], [-116.26334, 40.58412], [-116.2668, 40.58346], [-116.27478, 40.58025], [-116.28312, 40.57872], [-116.28887, 40.57602], [-116.29646, 40.57535], [-116.30007, 40.57616], [-116.30407, 40.57918], [-116.30625, 40.58009], [-116.30866, 40.58039], [-116.315, 40.58023], [-116.32231, 40.57874], [-116.35069, 40.56828], [-116.35551, 40.56735], [-116.35938, 40.56757], [-116.37432, 40.57097], [-116.37816, 40.57149], [-116.44701, 40.5729], [-116.45064, 40.57356], [-116.45441, 40.57485], [-116.45846, 40.57699], [-116.4619, 40.57933], [-116.48194, 40.59701], [-116.48389, 40.59926], [-116.48535, 40.60184], [-116.51003, 40.68476], [-116.51609, 40.69773], [-116.51773, 40.69936], [-116.51996, 40.7003], [-116.53319, 40.7019], [-116.53871, 40.70167], [-116.56389, 40.69706], [-116.63305, 40.67617], [-116.63927, 40.67475], [-116.64749, 40.67405], [-116.70323, 40.67429], [-116.71069, 40.67351], [-116.71762, 40.67179], [-116.75469, 40.65708], [-116.75842, 40.65513], [-116.76822, 40.64619], [-116.78492, 40.62594], [-116.78864, 40.62225], [-116.79254, 40.61934], [-116.79747, 40.61657], [-116.80248, 40.61453], [-116.80771, 40.61305], [-116.81575, 40.61189], [-116.82407, 40.61194], [-116.8869, 40.61554], [-116.89286, 40.6164], [-116.899, 40.61805], [-116.9055879, 40.6208518], [-116.9067781, 40.621497], [-116.9086516, 40.6226167], [-116.9098594, 40.6234164], [-116.9116015, 40.6246768], [-117.0221409, 40.711475], [-117.0889713, 40.7638628], [-117.140102, 40.8038321], [-117.1424296, 40.8057292], [-117.3247, 40.99865], [-117.32624, 40.99995], [-117.3304, 41.00242], [-117.33276, 41.00327], [-117.33568, 41.00367], [-117.33878, 41.0034], [-117.34128, 41.00259], [-117.34367, 41.00112], [-117.3616, 40.98668], [-117.36576, 40.98405], [-117.37175, 40.9821], [-117.38819, 40.98008], [-117.39324, 40.97872], [-117.39803, 40.97617], [-117.40495, 40.97037], [-117.40983, 40.96703], [-117.41656, 40.96416], [-117.43917, 40.95854], [-117.44509, 40.95754], [-117.48569, 40.95558], [-117.48827, 40.95602], [-117.49048, 40.95687], [-117.49541, 40.95974], [-117.49993, 40.96307], [-117.5552, 41.01689], [-117.55762, 41.0184], [-117.56318, 41.02063], [-117.56562, 41.02127], [-117.57959, 41.02313], [-117.58577, 41.02654], [-117.5881, 41.02719], [-117.59027, 41.0272], [-117.59487, 41.02623], [-117.59777, 41.02612], [-117.60745, 41.02811], [-117.61331, 41.0286], [-117.62234, 41.02833], [-117.63802, 41.02488], [-117.67175, 41.02288], [-117.67525, 41.02205], [-117.69298, 41.01045], [-117.69834, 41.0059], [-117.72768, 40.97469], [-117.75506, 40.93825], [-117.75829, 40.93497], [-117.76231, 40.9322], [-117.76758, 40.92984], [-117.88044, 40.89187], [-117.88572, 40.89076], [-117.89079, 40.89022], [-117.91088, 40.88991], [-117.91683, 40.88887], [-117.92277, 40.88705], [-117.92785, 40.88473], [-117.93237, 40.88197], [-117.9812, 40.84543], [-117.98583, 40.84058], [-118.01664, 40.79942], [-118.01835, 40.79673], [-118.02042, 40.79174], [-118.03299, 40.74286], [-118.03442, 40.73893], [-118.04573, 40.71856], [-118.05489, 40.70733], [-118.06509, 40.6886], [-118.06699, 40.68611], [-118.06943, 40.68395], [-118.07404, 40.68129], [-118.0767, 40.68032], [-118.13053, 40.66861], [-118.20146, 40.64526], [-118.20707, 40.64241], [-118.2114, 40.63939], [-118.24161, 40.61415], [-118.24762, 40.60808], [-118.27581, 40.57197], [-118.27937, 40.56568], [-118.28167, 40.55917], [-118.28964, 40.5241], [-118.29106, 40.51184], [-118.29761, 40.49134], [-118.29813, 40.48852], [-118.29796, 40.48564], [-118.29727, 40.4832], [-118.2881, 40.46144], [-118.28755, 40.45855], [-118.28767, 40.45582], [-118.31092, 40.35325], [-118.31239, 40.34865], [-118.31443, 40.34459], [-118.31741, 40.34051], [-118.35359, 40.29854], [-118.3561, 40.2946], [-118.36025, 40.28601], [-118.3693, 40.27554], [-118.37353, 40.26719], [-118.37495, 40.26507], [-118.3964, 40.24156], [-118.40186, 40.23604], [-118.40767, 40.232], [-118.41307, 40.22938], [-118.42664, 40.22441], [-118.43419, 40.22005], [-118.43778, 40.21706], [-118.46197, 40.19409], [-118.46569, 40.18992], [-118.5046, 40.13685], [-118.50785, 40.13352], [-118.51145, 40.13106], [-118.55343, 40.10735], [-118.62356, 40.07786], [-118.62988, 40.07475], [-118.63524, 40.07141], [-118.63979, 40.06787], [-118.65534, 40.05305], [-118.65728, 40.04971], [-118.65892, 40.04344], [-118.66029, 40.0402], [-118.66207, 40.03758], [-118.6675, 40.03132], [-118.66932, 40.02775], [-118.67555, 40.00912], [-118.68427, 39.96786], [-118.69362, 39.94526], [-118.6958, 39.94256], [-118.69931, 39.93951], [-118.76584, 39.88473], [-118.7684, 39.88206], [-118.77031, 39.87873], [-118.77684, 39.85786], [-118.77781, 39.85132], [-118.77049, 39.75942], [-118.77058, 39.75422], [-118.77163, 39.74944], [-118.78149, 39.72052], [-118.78357, 39.7168], [-118.78622, 39.71334], [-118.7893375, 39.7102352], [-118.7916272, 39.7083845], [-118.7930852, 39.7073534], [-118.7947511, 39.706291], [-118.8781963, 39.656179], [-118.9665242, 39.6030194], [-119.0165294, 39.5728505], [-119.0178939, 39.572067], [-119.019921, 39.5710217], [-119.0214826, 39.5703095], [-119.0234723, 39.5694885], [-119.0255698, 39.5687466], [-119.03372, 39.56681], [-119.06966, 39.56309], [-119.07452, 39.56337], [-119.0787, 39.56484], [-119.08211, 39.56742], [-119.08349, 39.56932], [-119.0886, 39.57851], [-119.09183, 39.58214], [-119.10412, 39.59023], [-119.11009, 39.59257], [-119.11459, 39.59326], [-119.21062, 39.60183], [-119.29024, 39.61708], [-119.29265, 39.6165], [-119.29721, 39.61382], [-119.32784, 39.59996], [-119.33424, 39.59837], [-119.33926, 39.59613], [-119.35814, 39.59359], [-119.37601, 39.58931], [-119.39663, 39.58812], [-119.40005, 39.58862], [-119.40575, 39.5903], [-119.41294, 39.59095], [-119.42754, 39.58845], [-119.44038, 39.58837], [-119.45435, 39.58962], [-119.45816, 39.58909], [-119.46604, 39.58577], [-119.46819, 39.58405], [-119.47162, 39.57652], [-119.47149, 39.5715], [-119.47199, 39.5695], [-119.47371, 39.56722], [-119.4765, 39.56555], [-119.48965, 39.5625], [-119.50966, 39.56158], [-119.54012, 39.55764], [-119.54499, 39.55654], [-119.56926, 39.54941], [-119.5748, 39.54843], [-119.58218, 39.54778], [-119.5871, 39.5468], [-119.58954, 39.54579], [-119.59185, 39.54426], [-119.6087, 39.52814], [-119.61624, 39.52286], [-119.62402, 39.51607], [-119.62652, 39.51531], [-119.63819, 39.51343], [-119.64307, 39.51324], [-119.64801, 39.5117], [-119.65873, 39.51002], [-119.66528, 39.50996], [-119.67276, 39.51107], [-119.67652, 39.51209], [-119.68205, 39.51502], [-119.68745, 39.52023], [-119.68995, 39.52197], [-119.70335, 39.52619], [-119.77817, 39.534], [-119.78318, 39.53388], [-119.78841, 39.53325], [-119.8302, 39.52526], [-119.84756, 39.51916], [-119.84891, 39.5181], [-119.85098, 39.51478], [-119.85397, 39.51321], [-119.87088, 39.51053], [-119.87616, 39.51059], [-119.87895, 39.50987], [-119.88371, 39.50795], [-119.88697, 39.50734], [-119.89038, 39.50739], [-119.90395, 39.50889], [-119.90556, 39.50965], [-119.90717, 39.51152], [-119.90836, 39.51226], [-119.91906, 39.51542], [-119.92127, 39.51575], [-119.92314, 39.51547], [-119.92458, 39.51475], [-119.92766, 39.5109], [-119.93054, 39.50868], [-119.93285, 39.50784], [-119.93541, 39.50772], [-119.95045, 39.51099], [-119.95215, 39.51187], [-119.9579, 39.51614], [-119.96104, 39.51749], [-119.96391, 39.51824], [-119.97922, 39.51969], [-119.98171, 39.51948], [-119.98622, 39.51843], [-119.99066, 39.51662], [-119.99192, 39.51539], [-119.99261, 39.51392], [-119.99406, 39.5032], [-119.99202, 39.49399], [-119.99121, 39.48413], [-119.99188, 39.48281], [-119.99421, 39.48027], [-119.99485, 39.47602], [-119.99561, 39.47424], [-119.99709, 39.47255], [-120.00069, 39.46996], [-120.00402, 39.46446], [-120.00616, 39.4618], [-120.00814, 39.45776], [-120.00836, 39.45586], [-120.00619, 39.45128], [-120.00639, 39.4496], [-120.00868, 39.44707], [-120.01029, 39.44327], [-120.01176, 39.44133], [-120.01315, 39.44056], [-120.01669, 39.43965], [-120.01854, 39.43865], [-120.02368, 39.43507], [-120.02653, 39.43188], [-120.03141, 39.42962], [-120.03276, 39.42818], [-120.03334, 39.42686], [-120.03344, 39.425], [-120.0327, 39.42302], [-120.02705, 39.41712], [-120.02537, 39.41405], [-120.02497, 39.41264], [-120.02489, 39.40894], [-120.02415, 39.4059], [-120.02172, 39.40127], [-120.02127, 39.39796], [-120.02308, 39.39506], [-120.02342, 39.39361], [-120.02246, 39.39037], [-120.02293, 39.38813], [-120.02275, 39.38677], [-120.01948, 39.38114], [-120.01967, 39.37939], [-120.02093, 39.37786], [-120.04007, 39.3692], [-120.04768, 39.36788], [-120.04914, 39.36825], [-120.05113, 39.36968], [-120.05257, 39.37012], [-120.05817, 39.36931], [-120.06315, 39.3699], [-120.0661, 39.36896], [-120.06916, 39.36689], [-120.07119, 39.36664], [-120.07311, 39.36736], [-120.07406, 39.36863], [-120.07415, 39.36954], [-120.07345, 39.37145], [-120.07332, 39.37325], [-120.07406, 39.37586], [-120.07419, 39.37823], [-120.07528, 39.37969], [-120.08195, 39.38444], [-120.08414, 39.38551], [-120.08698, 39.38591], [-120.09407, 39.38523], [-120.09569, 39.38438], [-120.09975, 39.38086], [-120.1031, 39.37909], [-120.10503, 39.37661], [-120.10624, 39.37564], [-120.10807, 39.37498], [-120.11235, 39.37458], [-120.1166, 39.37156], [-120.11715, 39.37024], [-120.11675, 39.36895], [-120.11586, 39.36805], [-120.11132, 39.36527], [-120.11065, 39.36404], [-120.11082, 39.36271], [-120.11199, 39.36145], [-120.11385, 39.36088], [-120.11557, 39.36106], [-120.12094, 39.3627], [-120.12349, 39.36233], [-120.12512, 39.36142], [-120.12568, 39.36063], [-120.12618, 39.35865], [-120.12623, 39.35485], [-120.12513, 39.35356], [-120.12167, 39.35199], [-120.12096, 39.35077], [-120.12103, 39.34966], [-120.12188, 39.3485], [-120.12476, 39.34701], [-120.12825, 39.34378], [-120.13147, 39.34168], [-120.14973, 39.3343], [-120.15396, 39.33356], [-120.16406, 39.33297], [-120.18796, 39.32664], [-120.19612, 39.32227], [-120.19853, 39.32035], [-120.20561, 39.31782], [-120.20816, 39.31769], [-120.21193, 39.31887], [-120.21452, 39.31898], [-120.22387, 39.31593], [-120.22899, 39.31517], [-120.23173, 39.31269], [-120.23579, 39.31154], [-120.24066, 39.3083], [-120.24763, 39.30057], [-120.24886, 39.29962], [-120.2699, 39.29206], [-120.27125, 39.29206], [-120.27243, 39.29277], [-120.27271, 39.29387], [-120.27196, 39.2949], [-120.26231, 39.30008], [-120.25678, 39.30207], [-120.25347, 39.30276], [-120.25231, 39.30345], [-120.24992, 39.30616], [-120.24689, 39.31124], [-120.24434, 39.31302], [-120.24428, 39.3142], [-120.24559, 39.31519], [-120.25621, 39.31595], [-120.25968, 39.31437], [-120.26415, 39.31347], [-120.2678, 39.31161], [-120.27055, 39.31177], [-120.27295, 39.31126], [-120.27562, 39.31176], [-120.27704, 39.31164], [-120.27977, 39.31001], [-120.2838, 39.30864], [-120.28465, 39.30783], [-120.28562, 39.30554], [-120.28646, 39.30449], [-120.28983, 39.30291], [-120.29193, 39.30039], [-120.29431, 39.29987], [-120.33988, 39.31014], [-120.34709, 39.31416], [-120.35219, 39.31609], [-120.35597, 39.31645], [-120.36555, 39.32038], [-120.3705, 39.32307], [-120.38156, 39.3224], [-120.38626, 39.3241], [-120.38883, 39.32431], [-120.39257, 39.32401], [-120.39601, 39.32283], [-120.40498, 39.32096], [-120.40982, 39.32168], [-120.41259, 39.32247], [-120.41517, 39.32229], [-120.42133, 39.31907], [-120.42608, 39.31737], [-120.43287, 39.31343], [-120.43561, 39.31134], [-120.43878, 39.31113], [-120.44323, 39.31017], [-120.44585, 39.30682], [-120.45075, 39.30453], [-120.45282, 39.30485], [-120.45779, 39.30889], [-120.46099, 39.30991], [-120.4635, 39.31142], [-120.46487, 39.31162], [-120.46617, 39.31121], [-120.47153, 39.30779], [-120.47694, 39.30621], [-120.48155, 39.3065], [-120.48492, 39.30588], [-120.4916, 39.30585], [-120.49679, 39.30727], [-120.5022, 39.30769], [-120.50428, 39.30693], [-120.50602, 39.30569], [-120.50751, 39.30378], [-120.50842, 39.3008], [-120.51122, 39.29921], [-120.51369, 39.29846], [-120.52074, 39.29754], [-120.52466, 39.29643], [-120.5298, 39.29629], [-120.53113, 39.29675], [-120.53188, 39.29745], [-120.53233, 39.30031], [-120.53397, 39.30157], [-120.54022, 39.30236], [-120.54341, 39.30173], [-120.54776, 39.30158], [-120.54887, 39.30189], [-120.5498, 39.30304], [-120.54996, 39.30528], [-120.55066, 39.30746], [-120.55066, 39.30925], [-120.55114, 39.31003], [-120.55236, 39.31053], [-120.55468, 39.31051], [-120.5572, 39.31198], [-120.55936, 39.31218], [-120.56052, 39.31268], [-120.56304, 39.31461], [-120.5713, 39.32407], [-120.57272, 39.32505], [-120.57797, 39.32648], [-120.58348, 39.32742], [-120.5862, 39.32914], [-120.58722, 39.32941], [-120.58939, 39.32867], [-120.59328, 39.32556], [-120.59781, 39.32496], [-120.60118, 39.3229], [-120.60618, 39.32185], [-120.61224, 39.31988], [-120.61785, 39.31902], [-120.62477, 39.31879], [-120.63107, 39.31512], [-120.63836, 39.31307], [-120.64045, 39.31151], [-120.64783, 39.3084], [-120.65852, 39.30535], [-120.66183, 39.30389], [-120.66402, 39.30189], [-120.67001, 39.30008], [-120.67295, 39.29767], [-120.67339, 39.29491], [-120.6755, 39.29191], [-120.67655, 39.28915], [-120.67903, 39.28764], [-120.68059, 39.28525], [-120.68453, 39.28296], [-120.68729, 39.2795], [-120.68797, 39.27806], [-120.6882, 39.27493], [-120.68901, 39.27352], [-120.69405, 39.26922], [-120.69571, 39.26664], [-120.69962, 39.26581], [-120.70078, 39.26484], [-120.70115, 39.26038], [-120.70178, 39.2582], [-120.69945, 39.25461], [-120.6995, 39.2535], [-120.70018, 39.25252], [-120.70196, 39.25182], [-120.70514, 39.25203], [-120.70653, 39.25174], [-120.70782, 39.25086], [-120.70864, 39.24896], [-120.70935, 39.24826], [-120.71067, 39.24784], [-120.71209, 39.24803], [-120.7131, 39.24882], [-120.71342, 39.24989], [-120.7121, 39.2516], [-120.71166, 39.25313], [-120.71, 39.25468], [-120.70978, 39.25556], [-120.71075, 39.25703], [-120.71298, 39.25723], [-120.71392, 39.2566], [-120.71531, 39.25478], [-120.71824, 39.25349], [-120.71844, 39.2512], [-120.71907, 39.25025], [-120.72193, 39.24923], [-120.72397, 39.24709], [-120.72428, 39.24631], [-120.72405, 39.24412], [-120.72546, 39.24198], [-120.7272, 39.2415], [-120.73027, 39.24194], [-120.73159, 39.24145], [-120.7323, 39.24057], [-120.73263, 39.2378], [-120.73392, 39.23671], [-120.74197, 39.23717], [-120.74328, 39.23656], [-120.74465, 39.23479], [-120.7454, 39.23434], [-120.74873, 39.2343], [-120.75006, 39.23367], [-120.75152, 39.23053], [-120.75087, 39.22885], [-120.75096, 39.2276], [-120.75055, 39.22621], [-120.75079, 39.22545], [-120.75185, 39.22458], [-120.75615, 39.22346], [-120.75733, 39.22266], [-120.75781, 39.22164], [-120.75767, 39.21731], [-120.75802, 39.21596], [-120.75915, 39.21463], [-120.76293, 39.2122], [-120.76377, 39.21097], [-120.76388, 39.20969], [-120.76333, 39.20816], [-120.76067, 39.20428], [-120.76024, 39.20298], [-120.76066, 39.2018], [-120.76329, 39.19964], [-120.76512, 39.19919], [-120.77005, 39.20004], [-120.77293, 39.19848], [-120.77565, 39.19844], [-120.77884, 39.19748], [-120.78054, 39.1955], [-120.78139, 39.19504], [-120.78587, 39.19498], [-120.78689, 39.19534], [-120.78981, 39.19745], [-120.79379, 39.19726], [-120.79513, 39.19791], [-120.79562, 39.19936], [-120.79405, 39.20194], [-120.79388, 39.20286], [-120.79434, 39.20387], [-120.79554, 39.20456], [-120.79673, 39.20463], [-120.80049, 39.20381], [-120.80428, 39.20422], [-120.80911, 39.20421], [-120.81032, 39.20487], [-120.81188, 39.20711], [-120.81414, 39.20796], [-120.81695, 39.20772], [-120.82054, 39.20598], [-120.82228, 39.20556], [-120.82404, 39.20588], [-120.82676, 39.20757], [-120.82886, 39.20756], [-120.83129, 39.20558], [-120.83193, 39.20329], [-120.83349, 39.20095], [-120.83354, 39.19962], [-120.83168, 39.19451], [-120.83269, 39.19139], [-120.83335, 39.19039], [-120.83483, 39.18969], [-120.84085, 39.18918], [-120.84899, 39.18591], [-120.85234, 39.18323], [-120.85846, 39.17938], [-120.85975, 39.17742], [-120.85989, 39.17488], [-120.86098, 39.17379], [-120.86418, 39.17361], [-120.86654, 39.17497], [-120.86785, 39.17503], [-120.87104, 39.17341], [-120.87282, 39.17131], [-120.87382, 39.17106], [-120.87615, 39.17135], [-120.87775, 39.17054], [-120.87837, 39.16988], [-120.87855, 39.16898], [-120.87733, 39.1669], [-120.87696, 39.16365], [-120.87725, 39.16116], [-120.87781, 39.16002], [-120.87927, 39.15876], [-120.88098, 39.15808], [-120.88501, 39.15886], [-120.88656, 39.15848], [-120.88749, 39.15742], [-120.88771, 39.15502], [-120.88858, 39.15367], [-120.89229, 39.15219], [-120.89626, 39.14982], [-120.89719, 39.14668], [-120.89663, 39.14398], [-120.89753, 39.14137], [-120.89822, 39.14051], [-120.9003, 39.13919], [-120.9023, 39.13639], [-120.90371, 39.13565], [-120.90705, 39.13518], [-120.91108, 39.13308], [-120.91217, 39.13216], [-120.91332, 39.13003], [-120.91466, 39.12915], [-120.92025, 39.12867], [-120.92466, 39.1291], [-120.92599, 39.12853], [-120.92767, 39.12698], [-120.9305, 39.12576], [-120.93096, 39.12483], [-120.93118, 39.11928], [-120.93061, 39.11521], [-120.93167, 39.11383], [-120.93334, 39.11323], [-120.93506, 39.11321], [-120.93697, 39.11441], [-120.93733, 39.1154], [-120.937, 39.11704], [-120.93756, 39.11849], [-120.93782, 39.12187], [-120.93848, 39.1228], [-120.94171, 39.124], [-120.94281, 39.12392], [-120.94403, 39.12327], [-120.94464, 39.12238], [-120.94659, 39.11594], [-120.94831, 39.11219], [-120.94786, 39.10784], [-120.9481, 39.10679], [-120.95075, 39.10354], [-120.95784, 39.09241], [-120.96222, 39.087], [-120.96888, 39.07528], [-120.96996, 39.07257], [-120.97299, 39.06992], [-120.97439, 39.0697], [-120.97714, 39.07034], [-120.97806, 39.06997], [-120.9787, 39.06912], [-120.97867, 39.06838], [-120.97788, 39.06697], [-120.97751, 39.06465], [-120.97469, 39.06253], [-120.97394, 39.06155], [-120.97272, 39.05618], [-120.9716, 39.05411], [-120.97182, 39.05334], [-120.97315, 39.05181], [-120.97313, 39.05041], [-120.9737, 39.04907], [-120.9736, 39.04747], [-120.97483, 39.04525], [-120.9751, 39.04371], [-120.97393, 39.04012], [-120.97411, 39.03707], [-120.97191, 39.03437], [-120.97147, 39.03271], [-120.97226, 39.03162], [-120.97504, 39.03047], [-120.97609, 39.0292], [-120.97781, 39.02312], [-120.97786, 39.02059], [-120.97686, 39.01731], [-120.97726, 39.01488], [-120.9779, 39.01403], [-120.97978, 39.01278], [-120.98069, 39.01117], [-120.98213, 39.00977], [-120.98257, 39.00642], [-120.9832, 39.00547], [-120.98672, 39.00451], [-120.98929, 39.00304], [-120.99296, 39.00245], [-120.99489, 39.00087], [-120.99648, 38.99736], [-120.99665, 38.99612], [-120.99606, 38.99477], [-120.994, 38.99261], [-120.99372, 38.99144], [-120.99403, 38.99009], [-120.99532, 38.98768], [-120.99853, 38.9849], [-120.99905, 38.98209], [-121.00207, 38.97718], [-121.00402, 38.97582], [-121.01134, 38.97249], [-121.01285, 38.97108], [-121.01312, 38.96958], [-121.01261, 38.96644], [-121.01139, 38.96359], [-121.01271, 38.96141], [-121.01466, 38.96046], [-121.0195, 38.96045], [-121.02176, 38.95976], [-121.03051, 38.95264], [-121.03691, 38.95011], [-121.04102, 38.94552], [-121.04733, 38.9414], [-121.05179, 38.93921], [-121.05593, 38.93898], [-121.05811, 38.93832], [-121.06634, 38.93194], [-121.06682, 38.93072], [-121.06652, 38.92945], [-121.06087, 38.92231], [-121.06038, 38.92123], [-121.06035, 38.9201], [-121.06086, 38.91875], [-121.06181, 38.91772], [-121.06691, 38.91568], [-121.06784, 38.91458], [-121.06878, 38.90947], [-121.0658, 38.90289], [-121.06489, 38.89746], [-121.06625, 38.89489], [-121.06954, 38.89251], [-121.07153, 38.88883], [-121.07419, 38.88757], [-121.07675, 38.88721], [-121.07769, 38.88674], [-121.07902, 38.88524], [-121.07917, 38.88317], [-121.07974, 38.88217], [-121.0809, 38.88143], [-121.08381, 38.88068], [-121.08649, 38.8776], [-121.0876, 38.8772], [-121.09077, 38.87697], [-121.09349, 38.8752], [-121.09691, 38.87494], [-121.10188, 38.87645], [-121.10375, 38.87621], [-121.10709, 38.87511], [-121.11123, 38.87497], [-121.11671, 38.87625], [-121.13153, 38.87568], [-121.13994, 38.87664], [-121.1421, 38.87609], [-121.15084, 38.87179], [-121.15391, 38.87169], [-121.1552, 38.87114], [-121.1559, 38.87002], [-121.15548, 38.86813], [-121.15593, 38.86697], [-121.15721, 38.86624], [-121.16128, 38.86573], [-121.16329, 38.86454], [-121.16531, 38.86116], [-121.16611, 38.85623], [-121.1694, 38.854], [-121.17016, 38.85155], [-121.17089, 38.85063], [-121.17404, 38.84937], [-121.17538, 38.84823], [-121.17621, 38.84547], [-121.17798, 38.84322], [-121.17799, 38.8422], [-121.17708, 38.83946], [-121.17759, 38.83792], [-121.17934, 38.83685], [-121.18506, 38.83607], [-121.18804, 38.83427], [-121.18941, 38.83233], [-121.19204, 38.82452], [-121.19915, 38.81684], [-121.22272, 38.80244], [-121.22618, 38.80105], [-121.23185, 38.7996], [-121.23319, 38.79887], [-121.23605, 38.79338], [-121.2479, 38.77697], [-121.2555, 38.7682], [-121.26133, 38.75974], [-121.26334, 38.75878], [-121.27001, 38.75825], [-121.27429, 38.7568], [-121.28575, 38.74982], [-121.29084, 38.74819], [-121.30511, 38.73709], [-121.33279, 38.70556], [-121.44673, 38.60041], [-121.44862, 38.59814], [-121.44968, 38.59589], [-121.45018, 38.59346], [-121.45046, 38.58762], [-121.4511, 38.58482], [-121.45218, 38.58338], [-121.45391, 38.58235], [-121.45617, 38.58159], [-121.45947, 38.58142], [-121.48839, 38.58866], [-121.49454, 38.58788], [-121.49717, 38.58686], [-121.50396, 38.58582], [-121.51222, 38.58755], [-121.53293, 38.58861], [-121.54043, 38.58817], [-121.73417, 38.54451], [-121.7367, 38.54371], [-121.7386404, 38.5424779], [-121.7394842, 38.5416462], [-121.7407177, 38.5402723], [-121.82022, 38.450947], [-121.8258396, 38.4447141], [-121.889967, 38.372494], [-121.9075222, 38.3527954], [-121.911265, 38.348496], [-121.940219, 38.315872], [-121.941892, 38.313742], [-121.942656, 38.312622], [-121.95204, 38.29703], [-121.95462, 38.29392], [-121.95736, 38.2916], [-121.96018, 38.2898], [-122.03636, 38.24788], [-122.03916, 38.24587], [-122.04151, 38.2434], [-122.10019, 38.1322], [-122.10087, 38.12998], [-122.10112, 38.12752], [-122.10096, 38.1058], [-122.1016, 38.10226], [-122.10481, 38.09098], [-122.10628, 38.08856], [-122.1082, 38.08642], [-122.11853, 38.07849], [-122.12956, 38.0654], [-122.13049, 38.06376], [-122.13054, 38.06119], [-122.12871, 38.0568], [-122.12896, 38.05048], [-122.12868, 38.04913], [-122.11788, 38.03447], [-122.1184, 38.02862], [-122.11906, 38.0272], [-122.12023, 38.02598], [-122.12245, 38.02484], [-122.12932, 38.02307], [-122.13325, 38.02076], [-122.13515, 38.02003], [-122.14039, 38.01923], [-122.14408, 38.0194], [-122.1616, 38.02585], [-122.16944, 38.02964], [-122.17124, 38.03195], [-122.17405, 38.03417], [-122.17523, 38.03888], [-122.17925, 38.04466], [-122.18299, 38.04715], [-122.18567, 38.04955], [-122.19066, 38.05231], [-122.19828, 38.05294], [-122.21645, 38.05701], [-122.22266, 38.05572], [-122.23619, 38.05714], [-122.23904, 38.05793], [-122.24058, 38.05797], [-122.24259, 38.05735], [-122.24602, 38.05545], [-122.24881, 38.05258], [-122.25026, 38.05168], [-122.25936, 38.05087], [-122.26083, 38.05009], [-122.26184, 38.04857], [-122.26277, 38.04228], [-122.26341, 38.04095], [-122.26533, 38.03955], [-122.27348, 38.03683], [-122.2745, 38.03555], [-122.27511, 38.03224], [-122.27628, 38.02943], [-122.27966, 38.02645], [-122.28181, 38.02282], [-122.28319, 38.02182], [-122.2878, 38.02043], [-122.28902, 38.01975], [-122.29403, 38.01389], [-122.29769, 38.01066], [-122.29954, 38.01011], [-122.30512, 38.01038], [-122.30929, 38.00982], [-122.31431, 38.01108], [-122.31609, 38.01103], [-122.31787, 38.0102], [-122.32456, 38.00488], [-122.33094, 38.00118], [-122.33318, 38.00065], [-122.33596, 38.00059], [-122.34414, 38.00221], [-122.3473, 38.00241], [-122.35164, 38.0013], [-122.35428, 37.99947], [-122.35569, 37.99762], [-122.35645, 37.9952], [-122.35874, 37.97017], [-122.36019, 37.95314], [-122.35999, 37.94957], [-122.35906, 37.94567], [-122.35615, 37.93993], [-122.35202, 37.9352], [-122.32927, 37.91839], [-122.32662, 37.91611], [-122.30918, 37.89449], [-122.30595, 37.88288], [-122.29286, 37.84225], [-122.29119, 37.83571], [-122.29091, 37.83031], [-122.29152, 37.82542], [-122.29277, 37.82194], [-122.29528, 37.81949]]}}]}