{
 "type": "FeatureCollection",
 "metadata": {
  "note": "The Petaluma and Santa Rosa Railroad (Petaluma & Santa Rosa Railway until the 1918 foreclosure reorganisation): a 600 V DC electric interurban in Sonoma County, CA, built 1904-05 from the San Francisco steamer landing at Petaluma north to Sebastopol, with lines from Sebastopol east to Santa Rosa and north through Graton to Forestville, plus a 1913 branch from Liberty to Two Rock. Company-owned stern-wheel steamers (Gold, Petaluma) carried passengers and freight between Petaluma and San Francisco. Drawn as five features because each ran its own service (Borden gives separate daily round-trip counts for Petaluma-Sebastopol, Sebastopol-Santa Rosa and Sebastopol-Forestville) and because the Fourth Street run in downtown Santa Rosa ended six months before the rest. All rail passenger service ended Jun 30 1932; the railroad survived as a freight carrier (electric to 1946-47, then diesel) under Northwestern Pacific / Southern Pacific ownership into the 1980s, which is deliberately not drawn (Rule 1). The horsecar lines the company bought in 1903 in Petaluma and Santa Rosa are not drawn (Rule 5); only Fourth Street in Santa Rosa was ever electrified, from 1905.",
  "replaces": "This file replaces feature psr-petaluma-santa-rosa, formerly in northwestern_pacific_santa_rosa.geojson: a 3-point straight-line sketch Petaluma-Sebastopol-Santa Rosa coloured in the Northwestern Pacific's #386641. That colour was a Rule 4 error - the P&SR ran its own trains under its own name until passenger service ended, and the NWP only took formal ownership of the stock on Feb 26 1932, four months before the end.",
  "ownership_note": "Rule 4 judgment: one company, one colour (#B5838D) for 1904-1932, no split. Southern Pacific and Santa Fe money bought the P&SR common stock through the Anglo-California Trust Co. on Jun 27 1928 (SP took Santa Fe's half on Jan 17 1929), and the Northwestern Pacific - itself SP-controlled - acquired the stock outright on Feb 26 1932 after ICC approval on Jan 22 1932; P&SR president Maggard had been made president of the NWP. Throughout, the Petaluma & Santa Rosa remained a separate operating company running its own cars under its own name, so this is stock control, not a change of who ran the trains. No passenger train ran under NWP operation, so there is no NWP-coloured era to draw.",
  "sources": [
   "Stanley T. Borden, 'Petaluma & Santa Rosa Electric R.R.', The Western Railroader vol. 23 no. 4, issue 244 (April 1960) - corporate history, construction dates, daily round-trip counts for 1915 and 1927, speeds, 1946-47 track changes, station list: https://archive.org/details/sim_western-railroader-the-western-railfan_1960-04_23_4",
   "Robert Ellison and Walt Sievers, 'Petaluma and Santa Rosa Railroad Company', The Western Railroader vol. 15 no. 4, issue 148 (February 1952): https://archive.org/details/sim_western-railroader-the-western-railfan_1952-02_15_4",
   "Wikipedia, Petaluma and Santa Rosa Railroad (milepost table, dates): https://en.wikipedia.org/wiki/Petaluma_and_Santa_Rosa_Railroad",
   "Wikipedia, Joe Rodota Trail (trail on the P&SR roadbed): https://en.wikipedia.org/wiki/Joe_Rodota_Trail"
  ],
  "source_conflicts": [
   "Opening of regular service: Nov 29 1904 (Borden 1960, 'first regular train schedule going into effect') vs Dec 1 1904 (Ellison & Sievers 1952; Wikipedia). Both are 1904; segment years unaffected.",
   "End of rail passenger service: 'on June 30, 1932, all passenger service was discontinued' (Borden) vs 'On July 1st ... all passenger service on the rail line was abandoned' (Ellison & Sievers; Wikipedia). Read as last day Jun 30, first day without trains Jul 1. abandonedrails.com says trolley service ceased 1933 - that is the year the cars were retired (Apr 22 1933), not the end of service. A Petaluma Argus-Courier / Petaluma360 summary says passenger service ended in 1935 - that is the steamers, not the trains.",
   "Two Rock branch passenger end: Sep 20 1925 (Borden) vs Sep 30 1925 (Ellison & Sievers; Wikipedia).",
   "NWP purchase: 1928 (abandonedrails.com; the SP/Santa Fe trust purchase of the stock) vs 1932 (Borden; Ellison & Sievers; Wikipedia: NWP acquisition of the stock). Recorded in ownership_note.",
   "Fourth Street dismantling: Wikipedia says McDonald Ave-Olive St was dismantled in 1931; Borden says operation ended Dec 31 1931 and rail removal was completed May 31 1932. The drawn end year 1931 is the last year of service either way."
  ],
  "not_yet_sourced": [
   "Every headway_min is derived from Borden's 1915 and 1927 daily round-trip counts or guessed (1904, Two Rock); no timetable was read. The Jan 1 1932 public timetable reproduced in both Western Railroader articles is an image whose archive.org OCR is unreadable; reading it would give real frequencies and running times.",
   "avg_speed_kmh is an estimate from Borden's 30-35 mph maximum; no running time found.",
   "Exact track position in Petaluma between the steamer wharf/depot (Washington and Copeland streets) and the surviving spur north of Lakeville Street, and whether trains used the 1922 'West Petaluma extension' or the Petaluma Creek west-bank spur (both appear to be freight spurs; not drawn).",
   "Exact street routing through Sebastopol (Gravenstein Hwy S / Petaluma Ave / Main St are inferred).",
   "Location of Leddy junction - drawn at North Wright Road on mileage evidence; the US Navy airfield that Borden places 'at Leddy' could pin it down.",
   "Whether all Sebastopol-Santa Rosa cars ran through to the McDonald Avenue terminus on Fourth Street.",
   "Two Rock branch frequency, and its alignment for the first 1.2 mi west of Liberty."
  ],
  "geometry_quality": "All five features are traced from real geometry except one labelled 1.2 mi straight leg at the east end of the Two Rock branch. Main line 16.80 mi vs 16.66 documented; Sebastopol-Santa Rosa 6.77 vs 6.7; Sebastopol-Forestville 7.42 vs 7.1; Fourth Street 1.05 vs 'slightly over a mile'; Two Rock 5.33 vs 5.3-5.77. About 5.9 mi in all is drawn on road geometry standing in for street and side-of-road running (Copeland St, Gravenstein Hwy S / Petaluma Ave into Sebastopol, Main St through Sebastopol, Sebastopol Rd / Sebastopol Ave / Olive St into Santa Rosa); each feature's geometry_quality names its legs. Sources: OpenStreetMap ways named 'Petaluma and Santa Rosa Railroad' (TIGER-derived), the Joe Rodota and West County rail-trails, OSM roads, and one OpenHistoricalMap way (Fourth Street). Despike, reversal and revisit checks run clean on every feature.",
  "pulled": "20260930"
 },
 "features": [
  {
   "type": "Feature",
   "properties": {
    "company": "Petaluma and Santa Rosa Railroad",
    "line": "Petaluma and Santa Rosa: Petaluma – Sebastopol",
    "id": "psr-petaluma-sebastopol",
    "color": "#B5838D",
    "mode": "interurban",
    "avg_speed_kmh": 32,
    "speed_source": "ESTIMATE. Borden (1960) gives the 1927 maximum passenger speed as 30-35 mph; no published end-to-end running time was found (the Jan 1 1932 public timetable reproduced in both Western Railroader articles is an image whose OCR is unreadable). An average of about 20 mph (32 km/h) allowing for stops and street running in Petaluma and Sebastopol is assumed.",
    "geometry_quality": "Traced 16.8 mi against a documented 16.66 mi (Borden's milepost for Sebastopol; Wikipedia gives 16.7). 14.5 mi follows OpenStreetMap ways named 'Petaluma and Santa Rosa Railroad' - the TIGER-derived abandoned grade from north Petaluma to Alten (MP 14.9), plus 0.8 mi of surviving P&SR-operated spur and siding track (Park Siding) along the west bank of the Petaluma River. APPROXIMATED ON ROADS (about 2.2 mi): 0.4 mi on Copeland Street from the steamer wharf at its foot to Lakeville Street, standing in for the line between the wharf/depot (Washington and Copeland) and the surviving spur - the exact track position is not documented; and 1.9 mi from Alten into the Sebastopol depot (261 S. Main St.) along Gravenstein Highway South and Petaluma Avenue, where the mapped grade runs into the highway - the P&SR was street and side-of-road running in Sebastopol, but that it used exactly these streets is inferred, not sourced. Connectors between OSM fragments total 0.07 mi. No straight-line legs.",
    "segments": [
     {
      "start": 1904,
      "end": 1921,
      "headway_min": 85,
      "note": "Petaluma & Santa Rosa Railway: first spike Apr 5 1904 at the steamer Gold landing at the foot of Copeland Street; the first passenger car reached Sebastopol in October 1904 and the first regular schedule took effect Nov 29 1904 (Borden; Ellison & Sievers and Wikipedia say Dec 1). Trains met the company's own San Francisco steamers at Petaluma. Reorganised as the Petaluma & Santa Rosa Railroad after foreclosure on Oct 29 1918 - same line, same operator. Ridership peaked at 760,725 in 1912. In 1915 the cars made 12 daily round trips Petaluma-Sebastopol (Borden). HEADWAY IS AN ESTIMATE: 85 min is that 1915 count spread over a ~17-hour day and applied back to 1904; earlier frequencies are not sourced.",
      "sources": [
       "Segment-level: dates in this note are from Borden, 'Petaluma & Santa Rosa Electric R.R.', The Western Railroader 23:4 (April 1960), and Ellison & Sievers, The Western Railroader 15:4 (Feb 1952); the headway is an ESTIMATE derived from Borden's daily round-trip counts, not read from a timetable.",
       "https://archive.org/details/sim_western-railroader-the-western-railfan_1960-04_23_4",
       "https://archive.org/details/sim_western-railroader-the-western-railfan_1952-02_15_4",
       "https://en.wikipedia.org/wiki/Petaluma_and_Santa_Rosa_Railroad"
      ]
     },
     {
      "start": 1921,
      "end": 1932,
      "headway_min": 95,
      "note": "A county highway paralleling much of the line was completed in 1921 and passenger revenue fell from then on (Borden). In 1927 the cars made 11 daily round trips Petaluma-Sebastopol, all single-car trains. Rail passengers fell from 491,672 in 1922 to 162,742 in 1931. Southern Pacific and Santa Fe money bought control through the Anglo-California Trust Co. on Jun 27 1928, and the Northwestern Pacific took formal ownership of the stock on Feb 26 1932 after ICC approval on Jan 22, but the P&SR kept running its own trains under its own name; all rail passenger service ended Jun 30 1932 (Borden; Ellison & Sievers and Wikipedia give Jul 1, the first day without service). Freight - electric to 1946-47, then diesel - continued for decades and is deliberately not drawn (Rule 1); steamer passengers lasted to 1935. HEADWAY IS AN ESTIMATE: 95 min is the 1927 count of 11 round trips over a ~17-hour day.",
      "sources": [
       "Segment-level: dates in this note are from Borden, 'Petaluma & Santa Rosa Electric R.R.', The Western Railroader 23:4 (April 1960), and Ellison & Sievers, The Western Railroader 15:4 (Feb 1952); the headway is an ESTIMATE derived from Borden's daily round-trip counts, not read from a timetable.",
       "https://archive.org/details/sim_western-railroader-the-western-railfan_1960-04_23_4",
       "https://archive.org/details/sim_western-railroader-the-western-railfan_1952-02_15_4",
       "https://en.wikipedia.org/wiki/Petaluma_and_Santa_Rosa_Railroad"
      ]
     }
    ]
   },
   "geometry": {
    "type": "LineString",
    "coordinates": [
     [
      -122.634277,
      38.235328
     ],
     [
      -122.634562,
      38.235489
     ],
     [
      -122.634994,
      38.235735
     ],
     [
      -122.635015,
      38.235745
     ],
     [
      -122.635087,
      38.235785
     ],
     [
      -122.635157,
      38.235826
     ],
     [
      -122.635444,
      38.235992
     ],
     [
      -122.63581,
      38.236204
     ],
     [
      -122.636198,
      38.236428
     ],
     [
      -122.636359,
      38.236521
     ],
     [
      -122.636726,
      38.236733
     ],
     [
      -122.636937,
      38.236859
     ],
     [
      -122.637013,
      38.236904
     ],
     [
      -122.637168,
      38.236996
     ],
     [
      -122.63736,
      38.237053
     ],
     [
      -122.638316,
      38.237599
     ],
     [
      -122.638604,
      38.237787
     ],
     [
      -122.639313,
      38.238172
     ],
     [
      -122.639893,
      38.238487
     ],
     [
      -122.640064,
      38.23857
     ],
     [
      -122.640004,
      38.238655
     ],
     [
      -122.640014,
      38.238778
     ],
     [
      -122.640063,
      38.238871
     ],
     [
      -122.64018,
      38.238993
     ],
     [
      -122.64017,
      38.239084
     ],
     [
      -122.640887,
      38.239441
     ],
     [
      -122.641922,
      38.240169
     ],
     [
      -122.642045,
      38.240283
     ],
     [
      -122.642228,
      38.240563
     ],
     [
      -122.642307,
      38.240733
     ],
     [
      -122.642334,
      38.240794
     ],
     [
      -122.642344,
      38.240815
     ],
     [
      -122.642395,
      38.241098
     ],
     [
      -122.642395,
      38.241401
     ],
     [
      -122.642353,
      38.243174
     ],
     [
      -122.642303,
      38.243875
     ],
     [
      -122.642326,
      38.244095
     ],
     [
      -122.642395,
      38.244842
     ],
     [
      -122.642411,
      38.244996
     ],
     [
      -122.642417,
      38.245081
     ],
     [
      -122.642426,
      38.245154
     ],
     [
      -122.642683,
      38.24783
     ],
     [
      -122.642883,
      38.249956
     ],
     [
      -122.642968,
      38.250843
     ],
     [
      -122.6431,
      38.252054
     ],
     [
      -122.64318,
      38.252739
     ],
     [
      -122.643228,
      38.253157
     ],
     [
      -122.643304,
      38.253611
     ],
     [
      -122.643389,
      38.253885
     ],
     [
      -122.643561,
      38.254235
     ],
     [
      -122.64377,
      38.254483
     ],
     [
      -122.644114,
      38.25485
     ],
     [
      -122.644505,
      38.25517
     ],
     [
      -122.645103,
      38.255535
     ],
     [
      -122.65551,
      38.261314
     ],
     [
      -122.662608,
      38.265313
     ],
     [
      -122.663507,
      38.26582
     ],
     [
      -122.673599,
      38.271507
     ],
     [
      -122.67523,
      38.272804
     ],
     [
      -122.676153,
      38.273629
     ],
     [
      -122.678813,
      38.276358
     ],
     [
      -122.680272,
      38.277571
     ],
     [
      -122.68156,
      38.278194
     ],
     [
      -122.68259,
      38.278582
     ],
     [
      -122.685079,
      38.279138
     ],
     [
      -122.687804,
      38.280232
     ],
     [
      -122.688898,
      38.280603
     ],
     [
      -122.691602,
      38.281007
     ],
     [
      -122.695786,
      38.282237
     ],
     [
      -122.698755,
      38.283144
     ],
     [
      -122.699714,
      38.283436
     ],
     [
      -122.700249,
      38.283601
     ],
     [
      -122.701344,
      38.28414
     ],
     [
      -122.707931,
      38.287812
     ],
     [
      -122.708876,
      38.288486
     ],
     [
      -122.709369,
      38.28921
     ],
     [
      -122.709626,
      38.290355
     ],
     [
      -122.709755,
      38.293117
     ],
     [
      -122.710163,
      38.294245
     ],
     [
      -122.710635,
      38.294902
     ],
     [
      -122.711644,
      38.295795
     ],
     [
      -122.715871,
      38.299062
     ],
     [
      -122.717437,
      38.300358
     ],
     [
      -122.722115,
      38.303103
     ],
     [
      -122.728702,
      38.307414
     ],
     [
      -122.733788,
      38.310091
     ],
     [
      -122.736105,
      38.311286
     ],
     [
      -122.740762,
      38.312583
     ],
     [
      -122.74486,
      38.313744
     ],
     [
      -122.745855,
      38.314177
     ],
     [
      -122.7511,
      38.318915
     ],
     [
      -122.751771,
      38.319382
     ],
     [
      -122.752413,
      38.319826
     ],
     [
      -122.7551,
      38.321115
     ],
     [
      -122.755876,
      38.32138
     ],
     [
      -122.7562,
      38.321415
     ],
     [
      -122.75673,
      38.321524
     ],
     [
      -122.75731,
      38.32157
     ],
     [
      -122.757677,
      38.321654
     ],
     [
      -122.758089,
      38.321723
     ],
     [
      -122.758302,
      38.321814
     ],
     [
      -122.7585,
      38.322015
     ],
     [
      -122.76,
      38.331715
     ],
     [
      -122.7603,
      38.332215
     ],
     [
      -122.7665,
      38.335597
     ],
     [
      -122.7669,
      38.335815
     ],
     [
      -122.768343,
      38.335915
     ],
     [
      -122.768564,
      38.335915
     ],
     [
      -122.771854,
      38.335864
     ],
     [
      -122.772998,
      38.335874
     ],
     [
      -122.77348,
      38.335891
     ],
     [
      -122.773816,
      38.335934
     ],
     [
      -122.774333,
      38.336093
     ],
     [
      -122.774803,
      38.336377
     ],
     [
      -122.776599,
      38.337846
     ],
     [
      -122.777175,
      38.338383
     ],
     [
      -122.777582,
      38.338904
     ],
     [
      -122.778101,
      38.341814
     ],
     [
      -122.778451,
      38.342613
     ],
     [
      -122.778649,
      38.343236
     ],
     [
      -122.778815,
      38.343621
     ],
     [
      -122.779105,
      38.344216
     ],
     [
      -122.779154,
      38.345079
     ],
     [
      -122.778927,
      38.345891
     ],
     [
      -122.778386,
      38.346554
     ],
     [
      -122.777727,
      38.346977
     ],
     [
      -122.774795,
      38.349319
     ],
     [
      -122.774253,
      38.349916
     ],
     [
      -122.774,
      38.350614
     ],
     [
      -122.774194,
      38.351341
     ],
     [
      -122.7751,
      38.352814
     ],
     [
      -122.775373,
      38.353194
     ],
     [
      -122.7774,
      38.356014
     ],
     [
      -122.7781,
      38.357114
     ],
     [
      -122.77897,
      38.358258
     ],
     [
      -122.78181,
      38.362114
     ],
     [
      -122.782187,
      38.362624
     ],
     [
      -122.782633,
      38.363228
     ],
     [
      -122.782682,
      38.363294
     ],
     [
      -122.784155,
      38.365132
     ],
     [
      -122.785596,
      38.367
     ],
     [
      -122.786298,
      38.367839
     ],
     [
      -122.786742,
      38.368466
     ],
     [
      -122.787193,
      38.368915
     ],
     [
      -122.791001,
      38.371414
     ],
     [
      -122.795001,
      38.373614
     ],
     [
      -122.796768,
      38.374544
     ],
     [
      -122.79809,
      38.375929
     ],
     [
      -122.799835,
      38.377856
     ],
     [
      -122.800007,
      38.378031
     ],
     [
      -122.802204,
      38.380276
     ],
     [
      -122.802222,
      38.380445
     ],
     [
      -122.80339,
      38.380666
     ],
     [
      -122.803721,
      38.380731
     ],
     [
      -122.804227,
      38.380831
     ],
     [
      -122.804745,
      38.380928
     ],
     [
      -122.804988,
      38.380975
     ],
     [
      -122.805169,
      38.38101
     ],
     [
      -122.80563,
      38.381111
     ],
     [
      -122.8057,
      38.381126
     ],
     [
      -122.805851,
      38.381166
     ],
     [
      -122.806014,
      38.381208
     ],
     [
      -122.806272,
      38.381275
     ],
     [
      -122.80644,
      38.381336
     ],
     [
      -122.806661,
      38.381427
     ],
     [
      -122.806871,
      38.381532
     ],
     [
      -122.807047,
      38.38163
     ],
     [
      -122.807182,
      38.381706
     ],
     [
      -122.807329,
      38.381786
     ],
     [
      -122.80745,
      38.38185
     ],
     [
      -122.808187,
      38.382237
     ],
     [
      -122.808773,
      38.382545
     ],
     [
      -122.809233,
      38.382786
     ],
     [
      -122.810046,
      38.383238
     ],
     [
      -122.810542,
      38.383511
     ],
     [
      -122.810875,
      38.383695
     ],
     [
      -122.810989,
      38.383757
     ],
     [
      -122.8112,
      38.383862
     ],
     [
      -122.811543,
      38.384049
     ],
     [
      -122.811736,
      38.384155
     ],
     [
      -122.811893,
      38.384247
     ],
     [
      -122.812015,
      38.384327
     ],
     [
      -122.812154,
      38.384435
     ],
     [
      -122.812226,
      38.3845
     ],
     [
      -122.812284,
      38.384568
     ],
     [
      -122.812347,
      38.384647
     ],
     [
      -122.812406,
      38.38475
     ],
     [
      -122.812457,
      38.38484
     ],
     [
      -122.812519,
      38.384979
     ],
     [
      -122.812559,
      38.385095
     ],
     [
      -122.812584,
      38.385211
     ],
     [
      -122.812599,
      38.385298
     ],
     [
      -122.812616,
      38.385399
     ],
     [
      -122.812688,
      38.386021
     ],
     [
      -122.812705,
      38.386128
     ],
     [
      -122.812751,
      38.386305
     ],
     [
      -122.812809,
      38.386458
     ],
     [
      -122.812852,
      38.386558
     ],
     [
      -122.812881,
      38.386617
     ],
     [
      -122.812957,
      38.38674
     ],
     [
      -122.813046,
      38.386861
     ],
     [
      -122.813132,
      38.38696
     ],
     [
      -122.813613,
      38.38749
     ],
     [
      -122.814108,
      38.388035
     ],
     [
      -122.814185,
      38.388107
     ],
     [
      -122.814226,
      38.388146
     ],
     [
      -122.814323,
      38.388247
     ],
     [
      -122.814394,
      38.38832
     ],
     [
      -122.814494,
      38.388424
     ],
     [
      -122.814564,
      38.388496
     ],
     [
      -122.814654,
      38.38859
     ],
     [
      -122.814732,
      38.38867
     ],
     [
      -122.815021,
      38.388969
     ],
     [
      -122.815274,
      38.38923
     ],
     [
      -122.815375,
      38.389361
     ],
     [
      -122.81561,
      38.389642
     ],
     [
      -122.815748,
      38.389834
     ],
     [
      -122.815843,
      38.389962
     ],
     [
      -122.8159,
      38.39004
     ],
     [
      -122.816024,
      38.390193
     ],
     [
      -122.816227,
      38.390444
     ],
     [
      -122.816488,
      38.390771
     ],
     [
      -122.816565,
      38.390868
     ],
     [
      -122.816642,
      38.390964
     ],
     [
      -122.816703,
      38.39104
     ],
     [
      -122.816821,
      38.391189
     ],
     [
      -122.816848,
      38.391224
     ],
     [
      -122.816883,
      38.391268
     ],
     [
      -122.816934,
      38.391335
     ],
     [
      -122.817209,
      38.391686
     ],
     [
      -122.817331,
      38.391841
     ],
     [
      -122.817359,
      38.391877
     ],
     [
      -122.817425,
      38.39196
     ],
     [
      -122.817529,
      38.392091
     ],
     [
      -122.817562,
      38.392133
     ],
     [
      -122.817789,
      38.392412
     ],
     [
      -122.817936,
      38.392623
     ],
     [
      -122.818064,
      38.392846
     ],
     [
      -122.818097,
      38.392903
     ],
     [
      -122.818132,
      38.392962
     ],
     [
      -122.818183,
      38.393051
     ],
     [
      -122.818218,
      38.393112
     ],
     [
      -122.818262,
      38.393191
     ],
     [
      -122.818284,
      38.393229
     ],
     [
      -122.81834,
      38.393327
     ],
     [
      -122.818371,
      38.393377
     ],
     [
      -122.818451,
      38.393527
     ],
     [
      -122.818561,
      38.393737
     ],
     [
      -122.818705,
      38.394018
     ],
     [
      -122.818716,
      38.394038
     ],
     [
      -122.818749,
      38.394111
     ],
     [
      -122.818812,
      38.39424
     ],
     [
      -122.818857,
      38.394326
     ],
     [
      -122.818943,
      38.394499
     ],
     [
      -122.818987,
      38.394588
     ],
     [
      -122.819005,
      38.394623
     ],
     [
      -122.81904,
      38.394693
     ],
     [
      -122.819097,
      38.394803
     ],
     [
      -122.819227,
      38.395101
     ],
     [
      -122.819326,
      38.395286
     ],
     [
      -122.819483,
      38.395606
     ],
     [
      -122.819512,
      38.395667
     ],
     [
      -122.819557,
      38.395759
     ],
     [
      -122.819624,
      38.395901
     ],
     [
      -122.819679,
      38.39598
     ],
     [
      -122.819765,
      38.396113
     ],
     [
      -122.819928,
      38.396363
     ],
     [
      -122.819947,
      38.396394
     ],
     [
      -122.820008,
      38.396483
     ],
     [
      -122.820041,
      38.396534
     ],
     [
      -122.820312,
      38.396943
     ],
     [
      -122.820449,
      38.39715
     ],
     [
      -122.820871,
      38.397764
     ],
     [
      -122.821173,
      38.398223
     ],
     [
      -122.821233,
      38.398315
     ],
     [
      -122.821577,
      38.398949
     ],
     [
      -122.82168,
      38.399166
     ],
     [
      -122.821832,
      38.39957
     ],
     [
      -122.821851,
      38.399617
     ],
     [
      -122.822016,
      38.400081
     ],
     [
      -122.822144,
      38.400407
     ],
     [
      -122.822164,
      38.400456
     ],
     [
      -122.822239,
      38.400457
     ],
     [
      -122.822247,
      38.400479
     ]
    ]
   }
  },
  {
   "type": "Feature",
   "properties": {
    "company": "Petaluma and Santa Rosa Railroad",
    "line": "Petaluma and Santa Rosa: Sebastopol – Santa Rosa",
    "id": "psr-sebastopol-santa-rosa",
    "color": "#B5838D",
    "mode": "interurban",
    "avg_speed_kmh": 32,
    "speed_source": "ESTIMATE. Borden (1960) gives the 1927 maximum passenger speed as 30-35 mph; no published end-to-end running time was found (the Jan 1 1932 public timetable reproduced in both Western Railroader articles is an image whose OCR is unreadable). An average of about 20 mph (32 km/h) allowing for stops and street running in Petaluma and Sebastopol is assumed.",
    "geometry_quality": "Traced 6.77 mi against a documented 6.7 mi (Wikipedia: Sebastopol MP 16.7 to Santa Rosa MP 23.4; Borden's table gives Sebastopol 16.66). 3.6 mi follows the Joe Rodota Trail (with 0.2 mi of OSM way still named 'Petaluma and Santa Rosa Railroad') from the Sebastopol depot east to North Wright Road - this stretch is the P&SR's own grade, which it kept until the 1980s. At Wright Road the line is drawn turning south onto Sebastopol Road along the short trail spur there; that spur as the Leddy junction is INFERRED from the mileage (Leddy MP 20.2 is 3.5 mi from Sebastopol, and the trail reaches Wright Road at 3.5 mi). From Leddy to the Northwestern Pacific crossing the P&SR was 'street and side of the road running' along Sebastopol Avenue (Borden), so 2.6 mi is drawn on today's Sebastopol Road, then 0.6 mi on Sebastopol Avenue, Olive Street, Railroad Street and Wilson Street to the depot at Fourth and Wilson (Borden: 'Sebastopol Ave. to Olive St., Olive to Fourth St.'). LATER-ALIGNMENT TRAP AVOIDED: east of Wright Road the Joe Rodota Trail follows the Northwestern Pacific's Sebastopol branch, which the P&SR's freight trains only used from Oct 20 1947, after its own Sebastopol Avenue track was lifted in 1946-47; that is not drawn here. No straight-line legs.",
    "segments": [
     {
      "start": 1904,
      "end": 1905,
      "headway_min": 60,
      "note": "Regular service began Nov 29 / Dec 1 1904 from Petaluma via Sebastopol to the California Northwestern crossing on Sebastopol Avenue at the Santa Rosa city limits, where the steam road refused to let the electric line cross. From Jan 4 1905 a car hauled over the steam tracks by horses waited on the far side and passengers walked across the gap; on Mar 1 1905 the 'Battle of Sebastopol Avenue' was fought over the crossing, and shortly after midnight the first car ran into downtown Santa Rosa under its own power (Borden; Ellison & Sievers). The drawn line reaches the 4th & Wilson depot, a few hundred yards beyond the 1904 railhead. HEADWAY IS AN ESTIMATE: no 1904 frequency is published; 60 min is assumed.",
      "sources": [
       "Segment-level: dates in this note are from Borden, 'Petaluma & Santa Rosa Electric R.R.', The Western Railroader 23:4 (April 1960), and Ellison & Sievers, The Western Railroader 15:4 (Feb 1952); the headway is an ESTIMATE derived from Borden's daily round-trip counts, not read from a timetable.",
       "https://archive.org/details/sim_western-railroader-the-western-railfan_1960-04_23_4",
       "https://archive.org/details/sim_western-railroader-the-western-railfan_1952-02_15_4",
       "https://en.wikipedia.org/wiki/Petaluma_and_Santa_Rosa_Railroad"
      ]
     },
     {
      "start": 1905,
      "end": 1921,
      "headway_min": 55,
      "note": "Through service into downtown Santa Rosa from March 1905, the cars continuing along Fourth Street to McDonald Avenue (see the separate Fourth Street feature). In 1915 the cars made 19 daily round trips Sebastopol-Santa Rosa (Borden), the busiest part of the system; from 1919 an express trailer was handled on some trips. HEADWAY IS AN ESTIMATE: 55 min is the 1915 count over a ~17-hour day.",
      "sources": [
       "Segment-level: dates in this note are from Borden, 'Petaluma & Santa Rosa Electric R.R.', The Western Railroader 23:4 (April 1960), and Ellison & Sievers, The Western Railroader 15:4 (Feb 1952); the headway is an ESTIMATE derived from Borden's daily round-trip counts, not read from a timetable.",
       "https://archive.org/details/sim_western-railroader-the-western-railfan_1960-04_23_4",
       "https://archive.org/details/sim_western-railroader-the-western-railfan_1952-02_15_4",
       "https://en.wikipedia.org/wiki/Petaluma_and_Santa_Rosa_Railroad"
      ]
     },
     {
      "start": 1921,
      "end": 1932,
      "headway_min": 57,
      "note": "Paralleling county highway completed 1921. In 1927 the cars made 18 daily round trips Sebastopol-Santa Rosa, two of them handling an express trailer; a new Santa Rosa passenger and freight depot was built in 1927. Interurban cars stopped running east of the depot on Dec 31 1931, and all rail passenger service ended Jun 30 1932 (Borden; Ellison & Sievers and Wikipedia say Jul 1) under the new Northwestern Pacific ownership (stock acquired Feb 26 1932; the P&SR still ran its own trains). The Sebastopol Avenue track survived for freight until 1946-47 - not drawn (Rule 1). HEADWAY IS AN ESTIMATE: 57 min is the 1927 count over a ~17-hour day.",
      "sources": [
       "Segment-level: dates in this note are from Borden, 'Petaluma & Santa Rosa Electric R.R.', The Western Railroader 23:4 (April 1960), and Ellison & Sievers, The Western Railroader 15:4 (Feb 1952); the headway is an ESTIMATE derived from Borden's daily round-trip counts, not read from a timetable.",
       "https://archive.org/details/sim_western-railroader-the-western-railfan_1960-04_23_4",
       "https://archive.org/details/sim_western-railroader-the-western-railfan_1952-02_15_4",
       "https://en.wikipedia.org/wiki/Petaluma_and_Santa_Rosa_Railroad"
      ]
     }
    ]
   },
   "geometry": {
    "type": "LineString",
    "coordinates": [
     [
      -122.822247,
      38.400479
     ],
     [
      -122.822239,
      38.400457
     ],
     [
      -122.82217,
      38.400474
     ],
     [
      -122.822125,
      38.400484
     ],
     [
      -122.822101,
      38.40049
     ],
     [
      -122.822077,
      38.400432
     ],
     [
      -122.821595,
      38.400262
     ],
     [
      -122.821412,
      38.400221
     ],
     [
      -122.820965,
      38.400165
     ],
     [
      -122.820537,
      38.400112
     ],
     [
      -122.820363,
      38.400075
     ],
     [
      -122.82011,
      38.400022
     ],
     [
      -122.81991,
      38.399997
     ],
     [
      -122.819775,
      38.399996
     ],
     [
      -122.819674,
      38.399995
     ],
     [
      -122.819436,
      38.399972
     ],
     [
      -122.819266,
      38.399986
     ],
     [
      -122.818849,
      38.400068
     ],
     [
      -122.818512,
      38.400181
     ],
     [
      -122.818487,
      38.400189
     ],
     [
      -122.81816,
      38.400334
     ],
     [
      -122.818063,
      38.400377
     ],
     [
      -122.817042,
      38.400819
     ],
     [
      -122.816981,
      38.400847
     ],
     [
      -122.815973,
      38.401289
     ],
     [
      -122.815548,
      38.401474
     ],
     [
      -122.810232,
      38.403843
     ],
     [
      -122.810184,
      38.403863
     ],
     [
      -122.807724,
      38.404957
     ],
     [
      -122.800987,
      38.407927
     ],
     [
      -122.800616,
      38.408102
     ],
     [
      -122.799159,
      38.40887
     ],
     [
      -122.798486,
      38.409194
     ],
     [
      -122.796743,
      38.40989
     ],
     [
      -122.794471,
      38.410813
     ],
     [
      -122.79444,
      38.410826
     ],
     [
      -122.79436,
      38.41086
     ],
     [
      -122.794287,
      38.410898
     ],
     [
      -122.794184,
      38.410952
     ],
     [
      -122.793825,
      38.411172
     ],
     [
      -122.793607,
      38.411341
     ],
     [
      -122.793244,
      38.411711
     ],
     [
      -122.792717,
      38.412352
     ],
     [
      -122.792429,
      38.412646
     ],
     [
      -122.792082,
      38.412939
     ],
     [
      -122.791701,
      38.413202
     ],
     [
      -122.790895,
      38.413668
     ],
     [
      -122.781385,
      38.419173
     ],
     [
      -122.778742,
      38.420691
     ],
     [
      -122.777399,
      38.421463
     ],
     [
      -122.773773,
      38.423566
     ],
     [
      -122.77368,
      38.423619
     ],
     [
      -122.773408,
      38.423787
     ],
     [
      -122.773312,
      38.423845
     ],
     [
      -122.773244,
      38.423882
     ],
     [
      -122.773162,
      38.423922
     ],
     [
      -122.773034,
      38.423987
     ],
     [
      -122.772937,
      38.42403
     ],
     [
      -122.772829,
      38.424069
     ],
     [
      -122.772726,
      38.424106
     ],
     [
      -122.77254,
      38.424162
     ],
     [
      -122.772365,
      38.424214
     ],
     [
      -122.772325,
      38.424225
     ],
     [
      -122.772279,
      38.424237
     ],
     [
      -122.772139,
      38.424277
     ],
     [
      -122.771988,
      38.424317
     ],
     [
      -122.771846,
      38.424349
     ],
     [
      -122.771651,
      38.424393
     ],
     [
      -122.771611,
      38.424409
     ],
     [
      -122.771579,
      38.42444
     ],
     [
      -122.771565,
      38.424461
     ],
     [
      -122.771556,
      38.424478
     ],
     [
      -122.771552,
      38.424496
     ],
     [
      -122.771553,
      38.424535
     ],
     [
      -122.771557,
      38.42459
     ],
     [
      -122.771525,
      38.424592
     ],
     [
      -122.771385,
      38.42483
     ],
     [
      -122.771293,
      38.424963
     ],
     [
      -122.771167,
      38.425139
     ],
     [
      -122.771094,
      38.425229
     ],
     [
      -122.771012,
      38.425322
     ],
     [
      -122.770941,
      38.425393
     ],
     [
      -122.770871,
      38.425455
     ],
     [
      -122.770803,
      38.425505
     ],
     [
      -122.77065,
      38.425599
     ],
     [
      -122.770544,
      38.425657
     ],
     [
      -122.769702,
      38.426094
     ],
     [
      -122.768916,
      38.426501
     ],
     [
      -122.76885,
      38.425971
     ],
     [
      -122.7688,
      38.42556
     ],
     [
      -122.768794,
      38.425492
     ],
     [
      -122.76879,
      38.425447
     ],
     [
      -122.768775,
      38.424948
     ],
     [
      -122.768766,
      38.424831
     ],
     [
      -122.768762,
      38.424769
     ],
     [
      -122.768762,
      38.424769
     ],
     [
      -122.768713,
      38.424766
     ],
     [
      -122.767663,
      38.424846
     ],
     [
      -122.766827,
      38.42491
     ],
     [
      -122.766667,
      38.424964
     ],
     [
      -122.766109,
      38.425007
     ],
     [
      -122.765859,
      38.425026
     ],
     [
      -122.765756,
      38.425034
     ],
     [
      -122.765576,
      38.425087
     ],
     [
      -122.764621,
      38.425165
     ],
     [
      -122.763594,
      38.425257
     ],
     [
      -122.763511,
      38.425264
     ],
     [
      -122.76258,
      38.42534
     ],
     [
      -122.762486,
      38.425348
     ],
     [
      -122.762377,
      38.425357
     ],
     [
      -122.761463,
      38.425422
     ],
     [
      -122.75984,
      38.425545
     ],
     [
      -122.759772,
      38.425533
     ],
     [
      -122.759683,
      38.425517
     ],
     [
      -122.759344,
      38.425541
     ],
     [
      -122.757701,
      38.425649
     ],
     [
      -122.757586,
      38.425657
     ],
     [
      -122.756876,
      38.425702
     ],
     [
      -122.756115,
      38.425757
     ],
     [
      -122.755925,
      38.425769
     ],
     [
      -122.755076,
      38.42583
     ],
     [
      -122.754956,
      38.425839
     ],
     [
      -122.754887,
      38.425843
     ],
     [
      -122.754637,
      38.425861
     ],
     [
      -122.754438,
      38.425875
     ],
     [
      -122.753977,
      38.425907
     ],
     [
      -122.753377,
      38.425948
     ],
     [
      -122.753217,
      38.42596
     ],
     [
      -122.752854,
      38.425986
     ],
     [
      -122.75246,
      38.426014
     ],
     [
      -122.752155,
      38.426038
     ],
     [
      -122.751914,
      38.426056
     ],
     [
      -122.751351,
      38.426089
     ],
     [
      -122.751249,
      38.426095
     ],
     [
      -122.751076,
      38.426105
     ],
     [
      -122.75095,
      38.426115
     ],
     [
      -122.750777,
      38.426129
     ],
     [
      -122.750408,
      38.426158
     ],
     [
      -122.750268,
      38.426169
     ],
     [
      -122.749211,
      38.426251
     ],
     [
      -122.749086,
      38.426262
     ],
     [
      -122.748511,
      38.42631
     ],
     [
      -122.7484,
      38.426319
     ],
     [
      -122.748069,
      38.42634
     ],
     [
      -122.74795,
      38.426347
     ],
     [
      -122.74749,
      38.426377
     ],
     [
      -122.747295,
      38.426395
     ],
     [
      -122.746724,
      38.426448
     ],
     [
      -122.74668,
      38.426453
     ],
     [
      -122.746584,
      38.426461
     ],
     [
      -122.746414,
      38.426475
     ],
     [
      -122.746258,
      38.426488
     ],
     [
      -122.745692,
      38.426535
     ],
     [
      -122.745545,
      38.426548
     ],
     [
      -122.745202,
      38.426583
     ],
     [
      -122.744929,
      38.426611
     ],
     [
      -122.744796,
      38.426624
     ],
     [
      -122.744662,
      38.426636
     ],
     [
      -122.744431,
      38.426657
     ],
     [
      -122.74397,
      38.426693
     ],
     [
      -122.743654,
      38.426715
     ],
     [
      -122.743082,
      38.426754
     ],
     [
      -122.742589,
      38.42679
     ],
     [
      -122.74226,
      38.426814
     ],
     [
      -122.742151,
      38.426822
     ],
     [
      -122.742058,
      38.426828
     ],
     [
      -122.741839,
      38.42684
     ],
     [
      -122.741545,
      38.426855
     ],
     [
      -122.741512,
      38.426857
     ],
     [
      -122.741392,
      38.426863
     ],
     [
      -122.741265,
      38.426875
     ],
     [
      -122.741183,
      38.426882
     ],
     [
      -122.741134,
      38.426888
     ],
     [
      -122.740958,
      38.426924
     ],
     [
      -122.740856,
      38.426945
     ],
     [
      -122.74077,
      38.42696
     ],
     [
      -122.740642,
      38.426982
     ],
     [
      -122.740521,
      38.42701
     ],
     [
      -122.74041,
      38.42704
     ],
     [
      -122.740231,
      38.427077
     ],
     [
      -122.740012,
      38.427094
     ],
     [
      -122.739937,
      38.427108
     ],
     [
      -122.739863,
      38.427126
     ],
     [
      -122.739683,
      38.427177
     ],
     [
      -122.73958,
      38.427213
     ],
     [
      -122.739423,
      38.427256
     ],
     [
      -122.739251,
      38.427302
     ],
     [
      -122.739012,
      38.427363
     ],
     [
      -122.738672,
      38.427441
     ],
     [
      -122.738599,
      38.427459
     ],
     [
      -122.738379,
      38.427512
     ],
     [
      -122.738112,
      38.427576
     ],
     [
      -122.738089,
      38.427581
     ],
     [
      -122.737876,
      38.427632
     ],
     [
      -122.737717,
      38.427672
     ],
     [
      -122.737443,
      38.427742
     ],
     [
      -122.737302,
      38.427777
     ],
     [
      -122.73668,
      38.427935
     ],
     [
      -122.736606,
      38.427953
     ],
     [
      -122.73628,
      38.428032
     ],
     [
      -122.736214,
      38.428048
     ],
     [
      -122.735913,
      38.428122
     ],
     [
      -122.735497,
      38.428224
     ],
     [
      -122.735385,
      38.428252
     ],
     [
      -122.735346,
      38.428261
     ],
     [
      -122.735314,
      38.428269
     ],
     [
      -122.735149,
      38.428307
     ],
     [
      -122.734965,
      38.42835
     ],
     [
      -122.73481,
      38.428384
     ],
     [
      -122.734704,
      38.428407
     ],
     [
      -122.734572,
      38.428433
     ],
     [
      -122.734245,
      38.428504
     ],
     [
      -122.7341,
      38.428536
     ],
     [
      -122.733955,
      38.428567
     ],
     [
      -122.733687,
      38.428632
     ],
     [
      -122.733575,
      38.428657
     ],
     [
      -122.733217,
      38.428742
     ],
     [
      -122.732875,
      38.428842
     ],
     [
      -122.732739,
      38.428874
     ],
     [
      -122.73253,
      38.428922
     ],
     [
      -122.732373,
      38.428957
     ],
     [
      -122.732296,
      38.428976
     ],
     [
      -122.731935,
      38.429063
     ],
     [
      -122.731801,
      38.429095
     ],
     [
      -122.731589,
      38.429147
     ],
     [
      -122.73139,
      38.429194
     ],
     [
      -122.731283,
      38.429219
     ],
     [
      -122.731168,
      38.429246
     ],
     [
      -122.731057,
      38.429273
     ],
     [
      -122.730704,
      38.429352
     ],
     [
      -122.730644,
      38.429365
     ],
     [
      -122.730435,
      38.429413
     ],
     [
      -122.730252,
      38.429456
     ],
     [
      -122.729987,
      38.429521
     ],
     [
      -122.729864,
      38.429551
     ],
     [
      -122.729813,
      38.429563
     ],
     [
      -122.729737,
      38.429582
     ],
     [
      -122.729621,
      38.42961
     ],
     [
      -122.729499,
      38.429643
     ],
     [
      -122.729315,
      38.429693
     ],
     [
      -122.729262,
      38.429706
     ],
     [
      -122.729109,
      38.429746
     ],
     [
      -122.728942,
      38.42978
     ],
     [
      -122.728822,
      38.429801
     ],
     [
      -122.728493,
      38.429878
     ],
     [
      -122.727997,
      38.429994
     ],
     [
      -122.727748,
      38.430048
     ],
     [
      -122.727478,
      38.430107
     ],
     [
      -122.727316,
      38.430142
     ],
     [
      -122.727139,
      38.430175
     ],
     [
      -122.726959,
      38.430216
     ],
     [
      -122.72691,
      38.430225
     ],
     [
      -122.726702,
      38.430269
     ],
     [
      -122.726497,
      38.430347
     ],
     [
      -122.72628,
      38.430399
     ],
     [
      -122.726221,
      38.430411
     ],
     [
      -122.725844,
      38.430501
     ],
     [
      -122.725611,
      38.430556
     ],
     [
      -122.725474,
      38.430589
     ],
     [
      -122.725301,
      38.430595
     ],
     [
      -122.725187,
      38.430621
     ],
     [
      -122.725082,
      38.430648
     ],
     [
      -122.724909,
      38.430692
     ],
     [
      -122.724759,
      38.430756
     ],
     [
      -122.724653,
      38.430784
     ],
     [
      -122.724589,
      38.4308
     ],
     [
      -122.724524,
      38.430816
     ],
     [
      -122.724463,
      38.430831
     ],
     [
      -122.724167,
      38.430899
     ],
     [
      -122.724039,
      38.430929
     ],
     [
      -122.723569,
      38.431041
     ],
     [
      -122.723353,
      38.431091
     ],
     [
      -122.723106,
      38.431148
     ],
     [
      -122.722856,
      38.431208
     ],
     [
      -122.722709,
      38.431237
     ],
     [
      -122.722549,
      38.431268
     ],
     [
      -122.722419,
      38.4313
     ],
     [
      -122.722042,
      38.431385
     ],
     [
      -122.721575,
      38.431494
     ],
     [
      -122.721421,
      38.43153
     ],
     [
      -122.721317,
      38.431555
     ],
     [
      -122.721009,
      38.431626
     ],
     [
      -122.72085,
      38.431663
     ],
     [
      -122.720787,
      38.431678
     ],
     [
      -122.720337,
      38.431781
     ],
     [
      -122.719699,
      38.431939
     ],
     [
      -122.719449,
      38.431997
     ],
     [
      -122.719123,
      38.432077
     ],
     [
      -122.719064,
      38.432091
     ],
     [
      -122.719027,
      38.432183
     ],
     [
      -122.718898,
      38.432797
     ],
     [
      -122.718887,
      38.432948
     ],
     [
      -122.718932,
      38.433131
     ],
     [
      -122.71924,
      38.434005
     ],
     [
      -122.719255,
      38.434048
     ],
     [
      -122.719281,
      38.434116
     ],
     [
      -122.719303,
      38.434168
     ],
     [
      -122.719391,
      38.434377
     ],
     [
      -122.71946,
      38.434518
     ],
     [
      -122.719525,
      38.434597
     ],
     [
      -122.719802,
      38.434958
     ],
     [
      -122.719865,
      38.435037
     ],
     [
      -122.71991,
      38.435099
     ],
     [
      -122.720004,
      38.435229
     ],
     [
      -122.720048,
      38.435304
     ],
     [
      -122.720082,
      38.435381
     ],
     [
      -122.720105,
      38.435459
     ],
     [
      -122.720117,
      38.435538
     ],
     [
      -122.72012,
      38.435623
     ],
     [
      -122.720112,
      38.435708
     ],
     [
      -122.7201,
      38.435761
     ],
     [
      -122.720064,
      38.435877
     ],
     [
      -122.719977,
      38.436081
     ],
     [
      -122.719965,
      38.436204
     ],
     [
      -122.719973,
      38.436338
     ],
     [
      -122.72002,
      38.436457
     ],
     [
      -122.720112,
      38.4366
     ],
     [
      -122.720184,
      38.436699
     ],
     [
      -122.720675,
      38.437359
     ],
     [
      -122.720731,
      38.437436
     ]
    ]
   }
  },
  {
   "type": "Feature",
   "properties": {
    "company": "Petaluma and Santa Rosa Railroad",
    "line": "Petaluma and Santa Rosa: Fourth Street (Santa Rosa)",
    "id": "psr-santa-rosa-fourth-street",
    "color": "#B5838D",
    "mode": "interurban",
    "avg_speed_kmh": 15,
    "speed_source": "ESTIMATE. Street running through downtown Santa Rosa past Courthouse Square; no running time was found. 15 km/h is assumed for a one-mile city-street run.",
    "geometry_quality": "Traced 1.05 mi against a documented 'slightly over a mile on Fourth to the terminus at McDonald Ave.' (Borden). Geometry is OpenHistoricalMap way 198305780 ('Fourth Street', CC0, geometry only - its 1854 start date is a placeholder and is not used), an 8-vertex line drawn straight down Fourth Street, which is itself straight. Today's Fourth Street is cut by US 101 and the Santa Rosa Plaza mall, so the drawn line crosses both; that is the historical street, not an error. No straight-line legs beyond the street's own straightness.",
    "segments": [
     {
      "start": 1905,
      "end": 1931,
      "headway_min": 55,
      "note": "The P&SR laid its line 'for slightly over a mile on Fourth to the terminus at McDonald Ave.' in 1905 (Borden), on the street where the Santa Rosa Street Railway had run horsecars since 1878 - the P&SR bought the horsecar companies for their franchises and electrified only Fourth Street; the horsecar era is not drawn (Rule 5). Interurban cars from Sebastopol ran through to the terminus. Operation between the depot at Olive Street and McDonald Avenue ended Dec 31 1931 and the rails were gone by May 31 1932 (Borden; Wikipedia: dismantled 1931). HEADWAY IS AN ESTIMATE: 55 min assumes the Sebastopol-Santa Rosa cars (19 round trips in 1915, 18 in 1927) all ran through to McDonald Avenue, which is not confirmed.",
      "sources": [
       "Segment-level: dates in this note are from Borden, 'Petaluma & Santa Rosa Electric R.R.', The Western Railroader 23:4 (April 1960), and Ellison & Sievers, The Western Railroader 15:4 (Feb 1952); the headway is an ESTIMATE derived from Borden's daily round-trip counts, not read from a timetable.",
       "https://archive.org/details/sim_western-railroader-the-western-railfan_1960-04_23_4",
       "https://archive.org/details/sim_western-railroader-the-western-railfan_1952-02_15_4",
       "https://en.wikipedia.org/wiki/Petaluma_and_Santa_Rosa_Railroad"
      ]
     }
    ]
   },
   "geometry": {
    "type": "LineString",
    "coordinates": [
     [
      -122.720731,
      38.437436
     ],
     [
      -122.718475,
      38.438455
     ],
     [
      -122.715679,
      38.439715
     ],
     [
      -122.710774,
      38.441936
     ],
     [
      -122.70608,
      38.444094
     ],
     [
      -122.705004,
      38.444782
     ],
     [
      -122.704648,
      38.44501
     ],
     [
      -122.704274,
      38.44529
     ]
    ]
   }
  },
  {
   "type": "Feature",
   "properties": {
    "company": "Petaluma and Santa Rosa Railroad",
    "line": "Petaluma and Santa Rosa: Sebastopol – Forestville",
    "id": "psr-sebastopol-forestville",
    "color": "#B5838D",
    "mode": "interurban",
    "avg_speed_kmh": 32,
    "speed_source": "ESTIMATE. Borden (1960) gives the 1927 maximum passenger speed as 30-35 mph; no published end-to-end running time was found (the Jan 1 1932 public timetable reproduced in both Western Railroader articles is an image whose OCR is unreadable). An average of about 20 mph (32 km/h) allowing for stops and street running in Petaluma and Sebastopol is assumed.",
    "geometry_quality": "Traced 7.42 mi against a documented 7.1 mi (Sebastopol MP 16.7 to Forestville MP 23.8; Ellison & Sievers say 7 miles). 6.9 mi follows the West County Trail and OSM ways still named 'Petaluma and Santa Rosa Railroad' along the abandoned grade from the north edge of Sebastopol through Graton to Forestville. APPROXIMATED ON STREETS: 0.5 mi from the Sebastopol depot north along South and North Main Street to where the trail begins at Analysis Avenue - the P&SR ran in the streets of Sebastopol, but this exact routing is inferred. Connectors 0.04 mi. No straight-line legs.",
    "segments": [
     {
      "start": 1905,
      "end": 1921,
      "headway_min": 65,
      "note": "Built north from Sebastopol: service reached Green Valley (later Graton) on Jan 26 1905 and the first car reached Forestville on Jul 15 1905 (Borden; Ellison & Sievers). The 1905 Graton-only months are inside this segment; the drawn line runs to Forestville from the start. In 1915 the cars made 16 daily round trips Sebastopol-Forestville (Borden). HEADWAY IS AN ESTIMATE: 65 min is the 1915 count over a ~17-hour day.",
      "sources": [
       "Segment-level: dates in this note are from Borden, 'Petaluma & Santa Rosa Electric R.R.', The Western Railroader 23:4 (April 1960), and Ellison & Sievers, The Western Railroader 15:4 (Feb 1952); the headway is an ESTIMATE derived from Borden's daily round-trip counts, not read from a timetable.",
       "https://archive.org/details/sim_western-railroader-the-western-railfan_1960-04_23_4",
       "https://archive.org/details/sim_western-railroader-the-western-railfan_1952-02_15_4",
       "https://en.wikipedia.org/wiki/Petaluma_and_Santa_Rosa_Railroad"
      ]
     },
     {
      "start": 1921,
      "end": 1932,
      "headway_min": 70,
      "note": "In 1927 the cars made 15 daily round trips Sebastopol-Forestville; two cars were converted to one-man operation for this run in 1929 (Borden). All rail passenger service ended Jun 30 1932 (Borden; others give Jul 1). The line carried fruit freight for decades afterwards, cut back to Ross in 1961 and to the Sebastopol Apple Growers' Union plant in 1969 - not drawn (Rule 1). HEADWAY IS AN ESTIMATE: 70 min is the 1927 count over a ~17-hour day.",
      "sources": [
       "Segment-level: dates in this note are from Borden, 'Petaluma & Santa Rosa Electric R.R.', The Western Railroader 23:4 (April 1960), and Ellison & Sievers, The Western Railroader 15:4 (Feb 1952); the headway is an ESTIMATE derived from Borden's daily round-trip counts, not read from a timetable.",
       "https://archive.org/details/sim_western-railroader-the-western-railfan_1960-04_23_4",
       "https://archive.org/details/sim_western-railroader-the-western-railfan_1952-02_15_4",
       "https://en.wikipedia.org/wiki/Petaluma_and_Santa_Rosa_Railroad"
      ]
     }
    ]
   },
   "geometry": {
    "type": "LineString",
    "coordinates": [
     [
      -122.822247,
      38.400479
     ],
     [
      -122.822506,
      38.40045
     ],
     [
      -122.823181,
      38.400263
     ],
     [
      -122.823225,
      38.400343
     ],
     [
      -122.823307,
      38.400495
     ],
     [
      -122.823336,
      38.400548
     ],
     [
      -122.823414,
      38.400696
     ],
     [
      -122.823457,
      38.400775
     ],
     [
      -122.823479,
      38.400815
     ],
     [
      -122.823558,
      38.400959
     ],
     [
      -122.823652,
      38.401135
     ],
     [
      -122.823739,
      38.401298
     ],
     [
      -122.823799,
      38.40141
     ],
     [
      -122.82383,
      38.401463
     ],
     [
      -122.823867,
      38.401531
     ],
     [
      -122.824169,
      38.402042
     ],
     [
      -122.824212,
      38.402108
     ],
     [
      -122.824257,
      38.402178
     ],
     [
      -122.824342,
      38.402315
     ],
     [
      -122.824806,
      38.403069
     ],
     [
      -122.824848,
      38.403133
     ],
     [
      -122.824982,
      38.403357
     ],
     [
      -122.825039,
      38.403451
     ],
     [
      -122.825191,
      38.403682
     ],
     [
      -122.825256,
      38.403781
     ],
     [
      -122.825311,
      38.403863
     ],
     [
      -122.825392,
      38.403986
     ],
     [
      -122.825477,
      38.404123
     ],
     [
      -122.825556,
      38.404241
     ],
     [
      -122.825596,
      38.404302
     ],
     [
      -122.825766,
      38.404574
     ],
     [
      -122.825953,
      38.404869
     ],
     [
      -122.826027,
      38.404983
     ],
     [
      -122.826092,
      38.405066
     ],
     [
      -122.826139,
      38.40511
     ],
     [
      -122.826212,
      38.405165
     ],
     [
      -122.826282,
      38.405207
     ],
     [
      -122.826334,
      38.405233
     ],
     [
      -122.82632,
      38.40532
     ],
     [
      -122.826314,
      38.405371
     ],
     [
      -122.826328,
      38.405435
     ],
     [
      -122.826368,
      38.405516
     ],
     [
      -122.826946,
      38.406439
     ],
     [
      -122.82704,
      38.406613
     ],
     [
      -122.82708,
      38.406687
     ],
     [
      -122.827263,
      38.406757
     ],
     [
      -122.828036,
      38.407051
     ],
     [
      -122.828499,
      38.407125
     ],
     [
      -122.829033,
      38.407137
     ],
     [
      -122.829208,
      38.407122
     ],
     [
      -122.830082,
      38.407012
     ],
     [
      -122.831649,
      38.406802
     ],
     [
      -122.832703,
      38.406824
     ],
     [
      -122.833014,
      38.406957
     ],
     [
      -122.833512,
      38.407206
     ],
     [
      -122.833769,
      38.407401
     ],
     [
      -122.834147,
      38.407753
     ],
     [
      -122.834751,
      38.408725
     ],
     [
      -122.835563,
      38.41001
     ],
     [
      -122.836244,
      38.411093
     ],
     [
      -122.83646,
      38.411429
     ],
     [
      -122.836596,
      38.411584
     ],
     [
      -122.836748,
      38.411732
     ],
     [
      -122.836903,
      38.411858
     ],
     [
      -122.837074,
      38.411981
     ],
     [
      -122.837283,
      38.412099
     ],
     [
      -122.837496,
      38.412208
     ],
     [
      -122.837728,
      38.412284
     ],
     [
      -122.837975,
      38.412353
     ],
     [
      -122.838279,
      38.412404
     ],
     [
      -122.838552,
      38.412444
     ],
     [
      -122.838582,
      38.412448
     ],
     [
      -122.838629,
      38.412454
     ],
     [
      -122.840969,
      38.412757
     ],
     [
      -122.841254,
      38.412795
     ],
     [
      -122.841893,
      38.412886
     ],
     [
      -122.841933,
      38.412892
     ],
     [
      -122.842001,
      38.412902
     ],
     [
      -122.842335,
      38.412949
     ],
     [
      -122.842378,
      38.412959
     ],
     [
      -122.842756,
      38.413044
     ],
     [
      -122.843621,
      38.413293
     ],
     [
      -122.844139,
      38.413718
     ],
     [
      -122.845014,
      38.414616
     ],
     [
      -122.845544,
      38.415398
     ],
     [
      -122.845803,
      38.416238
     ],
     [
      -122.845926,
      38.41702
     ],
     [
      -122.846098,
      38.419454
     ],
     [
      -122.846234,
      38.421259
     ],
     [
      -122.846271,
      38.422302
     ],
     [
      -122.84637,
      38.422823
     ],
     [
      -122.846579,
      38.423287
     ],
     [
      -122.846924,
      38.423615
     ],
     [
      -122.84759,
      38.42404
     ],
     [
      -122.848144,
      38.424214
     ],
     [
      -122.84865,
      38.424233
     ],
     [
      -122.853912,
      38.424088
     ],
     [
      -122.854578,
      38.424175
     ],
     [
      -122.855773,
      38.424388
     ],
     [
      -122.856525,
      38.424417
     ],
     [
      -122.858435,
      38.424339
     ],
     [
      -122.859618,
      38.424194
     ],
     [
      -122.860863,
      38.423828
     ],
     [
      -122.861935,
      38.42349
     ],
     [
      -122.862564,
      38.423335
     ],
     [
      -122.863143,
      38.423297
     ],
     [
      -122.863587,
      38.423335
     ],
     [
      -122.863955,
      38.423461
     ],
     [
      -122.864064,
      38.423502
     ],
     [
      -122.864516,
      38.42367
     ],
     [
      -122.864709,
      38.423764
     ],
     [
      -122.864997,
      38.423937
     ],
     [
      -122.865144,
      38.424046
     ],
     [
      -122.865358,
      38.42424
     ],
     [
      -122.865698,
      38.424641
     ],
     [
      -122.866826,
      38.426215
     ],
     [
      -122.867157,
      38.426706
     ],
     [
      -122.867291,
      38.426952
     ],
     [
      -122.867484,
      38.427371
     ],
     [
      -122.869125,
      38.431229
     ],
     [
      -122.869269,
      38.431567
     ],
     [
      -122.869336,
      38.43173
     ],
     [
      -122.869612,
      38.432397
     ],
     [
      -122.869709,
      38.432774
     ],
     [
      -122.869983,
      38.434718
     ],
     [
      -122.870134,
      38.436269
     ],
     [
      -122.870149,
      38.436365
     ],
     [
      -122.870162,
      38.436447
     ],
     [
      -122.870162,
      38.436627
     ],
     [
      -122.870203,
      38.436808
     ],
     [
      -122.870335,
      38.437413
     ],
     [
      -122.87033,
      38.437469
     ],
     [
      -122.870377,
      38.437787
     ],
     [
      -122.870377,
      38.437922
     ],
     [
      -122.870549,
      38.439095
     ],
     [
      -122.870591,
      38.439384
     ],
     [
      -122.870592,
      38.439582
     ],
     [
      -122.870629,
      38.439767
     ],
     [
      -122.870634,
      38.439964
     ],
     [
      -122.870677,
      38.440219
     ],
     [
      -122.870678,
      38.440354
     ],
     [
      -122.87072,
      38.440572
     ],
     [
      -122.870721,
      38.440707
     ],
     [
      -122.87076,
      38.440891
     ],
     [
      -122.870768,
      38.441133
     ],
     [
      -122.870805,
      38.441317
     ],
     [
      -122.870807,
      38.441488
     ],
     [
      -122.870849,
      38.441726
     ],
     [
      -122.870856,
      38.441923
     ],
     [
      -122.87089,
      38.442071
     ],
     [
      -122.870895,
      38.442214
     ],
     [
      -122.870964,
      38.442515
     ],
     [
      -122.871093,
      38.442909
     ],
     [
      -122.871286,
      38.443285
     ],
     [
      -122.871456,
      38.443554
     ],
     [
      -122.872342,
      38.444707
     ],
     [
      -122.872423,
      38.444841
     ],
     [
      -122.872511,
      38.444942
     ],
     [
      -122.874588,
      38.447508
     ],
     [
      -122.875039,
      38.448121
     ],
     [
      -122.875264,
      38.448315
     ],
     [
      -122.875876,
      38.448659
     ],
     [
      -122.876809,
      38.44907
     ],
     [
      -122.877177,
      38.44931
     ],
     [
      -122.87755,
      38.449516
     ],
     [
      -122.878084,
      38.449853
     ],
     [
      -122.878589,
      38.450302
     ],
     [
      -122.879412,
      38.451136
     ],
     [
      -122.880605,
      38.452321
     ],
     [
      -122.882131,
      38.453835
     ],
     [
      -122.882999,
      38.454697
     ],
     [
      -122.883573,
      38.455242
     ],
     [
      -122.885262,
      38.456905
     ],
     [
      -122.885529,
      38.457247
     ],
     [
      -122.885731,
      38.457644
     ],
     [
      -122.885842,
      38.4581
     ],
     [
      -122.885852,
      38.458774
     ],
     [
      -122.885611,
      38.459303
     ],
     [
      -122.885276,
      38.460026
     ],
     [
      -122.885062,
      38.460392
     ],
     [
      -122.884833,
      38.460842
     ],
     [
      -122.88465,
      38.461309
     ],
     [
      -122.884619,
      38.461765
     ],
     [
      -122.884694,
      38.462206
     ],
     [
      -122.884866,
      38.462687
     ],
     [
      -122.885214,
      38.463301
     ],
     [
      -122.885478,
      38.463738
     ],
     [
      -122.885585,
      38.463904
     ],
     [
      -122.885778,
      38.464267
     ],
     [
      -122.88607,
      38.464734
     ],
     [
      -122.886313,
      38.46516
     ],
     [
      -122.886756,
      38.465626
     ],
     [
      -122.887351,
      38.466053
     ],
     [
      -122.888205,
      38.466778
     ],
     [
      -122.888831,
      38.467281
     ],
     [
      -122.889209,
      38.467579
     ],
     [
      -122.889483,
      38.467979
     ],
     [
      -122.889522,
      38.468032
     ],
     [
      -122.890418,
      38.469082
     ],
     [
      -122.891005,
      38.469712
     ],
     [
      -122.891127,
      38.469867
     ],
     [
      -122.891812,
      38.470608
     ],
     [
      -122.892135,
      38.470971
     ],
     [
      -122.89235,
      38.47125
     ],
     [
      -122.892436,
      38.471212
     ],
     [
      -122.892994,
      38.471452
     ],
     [
      -122.89328,
      38.47158
     ],
     [
      -122.893323,
      38.471606
     ],
     [
      -122.893359,
      38.471648
     ],
     [
      -122.893406,
      38.471755
     ],
     [
      -122.893509,
      38.471991
     ],
     [
      -122.89355,
      38.472104
     ],
     [
      -122.893563,
      38.47221
     ],
     [
      -122.893556,
      38.472307
     ],
     [
      -122.893539,
      38.472449
     ],
     [
      -122.893541,
      38.472583
     ],
     [
      -122.893565,
      38.472718
     ],
     [
      -122.893602,
      38.473109
     ],
     [
      -122.893707,
      38.473244
     ],
     [
      -122.89372,
      38.473309
     ],
     [
      -122.893722,
      38.473482
     ],
     [
      -122.893721,
      38.473621
     ]
    ]
   }
  },
  {
   "type": "Feature",
   "properties": {
    "company": "Petaluma and Santa Rosa Railroad",
    "line": "Petaluma and Santa Rosa: Two Rock Branch",
    "id": "psr-two-rock-branch",
    "color": "#B5838D",
    "mode": "interurban",
    "avg_speed_kmh": 32,
    "speed_source": "ESTIMATE. Borden (1960) gives the 1927 maximum passenger speed as 30-35 mph; no published end-to-end running time was found (the Jan 1 1932 public timetable reproduced in both Western Railroader articles is an image whose OCR is unreadable). An average of about 20 mph (32 km/h) allowing for stops and street running in Petaluma and Sebastopol is assumed.",
    "geometry_quality": "Traced 5.33 mi against a documented 5.77 mi (Borden) / 5.3 mi (Wikipedia: Liberty MP 5.1 to Two Rock MP 10.4). 4.1 mi follows the OSM way named 'Petaluma and Santa Rosa Railroad' (TIGER-derived abandoned grade) from east of Cherry to Two Rock. STRAIGHT-LINE LEG: the first 1.2 mi, from the main line at Liberty (MP 5.1, located on the traced main line) due west to the start of the mapped grade, is a ruled line - OSM has nothing there.",
    "segments": [
     {
      "start": 1913,
      "end": 1925,
      "headway_min": 180,
      "note": "The 5.77-mile branch from Liberty to Two Rock opened Jul 28 1913, at a cost of $91,741.96 (Borden; Ellison & Sievers). The 1921 county highway hit it hardest; passenger revenue fell from $400 to $27 a month and passenger service ended in September 1925 - Sep 20 per Borden, Sep 30 per Ellison & Sievers and Wikipedia. Freight continued to 1952 and is not drawn (Rule 1). HEADWAY IS AN ESTIMATE: no branch frequency is published anywhere found; 180 min is a guess for a lightly used rural branch.",
      "sources": [
       "Segment-level: dates in this note are from Borden, 'Petaluma & Santa Rosa Electric R.R.', The Western Railroader 23:4 (April 1960), and Ellison & Sievers, The Western Railroader 15:4 (Feb 1952); the headway is an ESTIMATE derived from Borden's daily round-trip counts, not read from a timetable.",
       "https://archive.org/details/sim_western-railroader-the-western-railfan_1960-04_23_4",
       "https://archive.org/details/sim_western-railroader-the-western-railfan_1952-02_15_4",
       "https://en.wikipedia.org/wiki/Petaluma_and_Santa_Rosa_Railroad"
      ]
     }
    ]
   },
   "geometry": {
    "type": "LineString",
    "coordinates": [
     [
      -122.698755,
      38.283144
     ],
     [
      -122.720924,
      38.284348
     ],
     [
      -122.727446,
      38.28505
     ],
     [
      -122.734259,
      38.285841
     ],
     [
      -122.738178,
      38.286301
     ],
     [
      -122.740309,
      38.286441
     ],
     [
      -122.741886,
      38.286352
     ],
     [
      -122.744943,
      38.285944
     ],
     [
      -122.746651,
      38.285663
     ],
     [
      -122.748407,
      38.285446
     ],
     [
      -122.750082,
      38.285024
     ],
     [
      -122.751562,
      38.284463
     ],
     [
      -122.754456,
      38.282867
     ],
     [
      -122.76475,
      38.277238
     ],
     [
      -122.766376,
      38.276497
     ],
     [
      -122.779435,
      38.271569
     ],
     [
      -122.790607,
      38.267382
     ]
    ]
   }
  }
 ]
}