{
 "type": "FeatureCollection",
 "metadata": {
  "note": "Passenger rail to Adams, Massachusetts, in three eras. The Pittsfield and North Adams Railroad was incorporated March 3 1842 to carry the Housatonic Railroad north toward Vermont and opened December 1 1846, 18.539 miles from North Adams Junction in Pittsfield up the Hoosic valley to North Adams, with stops at Coltsville, Berkshire, Farnams, Cheshire, Cheshire Harbor, Maple Grove, Adams, Renfrew and Zylonite. The Western Railroad of Massachusetts bought it before construction was even finished; it became the Boston and Albany's North Adams Branch in 1870, and the New York Central took control of the B&A in 1900. Its named train was the Berkshire Hills Express, New York to North Adams, 175.5 miles by the Central's Harlem Line to Chatham, the B&A east to Pittsfield and then north up this branch -- Berkshires resort traffic and Williams College students. It ran 1919 to 1934, unnamed successors followed, by 1950 the service was a Chatham-North Adams shuttle requiring transfers, and scheduled passenger service ended in 1953. Separately, the Hoosac Valley Street Railway opened between Adams and North Adams in 1886 and electrified in 1889; absorbed into the Berkshire Street Railway, it carried passengers until that whole system shut down on November 12 1932. The branch was abandoned in 1990 and the Pittsfield-to-Adams half became the Ashuwillticook Rail Trail, but the Adams-North Adams track survived -- and since 2016 the Berkshire Scenic Railway Museum has run the Hoosac Valley Service over it, so Adams has passenger trains again. The 1889 station is a sports bar and restaurant.",
  "sources": [
   "https://en.wikipedia.org/wiki/Pittsfield_and_North_Adams_Railroad -- incorporated March 3 1842, opened December 1 1846, 18.539 miles North Adams Junction (Pittsfield) to North Adams; station list; acquired by the Western Railroad of Massachusetts before completion; Boston & Albany North Adams Branch from 1870; NYC control 1900; Penn Central 1968, Conrail 1976, Boston & Maine 1981, Guilford 1983; abandoned 1990; corridor became the Ashuwillticook Rail Trail.",
   "https://en.wikipedia.org/wiki/Berkshire_Hills_Express -- New York Central, 1919-1934, New York to North Adams, 175.5 miles via the Harlem Line to Chatham then the B&A to Pittsfield and the North Adams branch; served Adams; resort and Williams College traffic; unnamed successor service to 1953; by 1950 a Chatham-North Adams shuttle.",
   "https://en.wikipedia.org/wiki/Adams_station_(New_York_Central_Railroad) -- Adams was the town's principal station on the B&A North Adams Branch; station dated 1889 (the article's own text says 1899 -- see not_yet_sourced); now a sports bar and restaurant; right-of-way became the Ashuwillticook Rail Trail.",
   "https://en.wikipedia.org/wiki/Berkshire_Street_Railway -- the Hoosac Valley Street Railway began operating between Adams and North Adams in 1886 and was electrified in 1889 (550 V DC overhead); absorbed into the Berkshire Street Railway; all streetcar service ended November 12 1932.",
   "https://en.wikipedia.org/wiki/Berkshire_Scenic_Railway_Museum and https://www.berkshiretrains.org/ -- 2014 state grant of $200,000 to move excursion operations to the Hoosac Valley; tourist service began 2016; hour-long round trips Adams-North Adams from the platform beside the Adams Visitors Center, weekends Memorial Day to October plus holiday trains Thanksgiving to Christmas; all-volunteer and seasonal.",
   "Geometry: OpenStreetMap relation 1376511 'North Adams Branch' via the OSM API, and MA Route 8 road ways via Overpass, both fetched 2026-08-24."
  ],
  "not_yet_sourced": [
   "The trolley alignment is a corridor approximation, not a traced route -- see the geometry_quality on hoosac-valley-street-railway. If a Berkshire Street Railway track map turns up, that feature should be redrawn.",
   "Whether the Hoosac Valley Street Railway ran beyond Adams to the south (toward Cheshire and Pittsfield) as part of the wider Berkshire Street Railway network is not established here; only the documented Adams-North Adams line is drawn.",
   "SOURCE CONFLICT on the Adams station building: the Wikipedia article's text says built 1899, its infobox says opened 1889. 1889 is used in the notes; nothing in this file depends on it.",
   "Every headway_min in this file is an estimate. No timetable was found for the North Adams Branch in any era, for the trolley, or for the current excursion schedule.",
   "The exact 1953 date for the end of scheduled passenger service comes from the Berkshire Hills Express article's statement that service on the segment ended that year; no month or final-train date was found.",
   "The 1846-1870 feature is a composite: the Pittsfield and North Adams was bought by the Western Railroad of Massachusetts before it opened, so the trains were the Western's from day one. The Western Railroad has no other feature in data/, so rather than invent a colour for it the two names share one feature and one colour, with the ownership stated in the segment note."
  ]
 },
 "features": [
  {
   "type": "Feature",
   "properties": {
    "company": "Pittsfield and North Adams Railroad / Western Railroad of Massachusetts",
    "line": "P&NA: Pittsfield - Cheshire - Adams - North Adams",
    "id": "pna-pittsfield-north-adams",
    "color": "#8C9630",
    "mode": "intercity_rail",
    "avg_speed_kmh": 32,
    "speed_source": "estimated: 1840s-60s branch-line steam over an 18.5-mile valley line with nine intermediate stops; unsourced",
    "geometry_quality": "Real-traced from OpenStreetMap route relation 1376511 'North Adams Branch' (alt_name 'Pittsfield and North Adams Branch', old_railway_operator=NYC), chained end to end over 47 member ways. 502 points, 29.94 km / 18.60 miles against a documented 18.539 miles -- a 0.3% match, which is the check that the chaining is right. No straight-line approximation anywhere. The corridor survives in two forms and the trace follows both: Pittsfield to Adams is now the Ashuwillticook Rail Trail (tagged cycleway and abandoned railway), and Adams to North Adams is still track, the Berkshire and Eastern's Adams Industrial Track. This is the original alignment, contemporary with every era drawn on it.",
    "segments": [
     {
      "start": 1846,
      "end": 1870,
      "headway_min": 480,
      "note": "Incorporated March 3 1842 to extend the Housatonic Railroad north toward Vermont, and opened December 1 1846: 18.539 miles from North Adams Junction in Pittsfield to North Adams, with stations at Coltsville, Berkshire, Farnams, Cheshire, Cheshire Harbor, Maple Grove, Adams, Renfrew and Zylonite. The Western Railroad of Massachusetts bought the company before construction was finished, so the trains were the Western's from the opening; the line passed to the Boston and Albany in 1870. Frequency estimated, unsourced."
     }
    ]
   },
   "geometry": {
    "type": "LineString",
    "coordinates": [
     [
      -73.21577,
      42.45489
     ],
     [
      -73.2156,
      42.45492
     ],
     [
      -73.21543,
      42.45495
     ],
     [
      -73.21526,
      42.45498
     ],
     [
      -73.21509,
      42.45501
     ],
     [
      -73.21302,
      42.45526
     ],
     [
      -73.21257,
      42.45534
     ],
     [
      -73.21237,
      42.45538
     ],
     [
      -73.21214,
      42.45545
     ],
     [
      -73.2121,
      42.45547
     ],
     [
      -73.2119,
      42.45554
     ],
     [
      -73.21174,
      42.45559
     ],
     [
      -73.2113,
      42.45576
     ],
     [
      -73.21099,
      42.45588
     ],
     [
      -73.21069,
      42.45602
     ],
     [
      -73.21049,
      42.45612
     ],
     [
      -73.2103,
      42.45623
     ],
     [
      -73.21015,
      42.45631
     ],
     [
      -73.21001,
      42.4564
     ],
     [
      -73.20985,
      42.45651
     ],
     [
      -73.20968,
      42.45662
     ],
     [
      -73.20941,
      42.45683
     ],
     [
      -73.20912,
      42.45708
     ],
     [
      -73.20887,
      42.45733
     ],
     [
      -73.20874,
      42.45747
     ],
     [
      -73.20862,
      42.45761
     ],
     [
      -73.20849,
      42.45777
     ],
     [
      -73.20837,
      42.45795
     ],
     [
      -73.20828,
      42.45808
     ],
     [
      -73.2082,
      42.45821
     ],
     [
      -73.20807,
      42.45843
     ],
     [
      -73.20797,
      42.45863
     ],
     [
      -73.20789,
      42.4588
     ],
     [
      -73.20781,
      42.45898
     ],
     [
      -73.20773,
      42.45918
     ],
     [
      -73.2077,
      42.45929
     ],
     [
      -73.20767,
      42.4594
     ],
     [
      -73.20763,
      42.45953
     ],
     [
      -73.20761,
      42.4596
     ],
     [
      -73.20758,
      42.45976
     ],
     [
      -73.20756,
      42.45986
     ],
     [
      -73.20754,
      42.45997
     ],
     [
      -73.20752,
      42.46019
     ],
     [
      -73.20751,
      42.46036
     ],
     [
      -73.2075,
      42.46054
     ],
     [
      -73.20749,
      42.46096
     ],
     [
      -73.20749,
      42.4613
     ],
     [
      -73.20749,
      42.46158
     ],
     [
      -73.20748,
      42.46197
     ],
     [
      -73.20748,
      42.46207
     ],
     [
      -73.20747,
      42.46333
     ],
     [
      -73.20746,
      42.46448
     ],
     [
      -73.20743,
      42.4669
     ],
     [
      -73.20743,
      42.46714
     ],
     [
      -73.20743,
      42.4673
     ],
     [
      -73.20742,
      42.46758
     ],
     [
      -73.20743,
      42.46833
     ],
     [
      -73.20743,
      42.46841
     ],
     [
      -73.20743,
      42.46866
     ],
     [
      -73.20741,
      42.47067
     ],
     [
      -73.20739,
      42.47142
     ],
     [
      -73.20736,
      42.47431
     ],
     [
      -73.20731,
      42.48009
     ],
     [
      -73.20729,
      42.48056
     ],
     [
      -73.20722,
      42.48102
     ],
     [
      -73.20712,
      42.48144
     ],
     [
      -73.20696,
      42.48188
     ],
     [
      -73.20676,
      42.48227
     ],
     [
      -73.20652,
      42.48264
     ],
     [
      -73.20619,
      42.48306
     ],
     [
      -73.20586,
      42.48341
     ],
     [
      -73.20536,
      42.48387
     ],
     [
      -73.20506,
      42.48408
     ],
     [
      -73.20481,
      42.4843
     ],
     [
      -73.2046,
      42.48451
     ],
     [
      -73.2044,
      42.48473
     ],
     [
      -73.20422,
      42.48497
     ],
     [
      -73.20387,
      42.4854
     ],
     [
      -73.20363,
      42.48579
     ],
     [
      -73.20346,
      42.48618
     ],
     [
      -73.20339,
      42.48651
     ],
     [
      -73.20334,
      42.48691
     ],
     [
      -73.20333,
      42.48736
     ],
     [
      -73.20338,
      42.48781
     ],
     [
      -73.2035,
      42.48836
     ],
     [
      -73.20359,
      42.48882
     ],
     [
      -73.20364,
      42.48899
     ],
     [
      -73.20369,
      42.48916
     ],
     [
      -73.20376,
      42.48942
     ],
     [
      -73.20385,
      42.48971
     ],
     [
      -73.2039,
      42.49003
     ],
     [
      -73.20393,
      42.49041
     ],
     [
      -73.20391,
      42.49075
     ],
     [
      -73.20387,
      42.4911
     ],
     [
      -73.2038,
      42.49141
     ],
     [
      -73.20371,
      42.4917
     ],
     [
      -73.20359,
      42.49201
     ],
     [
      -73.20344,
      42.49231
     ],
     [
      -73.20329,
      42.4926
     ],
     [
      -73.20156,
      42.49555
     ],
     [
      -73.20107,
      42.49637
     ],
     [
      -73.20088,
      42.49671
     ],
     [
      -73.20068,
      42.49709
     ],
     [
      -73.20054,
      42.49732
     ],
     [
      -73.20037,
      42.49758
     ],
     [
      -73.20019,
      42.49781
     ],
     [
      -73.19999,
      42.49806
     ],
     [
      -73.19976,
      42.49829
     ],
     [
      -73.19962,
      42.49843
     ],
     [
      -73.19955,
      42.4985
     ],
     [
      -73.1993,
      42.49871
     ],
     [
      -73.19788,
      42.49987
     ],
     [
      -73.19777,
      42.49997
     ],
     [
      -73.1977,
      42.50003
     ],
     [
      -73.19755,
      42.50016
     ],
     [
      -73.19748,
      42.50024
     ],
     [
      -73.19732,
      42.50039
     ],
     [
      -73.19717,
      42.50057
     ],
     [
      -73.19702,
      42.50076
     ],
     [
      -73.19687,
      42.50094
     ],
     [
      -73.19675,
      42.50112
     ],
     [
      -73.19662,
      42.50133
     ],
     [
      -73.19649,
      42.50155
     ],
     [
      -73.19638,
      42.50178
     ],
     [
      -73.19629,
      42.50198
     ],
     [
      -73.19621,
      42.50219
     ],
     [
      -73.19615,
      42.5024
     ],
     [
      -73.19579,
      42.50367
     ],
     [
      -73.19538,
      42.50512
     ],
     [
      -73.19465,
      42.50763
     ],
     [
      -73.1943,
      42.50883
     ],
     [
      -73.19383,
      42.51044
     ],
     [
      -73.1936,
      42.51124
     ],
     [
      -73.19355,
      42.51142
     ],
     [
      -73.19351,
      42.51157
     ],
     [
      -73.19349,
      42.5117
     ],
     [
      -73.19348,
      42.51186
     ],
     [
      -73.19346,
      42.51204
     ],
     [
      -73.19334,
      42.51285
     ],
     [
      -73.1933,
      42.51316
     ],
     [
      -73.19328,
      42.51347
     ],
     [
      -73.19327,
      42.51375
     ],
     [
      -73.19325,
      42.51744
     ],
     [
      -73.19321,
      42.51996
     ],
     [
      -73.19321,
      42.52138
     ],
     [
      -73.19321,
      42.52141
     ],
     [
      -73.1932,
      42.52147
     ],
     [
      -73.19318,
      42.52257
     ],
     [
      -73.19316,
      42.52294
     ],
     [
      -73.19313,
      42.52327
     ],
     [
      -73.19308,
      42.52358
     ],
     [
      -73.19303,
      42.52392
     ],
     [
      -73.19297,
      42.52425
     ],
     [
      -73.1929,
      42.52458
     ],
     [
      -73.19282,
      42.52493
     ],
     [
      -73.19276,
      42.5252
     ],
     [
      -73.19271,
      42.52537
     ],
     [
      -73.19262,
      42.52564
     ],
     [
      -73.1925,
      42.52599
     ],
     [
      -73.19236,
      42.52637
     ],
     [
      -73.19222,
      42.52673
     ],
     [
      -73.19206,
      42.52708
     ],
     [
      -73.19191,
      42.52741
     ],
     [
      -73.19174,
      42.52771
     ],
     [
      -73.19157,
      42.528
     ],
     [
      -73.19138,
      42.52832
     ],
     [
      -73.19116,
      42.52868
     ],
     [
      -73.19094,
      42.52901
     ],
     [
      -73.19072,
      42.52934
     ],
     [
      -73.19048,
      42.52966
     ],
     [
      -73.19024,
      42.52997
     ],
     [
      -73.19,
      42.53027
     ],
     [
      -73.18974,
      42.53058
     ],
     [
      -73.18945,
      42.53089
     ],
     [
      -73.18914,
      42.53121
     ],
     [
      -73.18638,
      42.53386
     ],
     [
      -73.18441,
      42.53573
     ],
     [
      -73.18225,
      42.53779
     ],
     [
      -73.18224,
      42.5378
     ],
     [
      -73.18221,
      42.53783
     ],
     [
      -73.18217,
      42.53786
     ],
     [
      -73.18216,
      42.53788
     ],
     [
      -73.1818,
      42.53819
     ],
     [
      -73.18161,
      42.53836
     ],
     [
      -73.1814,
      42.53852
     ],
     [
      -73.18118,
      42.53866
     ],
     [
      -73.18096,
      42.53879
     ],
     [
      -73.18074,
      42.5389
     ],
     [
      -73.1805,
      42.539
     ],
     [
      -73.18035,
      42.53906
     ],
     [
      -73.18019,
      42.53911
     ],
     [
      -73.18002,
      42.53916
     ],
     [
      -73.17923,
      42.53935
     ],
     [
      -73.17887,
      42.53945
     ],
     [
      -73.17848,
      42.53959
     ],
     [
      -73.1781,
      42.53976
     ],
     [
      -73.1777,
      42.53997
     ],
     [
      -73.17729,
      42.54018
     ],
     [
      -73.17567,
      42.54104
     ],
     [
      -73.1754,
      42.5412
     ],
     [
      -73.17517,
      42.54136
     ],
     [
      -73.17497,
      42.54151
     ],
     [
      -73.17476,
      42.54168
     ],
     [
      -73.17458,
      42.54186
     ],
     [
      -73.17441,
      42.54204
     ],
     [
      -73.17319,
      42.5434
     ],
     [
      -73.17299,
      42.54361
     ],
     [
      -73.17279,
      42.5438
     ],
     [
      -73.17257,
      42.54401
     ],
     [
      -73.17236,
      42.5442
     ],
     [
      -73.17211,
      42.54441
     ],
     [
      -73.16995,
      42.5461
     ],
     [
      -73.16972,
      42.54629
     ],
     [
      -73.1695,
      42.54649
     ],
     [
      -73.1693,
      42.54668
     ],
     [
      -73.1672,
      42.54874
     ],
     [
      -73.16702,
      42.54893
     ],
     [
      -73.16686,
      42.54912
     ],
     [
      -73.16671,
      42.54932
     ],
     [
      -73.16659,
      42.54953
     ],
     [
      -73.16649,
      42.54973
     ],
     [
      -73.16642,
      42.54995
     ],
     [
      -73.16636,
      42.55018
     ],
     [
      -73.16632,
      42.55041
     ],
     [
      -73.1663,
      42.55064
     ],
     [
      -73.16616,
      42.55228
     ],
     [
      -73.16615,
      42.55243
     ],
     [
      -73.16611,
      42.55259
     ],
     [
      -73.16607,
      42.55275
     ],
     [
      -73.16602,
      42.55292
     ],
     [
      -73.16596,
      42.55307
     ],
     [
      -73.16587,
      42.55324
     ],
     [
      -73.16577,
      42.55341
     ],
     [
      -73.16566,
      42.55357
     ],
     [
      -73.16556,
      42.55369
     ],
     [
      -73.16546,
      42.55381
     ],
     [
      -73.16544,
      42.55384
     ],
     [
      -73.16516,
      42.55413
     ],
     [
      -73.16504,
      42.55424
     ],
     [
      -73.16431,
      42.55495
     ],
     [
      -73.16383,
      42.5554
     ],
     [
      -73.1636,
      42.55561
     ],
     [
      -73.16352,
      42.55569
     ],
     [
      -73.16252,
      42.55664
     ],
     [
      -73.1606,
      42.55847
     ],
     [
      -73.1603,
      42.55875
     ],
     [
      -73.15983,
      42.55916
     ],
     [
      -73.15963,
      42.55935
     ],
     [
      -73.15778,
      42.56115
     ],
     [
      -73.15697,
      42.56192
     ],
     [
      -73.15687,
      42.56201
     ],
     [
      -73.15677,
      42.56211
     ],
     [
      -73.15654,
      42.56233
     ],
     [
      -73.15629,
      42.56258
     ],
     [
      -73.15555,
      42.56329
     ],
     [
      -73.15493,
      42.56389
     ],
     [
      -73.15123,
      42.56742
     ],
     [
      -73.15084,
      42.5678
     ],
     [
      -73.15071,
      42.56794
     ],
     [
      -73.15058,
      42.56809
     ],
     [
      -73.15029,
      42.56841
     ],
     [
      -73.15002,
      42.56873
     ],
     [
      -73.14978,
      42.56902
     ],
     [
      -73.14955,
      42.56932
     ],
     [
      -73.14935,
      42.56959
     ],
     [
      -73.1423,
      42.5792
     ],
     [
      -73.14216,
      42.57941
     ],
     [
      -73.14204,
      42.57961
     ],
     [
      -73.14192,
      42.5798
     ],
     [
      -73.14182,
      42.58001
     ],
     [
      -73.14173,
      42.58022
     ],
     [
      -73.14163,
      42.58044
     ],
     [
      -73.14155,
      42.58065
     ],
     [
      -73.14148,
      42.58085
     ],
     [
      -73.14142,
      42.58105
     ],
     [
      -73.13916,
      42.58941
     ],
     [
      -73.13914,
      42.5895
     ],
     [
      -73.13892,
      42.59026
     ],
     [
      -73.13889,
      42.59042
     ],
     [
      -73.13887,
      42.59057
     ],
     [
      -73.13887,
      42.59074
     ],
     [
      -73.13888,
      42.59089
     ],
     [
      -73.13891,
      42.59104
     ],
     [
      -73.13895,
      42.59119
     ],
     [
      -73.13901,
      42.59135
     ],
     [
      -73.13907,
      42.59149
     ],
     [
      -73.13915,
      42.59164
     ],
     [
      -73.13924,
      42.59178
     ],
     [
      -73.13934,
      42.5919
     ],
     [
      -73.13946,
      42.59202
     ],
     [
      -73.13959,
      42.59214
     ],
     [
      -73.13973,
      42.59226
     ],
     [
      -73.1399,
      42.59237
     ],
     [
      -73.14008,
      42.59247
     ],
     [
      -73.14046,
      42.59269
     ],
     [
      -73.1406,
      42.59277
     ],
     [
      -73.14072,
      42.59285
     ],
     [
      -73.14079,
      42.59291
     ],
     [
      -73.14085,
      42.59298
     ],
     [
      -73.14091,
      42.59304
     ],
     [
      -73.14101,
      42.59316
     ],
     [
      -73.14109,
      42.59329
     ],
     [
      -73.14115,
      42.59342
     ],
     [
      -73.14118,
      42.59355
     ],
     [
      -73.1412,
      42.59367
     ],
     [
      -73.14121,
      42.59379
     ],
     [
      -73.14119,
      42.59392
     ],
     [
      -73.14115,
      42.59404
     ],
     [
      -73.14109,
      42.59416
     ],
     [
      -73.141,
      42.59429
     ],
     [
      -73.1409,
      42.59443
     ],
     [
      -73.14065,
      42.59471
     ],
     [
      -73.14048,
      42.59491
     ],
     [
      -73.14035,
      42.59508
     ],
     [
      -73.14022,
      42.59527
     ],
     [
      -73.1401,
      42.59546
     ],
     [
      -73.13997,
      42.5957
     ],
     [
      -73.13985,
      42.59593
     ],
     [
      -73.1397,
      42.59622
     ],
     [
      -73.13957,
      42.5965
     ],
     [
      -73.13943,
      42.59678
     ],
     [
      -73.13928,
      42.59711
     ],
     [
      -73.13899,
      42.59781
     ],
     [
      -73.13806,
      42.59988
     ],
     [
      -73.1375,
      42.60114
     ],
     [
      -73.13734,
      42.60149
     ],
     [
      -73.13719,
      42.60179
     ],
     [
      -73.13713,
      42.60192
     ],
     [
      -73.13706,
      42.60204
     ],
     [
      -73.13698,
      42.60218
     ],
     [
      -73.13691,
      42.6023
     ],
     [
      -73.13682,
      42.60243
     ],
     [
      -73.13672,
      42.60257
     ],
     [
      -73.13662,
      42.60271
     ],
     [
      -73.13653,
      42.60282
     ],
     [
      -73.13642,
      42.60294
     ],
     [
      -73.13631,
      42.60307
     ],
     [
      -73.1362,
      42.60318
     ],
     [
      -73.13608,
      42.60328
     ],
     [
      -73.13429,
      42.60477
     ],
     [
      -73.13409,
      42.60495
     ],
     [
      -73.13392,
      42.60514
     ],
     [
      -73.13375,
      42.60534
     ],
     [
      -73.13179,
      42.60778
     ],
     [
      -73.13059,
      42.60925
     ],
     [
      -73.12931,
      42.61082
     ],
     [
      -73.12911,
      42.61105
     ],
     [
      -73.12817,
      42.61225
     ],
     [
      -73.128,
      42.61249
     ],
     [
      -73.12784,
      42.61273
     ],
     [
      -73.12771,
      42.61296
     ],
     [
      -73.1276,
      42.61317
     ],
     [
      -73.12752,
      42.61335
     ],
     [
      -73.12744,
      42.61356
     ],
     [
      -73.12736,
      42.61377
     ],
     [
      -73.1273,
      42.61397
     ],
     [
      -73.12728,
      42.61407
     ],
     [
      -73.12727,
      42.61419
     ],
     [
      -73.12725,
      42.6143
     ],
     [
      -73.1272,
      42.61443
     ],
     [
      -73.12713,
      42.61458
     ],
     [
      -73.12674,
      42.61541
     ],
     [
      -73.12664,
      42.61559
     ],
     [
      -73.12653,
      42.61578
     ],
     [
      -73.12641,
      42.61596
     ],
     [
      -73.12628,
      42.61613
     ],
     [
      -73.12604,
      42.61643
     ],
     [
      -73.12593,
      42.61656
     ],
     [
      -73.12585,
      42.61663
     ],
     [
      -73.12582,
      42.61666
     ],
     [
      -73.12579,
      42.61669
     ],
     [
      -73.12574,
      42.61672
     ],
     [
      -73.12569,
      42.61675
     ],
     [
      -73.1256,
      42.61681
     ],
     [
      -73.12552,
      42.61687
     ],
     [
      -73.12506,
      42.61728
     ],
     [
      -73.12493,
      42.6174
     ],
     [
      -73.1248,
      42.61753
     ],
     [
      -73.12468,
      42.61764
     ],
     [
      -73.12454,
      42.61776
     ],
     [
      -73.1244,
      42.61788
     ],
     [
      -73.12379,
      42.61836
     ],
     [
      -73.1234,
      42.61868
     ],
     [
      -73.12228,
      42.61954
     ],
     [
      -73.12194,
      42.61979
     ],
     [
      -73.12161,
      42.62005
     ],
     [
      -73.12125,
      42.6203
     ],
     [
      -73.12104,
      42.62044
     ],
     [
      -73.12086,
      42.62056
     ],
     [
      -73.12074,
      42.62064
     ],
     [
      -73.12062,
      42.62071
     ],
     [
      -73.12049,
      42.62079
     ],
     [
      -73.12007,
      42.621
     ],
     [
      -73.11993,
      42.62108
     ],
     [
      -73.11981,
      42.62117
     ],
     [
      -73.1197,
      42.62127
     ],
     [
      -73.11957,
      42.62139
     ],
     [
      -73.11937,
      42.6216
     ],
     [
      -73.11929,
      42.62169
     ],
     [
      -73.11921,
      42.62179
     ],
     [
      -73.11913,
      42.6219
     ],
     [
      -73.11905,
      42.62201
     ],
     [
      -73.11879,
      42.62245
     ],
     [
      -73.1187,
      42.62261
     ],
     [
      -73.11806,
      42.62379
     ],
     [
      -73.11794,
      42.62399
     ],
     [
      -73.11785,
      42.62416
     ],
     [
      -73.11763,
      42.62464
     ],
     [
      -73.1175,
      42.6249
     ],
     [
      -73.11744,
      42.62504
     ],
     [
      -73.1167,
      42.62655
     ],
     [
      -73.11665,
      42.62664
     ],
     [
      -73.11649,
      42.62696
     ],
     [
      -73.11625,
      42.6274
     ],
     [
      -73.11542,
      42.62892
     ],
     [
      -73.1154,
      42.62896
     ],
     [
      -73.11435,
      42.63098
     ],
     [
      -73.11366,
      42.6323
     ],
     [
      -73.11344,
      42.63277
     ],
     [
      -73.11325,
      42.6332
     ],
     [
      -73.1131,
      42.63363
     ],
     [
      -73.11296,
      42.63401
     ],
     [
      -73.11283,
      42.63444
     ],
     [
      -73.1127,
      42.63488
     ],
     [
      -73.11266,
      42.63502
     ],
     [
      -73.11236,
      42.63618
     ],
     [
      -73.11216,
      42.63687
     ],
     [
      -73.11201,
      42.63743
     ],
     [
      -73.11162,
      42.63883
     ],
     [
      -73.11151,
      42.63921
     ],
     [
      -73.11139,
      42.63964
     ],
     [
      -73.11076,
      42.64194
     ],
     [
      -73.11067,
      42.64226
     ],
     [
      -73.11055,
      42.64269
     ],
     [
      -73.11036,
      42.64337
     ],
     [
      -73.10897,
      42.6484
     ],
     [
      -73.10822,
      42.65109
     ],
     [
      -73.10794,
      42.65208
     ],
     [
      -73.10662,
      42.65686
     ],
     [
      -73.10432,
      42.66516
     ],
     [
      -73.10397,
      42.66641
     ],
     [
      -73.10325,
      42.66901
     ],
     [
      -73.1032,
      42.66918
     ],
     [
      -73.1026,
      42.67135
     ],
     [
      -73.10173,
      42.67449
     ],
     [
      -73.10164,
      42.67484
     ],
     [
      -73.10156,
      42.6752
     ],
     [
      -73.10149,
      42.67555
     ],
     [
      -73.10143,
      42.67591
     ],
     [
      -73.10138,
      42.67625
     ],
     [
      -73.10134,
      42.67656
     ],
     [
      -73.10134,
      42.67658
     ],
     [
      -73.10132,
      42.67694
     ],
     [
      -73.1013,
      42.67732
     ],
     [
      -73.1013,
      42.67763
     ],
     [
      -73.1013,
      42.67795
     ],
     [
      -73.10132,
      42.67828
     ],
     [
      -73.10135,
      42.67864
     ],
     [
      -73.10139,
      42.679
     ],
     [
      -73.10144,
      42.6794
     ],
     [
      -73.10151,
      42.6798
     ],
     [
      -73.1016,
      42.6802
     ],
     [
      -73.10169,
      42.68056
     ],
     [
      -73.1018,
      42.68099
     ],
     [
      -73.10194,
      42.68142
     ],
     [
      -73.10208,
      42.68179
     ],
     [
      -73.10224,
      42.68218
     ],
     [
      -73.10239,
      42.68253
     ],
     [
      -73.1026,
      42.68295
     ],
     [
      -73.10341,
      42.68459
     ],
     [
      -73.10359,
      42.68498
     ],
     [
      -73.1038,
      42.68541
     ],
     [
      -73.10398,
      42.6858
     ],
     [
      -73.10416,
      42.68622
     ],
     [
      -73.10434,
      42.68662
     ],
     [
      -73.1049,
      42.6879
     ],
     [
      -73.10505,
      42.68823
     ],
     [
      -73.10521,
      42.68853
     ],
     [
      -73.10537,
      42.68882
     ],
     [
      -73.10555,
      42.6891
     ],
     [
      -73.10576,
      42.6894
     ],
     [
      -73.10597,
      42.68969
     ],
     [
      -73.10644,
      42.69031
     ],
     [
      -73.10655,
      42.69043
     ],
     [
      -73.10672,
      42.69061
     ],
     [
      -73.10682,
      42.69073
     ],
     [
      -73.10704,
      42.69101
     ],
     [
      -73.10722,
      42.69124
     ],
     [
      -73.10738,
      42.69145
     ],
     [
      -73.10755,
      42.69166
     ],
     [
      -73.10774,
      42.69188
     ],
     [
      -73.10793,
      42.69208
     ],
     [
      -73.10812,
      42.69227
     ],
     [
      -73.10835,
      42.69248
     ],
     [
      -73.10858,
      42.69267
     ],
     [
      -73.10882,
      42.69287
     ],
     [
      -73.10906,
      42.69307
     ],
     [
      -73.11027,
      42.69402
     ],
     [
      -73.11083,
      42.69445
     ],
     [
      -73.11182,
      42.69521
     ],
     [
      -73.112,
      42.69536
     ],
     [
      -73.11217,
      42.69552
     ]
    ]
   }
  },
  {
   "type": "Feature",
   "properties": {
    "company": "Boston and Albany Railroad",
    "line": "Boston and Albany: North Adams Branch (Pittsfield - Adams - North Adams)",
    "id": "ba-north-adams-branch",
    "color": "#5C677D",
    "mode": "intercity_rail",
    "avg_speed_kmh": 40,
    "speed_source": "estimated: branch-line steam with frequent stops; unsourced",
    "geometry_quality": "Real-traced from OpenStreetMap route relation 1376511 'North Adams Branch' (alt_name 'Pittsfield and North Adams Branch', old_railway_operator=NYC), chained end to end over 47 member ways. 502 points, 29.94 km / 18.60 miles against a documented 18.539 miles -- a 0.3% match, which is the check that the chaining is right. No straight-line approximation anywhere. The corridor survives in two forms and the trace follows both: Pittsfield to Adams is now the Ashuwillticook Rail Trail (tagged cycleway and abandoned railway), and Adams to North Adams is still track, the Berkshire and Eastern's Adams Industrial Track. This is the original alignment, contemporary with every era drawn on it.",
    "segments": [
     {
      "start": 1870,
      "end": 1900,
      "headway_min": 360,
      "note": "Worked as the Boston and Albany's North Adams Branch from 1870. Adams got its own station in 1889 and it was the town's principal stop for the rest of the line's passenger life. Frequency estimated, unsourced."
     },
     {
      "start": 1900,
      "end": 1934,
      "headway_min": 240,
      "note": "The New York Central took control of the Boston and Albany in 1900 and this branch got a through train of its own: the Berkshire Hills Express, New York to North Adams, 175.5 miles by the Central's Harlem Line to Chatham, the B&A east to Pittsfield, then north up this branch through Adams. It ran from 1919, carrying Berkshires resort traffic and Williams College students, and the name was dropped in 1934. This feature keeps the Boston and Albany's name and colour through the New York Central era, matching how boston_and_albany_railroad.geojson already treats the same lease. Frequency estimated, unsourced."
     },
     {
      "start": 1934,
      "end": 1953,
      "headway_min": 720,
      "note": "Unnamed successor service after the Berkshire Hills Express name was dropped. By 1950 the through train had shrunk to a Chatham-North Adams shuttle requiring transfers, and scheduled passenger service on the branch ended in 1953 -- the last year drawn here. Freight continued for decades under Penn Central, Conrail, the Boston and Maine and Guilford; the line was abandoned in 1990 and the Pittsfield-to-Adams half became the Ashuwillticook Rail Trail, but no passengers rode those years, so none of them are drawn. Frequency estimated, unsourced."
     }
    ]
   },
   "geometry": {
    "type": "LineString",
    "coordinates": [
     [
      -73.21577,
      42.45489
     ],
     [
      -73.2156,
      42.45492
     ],
     [
      -73.21543,
      42.45495
     ],
     [
      -73.21526,
      42.45498
     ],
     [
      -73.21509,
      42.45501
     ],
     [
      -73.21302,
      42.45526
     ],
     [
      -73.21257,
      42.45534
     ],
     [
      -73.21237,
      42.45538
     ],
     [
      -73.21214,
      42.45545
     ],
     [
      -73.2121,
      42.45547
     ],
     [
      -73.2119,
      42.45554
     ],
     [
      -73.21174,
      42.45559
     ],
     [
      -73.2113,
      42.45576
     ],
     [
      -73.21099,
      42.45588
     ],
     [
      -73.21069,
      42.45602
     ],
     [
      -73.21049,
      42.45612
     ],
     [
      -73.2103,
      42.45623
     ],
     [
      -73.21015,
      42.45631
     ],
     [
      -73.21001,
      42.4564
     ],
     [
      -73.20985,
      42.45651
     ],
     [
      -73.20968,
      42.45662
     ],
     [
      -73.20941,
      42.45683
     ],
     [
      -73.20912,
      42.45708
     ],
     [
      -73.20887,
      42.45733
     ],
     [
      -73.20874,
      42.45747
     ],
     [
      -73.20862,
      42.45761
     ],
     [
      -73.20849,
      42.45777
     ],
     [
      -73.20837,
      42.45795
     ],
     [
      -73.20828,
      42.45808
     ],
     [
      -73.2082,
      42.45821
     ],
     [
      -73.20807,
      42.45843
     ],
     [
      -73.20797,
      42.45863
     ],
     [
      -73.20789,
      42.4588
     ],
     [
      -73.20781,
      42.45898
     ],
     [
      -73.20773,
      42.45918
     ],
     [
      -73.2077,
      42.45929
     ],
     [
      -73.20767,
      42.4594
     ],
     [
      -73.20763,
      42.45953
     ],
     [
      -73.20761,
      42.4596
     ],
     [
      -73.20758,
      42.45976
     ],
     [
      -73.20756,
      42.45986
     ],
     [
      -73.20754,
      42.45997
     ],
     [
      -73.20752,
      42.46019
     ],
     [
      -73.20751,
      42.46036
     ],
     [
      -73.2075,
      42.46054
     ],
     [
      -73.20749,
      42.46096
     ],
     [
      -73.20749,
      42.4613
     ],
     [
      -73.20749,
      42.46158
     ],
     [
      -73.20748,
      42.46197
     ],
     [
      -73.20748,
      42.46207
     ],
     [
      -73.20747,
      42.46333
     ],
     [
      -73.20746,
      42.46448
     ],
     [
      -73.20743,
      42.4669
     ],
     [
      -73.20743,
      42.46714
     ],
     [
      -73.20743,
      42.4673
     ],
     [
      -73.20742,
      42.46758
     ],
     [
      -73.20743,
      42.46833
     ],
     [
      -73.20743,
      42.46841
     ],
     [
      -73.20743,
      42.46866
     ],
     [
      -73.20741,
      42.47067
     ],
     [
      -73.20739,
      42.47142
     ],
     [
      -73.20736,
      42.47431
     ],
     [
      -73.20731,
      42.48009
     ],
     [
      -73.20729,
      42.48056
     ],
     [
      -73.20722,
      42.48102
     ],
     [
      -73.20712,
      42.48144
     ],
     [
      -73.20696,
      42.48188
     ],
     [
      -73.20676,
      42.48227
     ],
     [
      -73.20652,
      42.48264
     ],
     [
      -73.20619,
      42.48306
     ],
     [
      -73.20586,
      42.48341
     ],
     [
      -73.20536,
      42.48387
     ],
     [
      -73.20506,
      42.48408
     ],
     [
      -73.20481,
      42.4843
     ],
     [
      -73.2046,
      42.48451
     ],
     [
      -73.2044,
      42.48473
     ],
     [
      -73.20422,
      42.48497
     ],
     [
      -73.20387,
      42.4854
     ],
     [
      -73.20363,
      42.48579
     ],
     [
      -73.20346,
      42.48618
     ],
     [
      -73.20339,
      42.48651
     ],
     [
      -73.20334,
      42.48691
     ],
     [
      -73.20333,
      42.48736
     ],
     [
      -73.20338,
      42.48781
     ],
     [
      -73.2035,
      42.48836
     ],
     [
      -73.20359,
      42.48882
     ],
     [
      -73.20364,
      42.48899
     ],
     [
      -73.20369,
      42.48916
     ],
     [
      -73.20376,
      42.48942
     ],
     [
      -73.20385,
      42.48971
     ],
     [
      -73.2039,
      42.49003
     ],
     [
      -73.20393,
      42.49041
     ],
     [
      -73.20391,
      42.49075
     ],
     [
      -73.20387,
      42.4911
     ],
     [
      -73.2038,
      42.49141
     ],
     [
      -73.20371,
      42.4917
     ],
     [
      -73.20359,
      42.49201
     ],
     [
      -73.20344,
      42.49231
     ],
     [
      -73.20329,
      42.4926
     ],
     [
      -73.20156,
      42.49555
     ],
     [
      -73.20107,
      42.49637
     ],
     [
      -73.20088,
      42.49671
     ],
     [
      -73.20068,
      42.49709
     ],
     [
      -73.20054,
      42.49732
     ],
     [
      -73.20037,
      42.49758
     ],
     [
      -73.20019,
      42.49781
     ],
     [
      -73.19999,
      42.49806
     ],
     [
      -73.19976,
      42.49829
     ],
     [
      -73.19962,
      42.49843
     ],
     [
      -73.19955,
      42.4985
     ],
     [
      -73.1993,
      42.49871
     ],
     [
      -73.19788,
      42.49987
     ],
     [
      -73.19777,
      42.49997
     ],
     [
      -73.1977,
      42.50003
     ],
     [
      -73.19755,
      42.50016
     ],
     [
      -73.19748,
      42.50024
     ],
     [
      -73.19732,
      42.50039
     ],
     [
      -73.19717,
      42.50057
     ],
     [
      -73.19702,
      42.50076
     ],
     [
      -73.19687,
      42.50094
     ],
     [
      -73.19675,
      42.50112
     ],
     [
      -73.19662,
      42.50133
     ],
     [
      -73.19649,
      42.50155
     ],
     [
      -73.19638,
      42.50178
     ],
     [
      -73.19629,
      42.50198
     ],
     [
      -73.19621,
      42.50219
     ],
     [
      -73.19615,
      42.5024
     ],
     [
      -73.19579,
      42.50367
     ],
     [
      -73.19538,
      42.50512
     ],
     [
      -73.19465,
      42.50763
     ],
     [
      -73.1943,
      42.50883
     ],
     [
      -73.19383,
      42.51044
     ],
     [
      -73.1936,
      42.51124
     ],
     [
      -73.19355,
      42.51142
     ],
     [
      -73.19351,
      42.51157
     ],
     [
      -73.19349,
      42.5117
     ],
     [
      -73.19348,
      42.51186
     ],
     [
      -73.19346,
      42.51204
     ],
     [
      -73.19334,
      42.51285
     ],
     [
      -73.1933,
      42.51316
     ],
     [
      -73.19328,
      42.51347
     ],
     [
      -73.19327,
      42.51375
     ],
     [
      -73.19325,
      42.51744
     ],
     [
      -73.19321,
      42.51996
     ],
     [
      -73.19321,
      42.52138
     ],
     [
      -73.19321,
      42.52141
     ],
     [
      -73.1932,
      42.52147
     ],
     [
      -73.19318,
      42.52257
     ],
     [
      -73.19316,
      42.52294
     ],
     [
      -73.19313,
      42.52327
     ],
     [
      -73.19308,
      42.52358
     ],
     [
      -73.19303,
      42.52392
     ],
     [
      -73.19297,
      42.52425
     ],
     [
      -73.1929,
      42.52458
     ],
     [
      -73.19282,
      42.52493
     ],
     [
      -73.19276,
      42.5252
     ],
     [
      -73.19271,
      42.52537
     ],
     [
      -73.19262,
      42.52564
     ],
     [
      -73.1925,
      42.52599
     ],
     [
      -73.19236,
      42.52637
     ],
     [
      -73.19222,
      42.52673
     ],
     [
      -73.19206,
      42.52708
     ],
     [
      -73.19191,
      42.52741
     ],
     [
      -73.19174,
      42.52771
     ],
     [
      -73.19157,
      42.528
     ],
     [
      -73.19138,
      42.52832
     ],
     [
      -73.19116,
      42.52868
     ],
     [
      -73.19094,
      42.52901
     ],
     [
      -73.19072,
      42.52934
     ],
     [
      -73.19048,
      42.52966
     ],
     [
      -73.19024,
      42.52997
     ],
     [
      -73.19,
      42.53027
     ],
     [
      -73.18974,
      42.53058
     ],
     [
      -73.18945,
      42.53089
     ],
     [
      -73.18914,
      42.53121
     ],
     [
      -73.18638,
      42.53386
     ],
     [
      -73.18441,
      42.53573
     ],
     [
      -73.18225,
      42.53779
     ],
     [
      -73.18224,
      42.5378
     ],
     [
      -73.18221,
      42.53783
     ],
     [
      -73.18217,
      42.53786
     ],
     [
      -73.18216,
      42.53788
     ],
     [
      -73.1818,
      42.53819
     ],
     [
      -73.18161,
      42.53836
     ],
     [
      -73.1814,
      42.53852
     ],
     [
      -73.18118,
      42.53866
     ],
     [
      -73.18096,
      42.53879
     ],
     [
      -73.18074,
      42.5389
     ],
     [
      -73.1805,
      42.539
     ],
     [
      -73.18035,
      42.53906
     ],
     [
      -73.18019,
      42.53911
     ],
     [
      -73.18002,
      42.53916
     ],
     [
      -73.17923,
      42.53935
     ],
     [
      -73.17887,
      42.53945
     ],
     [
      -73.17848,
      42.53959
     ],
     [
      -73.1781,
      42.53976
     ],
     [
      -73.1777,
      42.53997
     ],
     [
      -73.17729,
      42.54018
     ],
     [
      -73.17567,
      42.54104
     ],
     [
      -73.1754,
      42.5412
     ],
     [
      -73.17517,
      42.54136
     ],
     [
      -73.17497,
      42.54151
     ],
     [
      -73.17476,
      42.54168
     ],
     [
      -73.17458,
      42.54186
     ],
     [
      -73.17441,
      42.54204
     ],
     [
      -73.17319,
      42.5434
     ],
     [
      -73.17299,
      42.54361
     ],
     [
      -73.17279,
      42.5438
     ],
     [
      -73.17257,
      42.54401
     ],
     [
      -73.17236,
      42.5442
     ],
     [
      -73.17211,
      42.54441
     ],
     [
      -73.16995,
      42.5461
     ],
     [
      -73.16972,
      42.54629
     ],
     [
      -73.1695,
      42.54649
     ],
     [
      -73.1693,
      42.54668
     ],
     [
      -73.1672,
      42.54874
     ],
     [
      -73.16702,
      42.54893
     ],
     [
      -73.16686,
      42.54912
     ],
     [
      -73.16671,
      42.54932
     ],
     [
      -73.16659,
      42.54953
     ],
     [
      -73.16649,
      42.54973
     ],
     [
      -73.16642,
      42.54995
     ],
     [
      -73.16636,
      42.55018
     ],
     [
      -73.16632,
      42.55041
     ],
     [
      -73.1663,
      42.55064
     ],
     [
      -73.16616,
      42.55228
     ],
     [
      -73.16615,
      42.55243
     ],
     [
      -73.16611,
      42.55259
     ],
     [
      -73.16607,
      42.55275
     ],
     [
      -73.16602,
      42.55292
     ],
     [
      -73.16596,
      42.55307
     ],
     [
      -73.16587,
      42.55324
     ],
     [
      -73.16577,
      42.55341
     ],
     [
      -73.16566,
      42.55357
     ],
     [
      -73.16556,
      42.55369
     ],
     [
      -73.16546,
      42.55381
     ],
     [
      -73.16544,
      42.55384
     ],
     [
      -73.16516,
      42.55413
     ],
     [
      -73.16504,
      42.55424
     ],
     [
      -73.16431,
      42.55495
     ],
     [
      -73.16383,
      42.5554
     ],
     [
      -73.1636,
      42.55561
     ],
     [
      -73.16352,
      42.55569
     ],
     [
      -73.16252,
      42.55664
     ],
     [
      -73.1606,
      42.55847
     ],
     [
      -73.1603,
      42.55875
     ],
     [
      -73.15983,
      42.55916
     ],
     [
      -73.15963,
      42.55935
     ],
     [
      -73.15778,
      42.56115
     ],
     [
      -73.15697,
      42.56192
     ],
     [
      -73.15687,
      42.56201
     ],
     [
      -73.15677,
      42.56211
     ],
     [
      -73.15654,
      42.56233
     ],
     [
      -73.15629,
      42.56258
     ],
     [
      -73.15555,
      42.56329
     ],
     [
      -73.15493,
      42.56389
     ],
     [
      -73.15123,
      42.56742
     ],
     [
      -73.15084,
      42.5678
     ],
     [
      -73.15071,
      42.56794
     ],
     [
      -73.15058,
      42.56809
     ],
     [
      -73.15029,
      42.56841
     ],
     [
      -73.15002,
      42.56873
     ],
     [
      -73.14978,
      42.56902
     ],
     [
      -73.14955,
      42.56932
     ],
     [
      -73.14935,
      42.56959
     ],
     [
      -73.1423,
      42.5792
     ],
     [
      -73.14216,
      42.57941
     ],
     [
      -73.14204,
      42.57961
     ],
     [
      -73.14192,
      42.5798
     ],
     [
      -73.14182,
      42.58001
     ],
     [
      -73.14173,
      42.58022
     ],
     [
      -73.14163,
      42.58044
     ],
     [
      -73.14155,
      42.58065
     ],
     [
      -73.14148,
      42.58085
     ],
     [
      -73.14142,
      42.58105
     ],
     [
      -73.13916,
      42.58941
     ],
     [
      -73.13914,
      42.5895
     ],
     [
      -73.13892,
      42.59026
     ],
     [
      -73.13889,
      42.59042
     ],
     [
      -73.13887,
      42.59057
     ],
     [
      -73.13887,
      42.59074
     ],
     [
      -73.13888,
      42.59089
     ],
     [
      -73.13891,
      42.59104
     ],
     [
      -73.13895,
      42.59119
     ],
     [
      -73.13901,
      42.59135
     ],
     [
      -73.13907,
      42.59149
     ],
     [
      -73.13915,
      42.59164
     ],
     [
      -73.13924,
      42.59178
     ],
     [
      -73.13934,
      42.5919
     ],
     [
      -73.13946,
      42.59202
     ],
     [
      -73.13959,
      42.59214
     ],
     [
      -73.13973,
      42.59226
     ],
     [
      -73.1399,
      42.59237
     ],
     [
      -73.14008,
      42.59247
     ],
     [
      -73.14046,
      42.59269
     ],
     [
      -73.1406,
      42.59277
     ],
     [
      -73.14072,
      42.59285
     ],
     [
      -73.14079,
      42.59291
     ],
     [
      -73.14085,
      42.59298
     ],
     [
      -73.14091,
      42.59304
     ],
     [
      -73.14101,
      42.59316
     ],
     [
      -73.14109,
      42.59329
     ],
     [
      -73.14115,
      42.59342
     ],
     [
      -73.14118,
      42.59355
     ],
     [
      -73.1412,
      42.59367
     ],
     [
      -73.14121,
      42.59379
     ],
     [
      -73.14119,
      42.59392
     ],
     [
      -73.14115,
      42.59404
     ],
     [
      -73.14109,
      42.59416
     ],
     [
      -73.141,
      42.59429
     ],
     [
      -73.1409,
      42.59443
     ],
     [
      -73.14065,
      42.59471
     ],
     [
      -73.14048,
      42.59491
     ],
     [
      -73.14035,
      42.59508
     ],
     [
      -73.14022,
      42.59527
     ],
     [
      -73.1401,
      42.59546
     ],
     [
      -73.13997,
      42.5957
     ],
     [
      -73.13985,
      42.59593
     ],
     [
      -73.1397,
      42.59622
     ],
     [
      -73.13957,
      42.5965
     ],
     [
      -73.13943,
      42.59678
     ],
     [
      -73.13928,
      42.59711
     ],
     [
      -73.13899,
      42.59781
     ],
     [
      -73.13806,
      42.59988
     ],
     [
      -73.1375,
      42.60114
     ],
     [
      -73.13734,
      42.60149
     ],
     [
      -73.13719,
      42.60179
     ],
     [
      -73.13713,
      42.60192
     ],
     [
      -73.13706,
      42.60204
     ],
     [
      -73.13698,
      42.60218
     ],
     [
      -73.13691,
      42.6023
     ],
     [
      -73.13682,
      42.60243
     ],
     [
      -73.13672,
      42.60257
     ],
     [
      -73.13662,
      42.60271
     ],
     [
      -73.13653,
      42.60282
     ],
     [
      -73.13642,
      42.60294
     ],
     [
      -73.13631,
      42.60307
     ],
     [
      -73.1362,
      42.60318
     ],
     [
      -73.13608,
      42.60328
     ],
     [
      -73.13429,
      42.60477
     ],
     [
      -73.13409,
      42.60495
     ],
     [
      -73.13392,
      42.60514
     ],
     [
      -73.13375,
      42.60534
     ],
     [
      -73.13179,
      42.60778
     ],
     [
      -73.13059,
      42.60925
     ],
     [
      -73.12931,
      42.61082
     ],
     [
      -73.12911,
      42.61105
     ],
     [
      -73.12817,
      42.61225
     ],
     [
      -73.128,
      42.61249
     ],
     [
      -73.12784,
      42.61273
     ],
     [
      -73.12771,
      42.61296
     ],
     [
      -73.1276,
      42.61317
     ],
     [
      -73.12752,
      42.61335
     ],
     [
      -73.12744,
      42.61356
     ],
     [
      -73.12736,
      42.61377
     ],
     [
      -73.1273,
      42.61397
     ],
     [
      -73.12728,
      42.61407
     ],
     [
      -73.12727,
      42.61419
     ],
     [
      -73.12725,
      42.6143
     ],
     [
      -73.1272,
      42.61443
     ],
     [
      -73.12713,
      42.61458
     ],
     [
      -73.12674,
      42.61541
     ],
     [
      -73.12664,
      42.61559
     ],
     [
      -73.12653,
      42.61578
     ],
     [
      -73.12641,
      42.61596
     ],
     [
      -73.12628,
      42.61613
     ],
     [
      -73.12604,
      42.61643
     ],
     [
      -73.12593,
      42.61656
     ],
     [
      -73.12585,
      42.61663
     ],
     [
      -73.12582,
      42.61666
     ],
     [
      -73.12579,
      42.61669
     ],
     [
      -73.12574,
      42.61672
     ],
     [
      -73.12569,
      42.61675
     ],
     [
      -73.1256,
      42.61681
     ],
     [
      -73.12552,
      42.61687
     ],
     [
      -73.12506,
      42.61728
     ],
     [
      -73.12493,
      42.6174
     ],
     [
      -73.1248,
      42.61753
     ],
     [
      -73.12468,
      42.61764
     ],
     [
      -73.12454,
      42.61776
     ],
     [
      -73.1244,
      42.61788
     ],
     [
      -73.12379,
      42.61836
     ],
     [
      -73.1234,
      42.61868
     ],
     [
      -73.12228,
      42.61954
     ],
     [
      -73.12194,
      42.61979
     ],
     [
      -73.12161,
      42.62005
     ],
     [
      -73.12125,
      42.6203
     ],
     [
      -73.12104,
      42.62044
     ],
     [
      -73.12086,
      42.62056
     ],
     [
      -73.12074,
      42.62064
     ],
     [
      -73.12062,
      42.62071
     ],
     [
      -73.12049,
      42.62079
     ],
     [
      -73.12007,
      42.621
     ],
     [
      -73.11993,
      42.62108
     ],
     [
      -73.11981,
      42.62117
     ],
     [
      -73.1197,
      42.62127
     ],
     [
      -73.11957,
      42.62139
     ],
     [
      -73.11937,
      42.6216
     ],
     [
      -73.11929,
      42.62169
     ],
     [
      -73.11921,
      42.62179
     ],
     [
      -73.11913,
      42.6219
     ],
     [
      -73.11905,
      42.62201
     ],
     [
      -73.11879,
      42.62245
     ],
     [
      -73.1187,
      42.62261
     ],
     [
      -73.11806,
      42.62379
     ],
     [
      -73.11794,
      42.62399
     ],
     [
      -73.11785,
      42.62416
     ],
     [
      -73.11763,
      42.62464
     ],
     [
      -73.1175,
      42.6249
     ],
     [
      -73.11744,
      42.62504
     ],
     [
      -73.1167,
      42.62655
     ],
     [
      -73.11665,
      42.62664
     ],
     [
      -73.11649,
      42.62696
     ],
     [
      -73.11625,
      42.6274
     ],
     [
      -73.11542,
      42.62892
     ],
     [
      -73.1154,
      42.62896
     ],
     [
      -73.11435,
      42.63098
     ],
     [
      -73.11366,
      42.6323
     ],
     [
      -73.11344,
      42.63277
     ],
     [
      -73.11325,
      42.6332
     ],
     [
      -73.1131,
      42.63363
     ],
     [
      -73.11296,
      42.63401
     ],
     [
      -73.11283,
      42.63444
     ],
     [
      -73.1127,
      42.63488
     ],
     [
      -73.11266,
      42.63502
     ],
     [
      -73.11236,
      42.63618
     ],
     [
      -73.11216,
      42.63687
     ],
     [
      -73.11201,
      42.63743
     ],
     [
      -73.11162,
      42.63883
     ],
     [
      -73.11151,
      42.63921
     ],
     [
      -73.11139,
      42.63964
     ],
     [
      -73.11076,
      42.64194
     ],
     [
      -73.11067,
      42.64226
     ],
     [
      -73.11055,
      42.64269
     ],
     [
      -73.11036,
      42.64337
     ],
     [
      -73.10897,
      42.6484
     ],
     [
      -73.10822,
      42.65109
     ],
     [
      -73.10794,
      42.65208
     ],
     [
      -73.10662,
      42.65686
     ],
     [
      -73.10432,
      42.66516
     ],
     [
      -73.10397,
      42.66641
     ],
     [
      -73.10325,
      42.66901
     ],
     [
      -73.1032,
      42.66918
     ],
     [
      -73.1026,
      42.67135
     ],
     [
      -73.10173,
      42.67449
     ],
     [
      -73.10164,
      42.67484
     ],
     [
      -73.10156,
      42.6752
     ],
     [
      -73.10149,
      42.67555
     ],
     [
      -73.10143,
      42.67591
     ],
     [
      -73.10138,
      42.67625
     ],
     [
      -73.10134,
      42.67656
     ],
     [
      -73.10134,
      42.67658
     ],
     [
      -73.10132,
      42.67694
     ],
     [
      -73.1013,
      42.67732
     ],
     [
      -73.1013,
      42.67763
     ],
     [
      -73.1013,
      42.67795
     ],
     [
      -73.10132,
      42.67828
     ],
     [
      -73.10135,
      42.67864
     ],
     [
      -73.10139,
      42.679
     ],
     [
      -73.10144,
      42.6794
     ],
     [
      -73.10151,
      42.6798
     ],
     [
      -73.1016,
      42.6802
     ],
     [
      -73.10169,
      42.68056
     ],
     [
      -73.1018,
      42.68099
     ],
     [
      -73.10194,
      42.68142
     ],
     [
      -73.10208,
      42.68179
     ],
     [
      -73.10224,
      42.68218
     ],
     [
      -73.10239,
      42.68253
     ],
     [
      -73.1026,
      42.68295
     ],
     [
      -73.10341,
      42.68459
     ],
     [
      -73.10359,
      42.68498
     ],
     [
      -73.1038,
      42.68541
     ],
     [
      -73.10398,
      42.6858
     ],
     [
      -73.10416,
      42.68622
     ],
     [
      -73.10434,
      42.68662
     ],
     [
      -73.1049,
      42.6879
     ],
     [
      -73.10505,
      42.68823
     ],
     [
      -73.10521,
      42.68853
     ],
     [
      -73.10537,
      42.68882
     ],
     [
      -73.10555,
      42.6891
     ],
     [
      -73.10576,
      42.6894
     ],
     [
      -73.10597,
      42.68969
     ],
     [
      -73.10644,
      42.69031
     ],
     [
      -73.10655,
      42.69043
     ],
     [
      -73.10672,
      42.69061
     ],
     [
      -73.10682,
      42.69073
     ],
     [
      -73.10704,
      42.69101
     ],
     [
      -73.10722,
      42.69124
     ],
     [
      -73.10738,
      42.69145
     ],
     [
      -73.10755,
      42.69166
     ],
     [
      -73.10774,
      42.69188
     ],
     [
      -73.10793,
      42.69208
     ],
     [
      -73.10812,
      42.69227
     ],
     [
      -73.10835,
      42.69248
     ],
     [
      -73.10858,
      42.69267
     ],
     [
      -73.10882,
      42.69287
     ],
     [
      -73.10906,
      42.69307
     ],
     [
      -73.11027,
      42.69402
     ],
     [
      -73.11083,
      42.69445
     ],
     [
      -73.11182,
      42.69521
     ],
     [
      -73.112,
      42.69536
     ],
     [
      -73.11217,
      42.69552
     ]
    ]
   }
  },
  {
   "type": "Feature",
   "properties": {
    "company": "Berkshire Street Railway",
    "line": "Hoosac Valley Street Railway: Adams - North Adams",
    "id": "hoosac-valley-street-railway",
    "color": "#7C86E0",
    "mode": "streetcar",
    "avg_speed_kmh": 20,
    "speed_source": "estimated: interurban street running with frequent stops; unsourced",
    "geometry_quality": "APPROXIMATE, AND THE WEAKEST GEOMETRY IN THIS FILE. Drawn on today's MA Route 8 between Adams and North Adams -- 216 points, 8.18 km / 5.08 miles -- because no source found gives the Hoosac Valley Street Railway's street-by-street alignment. Route 8 is the valley's through road and the corridor the interurban followed, but part of the drawn line runs on the Curran Memorial Highway, a modern bypass that did not exist in the streetcar era; an attempt to route it entirely on older streets failed for lack of a continuous named-street path. Treat the corridor as right and the exact alignment as unverified. Note this is a DIFFERENT alignment from the railroad features in this file: the trolley ran in the street, the Boston and Albany branch on its own right-of-way about half a mile west.",
    "segments": [
     {
      "start": 1886,
      "end": 1889,
      "headway_min": 60,
      "note": "The Hoosac Valley Street Railway began operating between Adams and North Adams in 1886, giving the two towns a local service alongside the steam branch. Frequency estimated, unsourced."
     },
     {
      "start": 1889,
      "end": 1932,
      "headway_min": 30,
      "note": "Electrified in 1889 on 550 volt DC overhead wire, and later absorbed into the consolidated Berkshire Street Railway system. Streetcar service through Adams ended with the shutdown of the whole Berkshire Street Railway on November 12 1932. Frequency estimated, unsourced."
     }
    ]
   },
   "geometry": {
    "type": "LineString",
    "coordinates": [
     [
      -73.11867,
      42.62546
     ],
     [
      -73.11853,
      42.62563
     ],
     [
      -73.11851,
      42.62565
     ],
     [
      -73.11797,
      42.62636
     ],
     [
      -73.11773,
      42.62668
     ],
     [
      -73.11764,
      42.6268
     ],
     [
      -73.11756,
      42.6269
     ],
     [
      -73.1175,
      42.62697
     ],
     [
      -73.11744,
      42.62704
     ],
     [
      -73.11737,
      42.62711
     ],
     [
      -73.1173,
      42.62718
     ],
     [
      -73.11648,
      42.62803
     ],
     [
      -73.11629,
      42.62822
     ],
     [
      -73.11618,
      42.62835
     ],
     [
      -73.11608,
      42.62848
     ],
     [
      -73.11599,
      42.62862
     ],
     [
      -73.1158,
      42.62894
     ],
     [
      -73.11494,
      42.6304
     ],
     [
      -73.11487,
      42.63054
     ],
     [
      -73.11482,
      42.63067
     ],
     [
      -73.11477,
      42.63079
     ],
     [
      -73.11473,
      42.63092
     ],
     [
      -73.11471,
      42.63102
     ],
     [
      -73.1143,
      42.6325
     ],
     [
      -73.11429,
      42.63254
     ],
     [
      -73.11382,
      42.63417
     ],
     [
      -73.11379,
      42.63427
     ],
     [
      -73.11307,
      42.63675
     ],
     [
      -73.11307,
      42.63681
     ],
     [
      -73.11308,
      42.63686
     ],
     [
      -73.11311,
      42.63692
     ],
     [
      -73.11313,
      42.63696
     ],
     [
      -73.11315,
      42.63699
     ],
     [
      -73.11316,
      42.63701
     ],
     [
      -73.11316,
      42.63703
     ],
     [
      -73.11316,
      42.63705
     ],
     [
      -73.11316,
      42.63707
     ],
     [
      -73.11315,
      42.63709
     ],
     [
      -73.11314,
      42.6371
     ],
     [
      -73.11313,
      42.63712
     ],
     [
      -73.11311,
      42.63713
     ],
     [
      -73.1131,
      42.63714
     ],
     [
      -73.11308,
      42.63715
     ],
     [
      -73.11301,
      42.63721
     ],
     [
      -73.11295,
      42.63728
     ],
     [
      -73.1129,
      42.63734
     ],
     [
      -73.11287,
      42.63741
     ],
     [
      -73.11277,
      42.6377
     ],
     [
      -73.11263,
      42.63813
     ],
     [
      -73.11247,
      42.63868
     ],
     [
      -73.1124,
      42.6389
     ],
     [
      -73.11235,
      42.63912
     ],
     [
      -73.11232,
      42.63928
     ],
     [
      -73.11229,
      42.63943
     ],
     [
      -73.11227,
      42.6396
     ],
     [
      -73.11227,
      42.63976
     ],
     [
      -73.11227,
      42.63991
     ],
     [
      -73.11229,
      42.64081
     ],
     [
      -73.1123,
      42.64109
     ],
     [
      -73.11229,
      42.64137
     ],
     [
      -73.11227,
      42.64168
     ],
     [
      -73.11227,
      42.64182
     ],
     [
      -73.11222,
      42.64253
     ],
     [
      -73.11221,
      42.64268
     ],
     [
      -73.1122,
      42.64288
     ],
     [
      -73.11219,
      42.64302
     ],
     [
      -73.11218,
      42.64323
     ],
     [
      -73.11212,
      42.64445
     ],
     [
      -73.11206,
      42.64555
     ],
     [
      -73.11204,
      42.64601
     ],
     [
      -73.11202,
      42.64634
     ],
     [
      -73.11201,
      42.64656
     ],
     [
      -73.11198,
      42.6468
     ],
     [
      -73.11194,
      42.64706
     ],
     [
      -73.11189,
      42.64729
     ],
     [
      -73.11183,
      42.64757
     ],
     [
      -73.11175,
      42.64788
     ],
     [
      -73.11151,
      42.64888
     ],
     [
      -73.11129,
      42.6498
     ],
     [
      -73.11122,
      42.65008
     ],
     [
      -73.11106,
      42.65072
     ],
     [
      -73.11053,
      42.6529
     ],
     [
      -73.11021,
      42.65422
     ],
     [
      -73.10973,
      42.65621
     ],
     [
      -73.10964,
      42.65657
     ],
     [
      -73.10961,
      42.6569
     ],
     [
      -73.10959,
      42.65701
     ],
     [
      -73.10954,
      42.65727
     ],
     [
      -73.10948,
      42.65753
     ],
     [
      -73.10938,
      42.65795
     ],
     [
      -73.1091,
      42.65916
     ],
     [
      -73.10906,
      42.6593
     ],
     [
      -73.10887,
      42.66002
     ],
     [
      -73.1083,
      42.66223
     ],
     [
      -73.10822,
      42.66255
     ],
     [
      -73.10819,
      42.66266
     ],
     [
      -73.10816,
      42.66276
     ],
     [
      -73.10814,
      42.66287
     ],
     [
      -73.10812,
      42.66298
     ],
     [
      -73.1081,
      42.66309
     ],
     [
      -73.1081,
      42.66312
     ],
     [
      -73.10809,
      42.66319
     ],
     [
      -73.10808,
      42.66329
     ],
     [
      -73.10807,
      42.66339
     ],
     [
      -73.10806,
      42.6635
     ],
     [
      -73.10805,
      42.6636
     ],
     [
      -73.108,
      42.66434
     ],
     [
      -73.10794,
      42.66524
     ],
     [
      -73.10793,
      42.66536
     ],
     [
      -73.10793,
      42.66538
     ],
     [
      -73.10786,
      42.66649
     ],
     [
      -73.10777,
      42.6679
     ],
     [
      -73.10763,
      42.67007
     ],
     [
      -73.10758,
      42.67091
     ],
     [
      -73.10757,
      42.67102
     ],
     [
      -73.10741,
      42.67366
     ],
     [
      -73.10736,
      42.67439
     ],
     [
      -73.10735,
      42.67465
     ],
     [
      -73.10733,
      42.67509
     ],
     [
      -73.10731,
      42.67555
     ],
     [
      -73.10726,
      42.67615
     ],
     [
      -73.10721,
      42.67672
     ],
     [
      -73.10721,
      42.67713
     ],
     [
      -73.1072,
      42.67731
     ],
     [
      -73.10718,
      42.67748
     ],
     [
      -73.10714,
      42.67765
     ],
     [
      -73.1071,
      42.6778
     ],
     [
      -73.10705,
      42.67796
     ],
     [
      -73.10699,
      42.67812
     ],
     [
      -73.10676,
      42.67862
     ],
     [
      -73.10668,
      42.67882
     ],
     [
      -73.10662,
      42.67897
     ],
     [
      -73.10658,
      42.67914
     ],
     [
      -73.10655,
      42.67929
     ],
     [
      -73.10652,
      42.67944
     ],
     [
      -73.1065,
      42.67961
     ],
     [
      -73.1065,
      42.67977
     ],
     [
      -73.1065,
      42.67993
     ],
     [
      -73.10651,
      42.68002
     ],
     [
      -73.10652,
      42.68013
     ],
     [
      -73.10654,
      42.68025
     ],
     [
      -73.10656,
      42.68034
     ],
     [
      -73.10659,
      42.68046
     ],
     [
      -73.10675,
      42.68101
     ],
     [
      -73.10679,
      42.68117
     ],
     [
      -73.10682,
      42.68133
     ],
     [
      -73.10683,
      42.68148
     ],
     [
      -73.10683,
      42.68163
     ],
     [
      -73.10682,
      42.68178
     ],
     [
      -73.1068,
      42.68192
     ],
     [
      -73.10678,
      42.68208
     ],
     [
      -73.10675,
      42.68223
     ],
     [
      -73.1067,
      42.68244
     ],
     [
      -73.10668,
      42.68259
     ],
     [
      -73.10666,
      42.68274
     ],
     [
      -73.10666,
      42.68288
     ],
     [
      -73.10667,
      42.68304
     ],
     [
      -73.10668,
      42.68318
     ],
     [
      -73.10671,
      42.68332
     ],
     [
      -73.10675,
      42.68347
     ],
     [
      -73.1068,
      42.68361
     ],
     [
      -73.10686,
      42.68377
     ],
     [
      -73.10693,
      42.6839
     ],
     [
      -73.10702,
      42.68404
     ],
     [
      -73.10712,
      42.68418
     ],
     [
      -73.10723,
      42.68432
     ],
     [
      -73.10734,
      42.68445
     ],
     [
      -73.10746,
      42.68457
     ],
     [
      -73.10773,
      42.68486
     ],
     [
      -73.10852,
      42.68568
     ],
     [
      -73.10862,
      42.68578
     ],
     [
      -73.1089,
      42.68607
     ],
     [
      -73.10947,
      42.68668
     ],
     [
      -73.10971,
      42.68692
     ],
     [
      -73.11022,
      42.68745
     ],
     [
      -73.11036,
      42.6876
     ],
     [
      -73.11063,
      42.68788
     ],
     [
      -73.11091,
      42.68817
     ],
     [
      -73.11119,
      42.68846
     ],
     [
      -73.11159,
      42.68888
     ],
     [
      -73.11184,
      42.68915
     ],
     [
      -73.11192,
      42.68923
     ],
     [
      -73.11211,
      42.68941
     ],
     [
      -73.11228,
      42.68958
     ],
     [
      -73.11245,
      42.68974
     ],
     [
      -73.11263,
      42.68992
     ],
     [
      -73.11284,
      42.6901
     ],
     [
      -73.11302,
      42.69028
     ],
     [
      -73.11338,
      42.69061
     ],
     [
      -73.11356,
      42.69077
     ],
     [
      -73.11377,
      42.69096
     ],
     [
      -73.11389,
      42.69107
     ],
     [
      -73.11399,
      42.69118
     ],
     [
      -73.11408,
      42.69132
     ],
     [
      -73.11416,
      42.69144
     ],
     [
      -73.11422,
      42.69156
     ],
     [
      -73.11445,
      42.69201
     ],
     [
      -73.11456,
      42.69222
     ],
     [
      -73.11462,
      42.69236
     ],
     [
      -73.11465,
      42.69249
     ],
     [
      -73.11468,
      42.69263
     ],
     [
      -73.1147,
      42.69277
     ],
     [
      -73.1147,
      42.69291
     ],
     [
      -73.11469,
      42.69304
     ],
     [
      -73.11467,
      42.69318
     ],
     [
      -73.11464,
      42.69337
     ],
     [
      -73.11461,
      42.69353
     ],
     [
      -73.11457,
      42.69372
     ],
     [
      -73.11453,
      42.6939
     ],
     [
      -73.11443,
      42.69427
     ],
     [
      -73.11439,
      42.69443
     ],
     [
      -73.11437,
      42.69453
     ],
     [
      -73.11434,
      42.69463
     ],
     [
      -73.11428,
      42.69482
     ],
     [
      -73.11414,
      42.69529
     ],
     [
      -73.11399,
      42.69578
     ]
    ]
   }
  },
  {
   "type": "Feature",
   "properties": {
    "company": "Berkshire Scenic Railway Museum",
    "line": "Hoosac Valley Service: Adams - North Adams",
    "id": "hoosac-valley-service",
    "color": "#D9738F",
    "mode": "tourist_rail",
    "avg_speed_kmh": 25,
    "speed_source": "estimated: seasonal excursion train; unsourced",
    "geometry_quality": "Real-traced from the same OSM relation, the Adams-to-North Adams portion only -- the surviving rail, tagged as the Berkshire and Eastern Railroad's Adams Industrial Track. 93 points, 8.24 km / 5.12 miles, cut at Adams station (the split point is 5 m from the junction between the rail-trail section and the live track). No approximation.",
    "segments": [
     {
      "start": 2016,
      "end": 2026,
      "headway_min": 240,
      "note": "The Berkshire Scenic Railway Museum won a $200,000 state grant in 2014 to move its excursion operation to the Hoosac Valley and started running in 2016, putting passenger trains back into Adams 63 years after the last scheduled one. Hour-long round trips between Adams and North Adams leave from the platform beside the Adams Visitors Center, weekends from Memorial Day into October with holiday trains from Thanksgiving to Christmas. All-volunteer and seasonal, so the headway is a stand-in for an operating day, not a year-round frequency -- estimated, unsourced."
     }
    ]
   },
   "geometry": {
    "type": "LineString",
    "coordinates": [
     [
      -73.11744,
      42.62504
     ],
     [
      -73.1167,
      42.62655
     ],
     [
      -73.11665,
      42.62664
     ],
     [
      -73.11649,
      42.62696
     ],
     [
      -73.11625,
      42.6274
     ],
     [
      -73.11542,
      42.62892
     ],
     [
      -73.1154,
      42.62896
     ],
     [
      -73.11435,
      42.63098
     ],
     [
      -73.11366,
      42.6323
     ],
     [
      -73.11344,
      42.63277
     ],
     [
      -73.11325,
      42.6332
     ],
     [
      -73.1131,
      42.63363
     ],
     [
      -73.11296,
      42.63401
     ],
     [
      -73.11283,
      42.63444
     ],
     [
      -73.1127,
      42.63488
     ],
     [
      -73.11266,
      42.63502
     ],
     [
      -73.11236,
      42.63618
     ],
     [
      -73.11216,
      42.63687
     ],
     [
      -73.11201,
      42.63743
     ],
     [
      -73.11162,
      42.63883
     ],
     [
      -73.11151,
      42.63921
     ],
     [
      -73.11139,
      42.63964
     ],
     [
      -73.11076,
      42.64194
     ],
     [
      -73.11067,
      42.64226
     ],
     [
      -73.11055,
      42.64269
     ],
     [
      -73.11036,
      42.64337
     ],
     [
      -73.10897,
      42.6484
     ],
     [
      -73.10822,
      42.65109
     ],
     [
      -73.10794,
      42.65208
     ],
     [
      -73.10662,
      42.65686
     ],
     [
      -73.10432,
      42.66516
     ],
     [
      -73.10397,
      42.66641
     ],
     [
      -73.10325,
      42.66901
     ],
     [
      -73.1032,
      42.66918
     ],
     [
      -73.1026,
      42.67135
     ],
     [
      -73.10173,
      42.67449
     ],
     [
      -73.10164,
      42.67484
     ],
     [
      -73.10156,
      42.6752
     ],
     [
      -73.10149,
      42.67555
     ],
     [
      -73.10143,
      42.67591
     ],
     [
      -73.10138,
      42.67625
     ],
     [
      -73.10134,
      42.67656
     ],
     [
      -73.10134,
      42.67658
     ],
     [
      -73.10132,
      42.67694
     ],
     [
      -73.1013,
      42.67732
     ],
     [
      -73.1013,
      42.67763
     ],
     [
      -73.1013,
      42.67795
     ],
     [
      -73.10132,
      42.67828
     ],
     [
      -73.10135,
      42.67864
     ],
     [
      -73.10139,
      42.679
     ],
     [
      -73.10144,
      42.6794
     ],
     [
      -73.10151,
      42.6798
     ],
     [
      -73.1016,
      42.6802
     ],
     [
      -73.10169,
      42.68056
     ],
     [
      -73.1018,
      42.68099
     ],
     [
      -73.10194,
      42.68142
     ],
     [
      -73.10208,
      42.68179
     ],
     [
      -73.10224,
      42.68218
     ],
     [
      -73.10239,
      42.68253
     ],
     [
      -73.1026,
      42.68295
     ],
     [
      -73.10341,
      42.68459
     ],
     [
      -73.10359,
      42.68498
     ],
     [
      -73.1038,
      42.68541
     ],
     [
      -73.10398,
      42.6858
     ],
     [
      -73.10416,
      42.68622
     ],
     [
      -73.10434,
      42.68662
     ],
     [
      -73.1049,
      42.6879
     ],
     [
      -73.10505,
      42.68823
     ],
     [
      -73.10521,
      42.68853
     ],
     [
      -73.10537,
      42.68882
     ],
     [
      -73.10555,
      42.6891
     ],
     [
      -73.10576,
      42.6894
     ],
     [
      -73.10597,
      42.68969
     ],
     [
      -73.10644,
      42.69031
     ],
     [
      -73.10655,
      42.69043
     ],
     [
      -73.10672,
      42.69061
     ],
     [
      -73.10682,
      42.69073
     ],
     [
      -73.10704,
      42.69101
     ],
     [
      -73.10722,
      42.69124
     ],
     [
      -73.10738,
      42.69145
     ],
     [
      -73.10755,
      42.69166
     ],
     [
      -73.10774,
      42.69188
     ],
     [
      -73.10793,
      42.69208
     ],
     [
      -73.10812,
      42.69227
     ],
     [
      -73.10835,
      42.69248
     ],
     [
      -73.10858,
      42.69267
     ],
     [
      -73.10882,
      42.69287
     ],
     [
      -73.10906,
      42.69307
     ],
     [
      -73.11027,
      42.69402
     ],
     [
      -73.11083,
      42.69445
     ],
     [
      -73.11182,
      42.69521
     ],
     [
      -73.112,
      42.69536
     ],
     [
      -73.11217,
      42.69552
     ]
    ]
   }
  }
 ]
}