{"type": "FeatureCollection", "metadata": {"note": "Santa Fe's route into Lubbock from the north: Amarillo \u2013 Canyon \u2013 Happy \u2013 Tulia \u2013 Kress \u2013 Plainview \u2013 Hale Center \u2013 Abernathy \u2013 Lubbock, about 120 miles. Built by the Pecos and Northern Texas Railway, a Santa Fe subsidiary from 1901: Canyon\u2013Plainview opened February 27 1907 and Plainview\u2013Lubbock on January 9 1910, which is when Lubbock got its Santa Fe connection. The Panhandle and Santa Fe Railway leased the P&NT on June 5 1914 and absorbed it in 1948; the P&SF was itself merged into the AT&SF on August 1 1965. The passenger service was trains 93 and 96 -- the West Texas Express westbound, the Eastern Express eastbound -- worked in the early 1950s by articulated motor car M-190, then from 1955 (train 96 renumbered 94) by conventional trains with coaches and sleepers connecting at Amarillo with the San Francisco Chief. Discontinued June 19 1965. NOT DRAWN HERE: Lubbock was also a stop on Santa Fe's Coleman Cutoff (Sweetwater\u2013Coleman opened December 1 1911, Farwell\u2013Lubbock Junction March 1 1914), over which trains 65/66/75/76 -- the California Special -- ran Galveston/Houston \u2013 Temple \u2013 Brownwood \u2013 Sweetwater \u2013 Lubbock \u2013 Slaton \u2013 Clovis \u2013 California from February 7 1915 to July 18 1968. That route is a separate corridor and is not part of this layer, so Santa Fe passenger service at Lubbock actually outlasted the line drawn here by three years.", "sources": ["https://www.tshaonline.org/handbook/entries/pecos-and-northern-texas-railway", "https://www.tshaonline.org/handbook/entries/panhandle-and-santa-fe-railway", "https://en.wikipedia.org/wiki/West_Texas_Express", "https://browncountyhistory.org/passenger_trains.html"], "geometry_sources": ["OpenStreetMap via Overpass API (maps.mail.ru mirror), bbox 33.48,-102.15,35.32,-101.50, all railway=* ways. Corridor-weighted Dijkstra over a 25 m node-merged graph between Amarillo and Lubbock, corridor defined by the nine geocoded station towns. 999-point raw path, spike-cleaned and Douglas-Peucker simplified at 25 m to 106 points, 123.4 miles.", "Nominatim geocoding for the nine station towns."], "not_yet_sourced": "No timetable was consulted, so every headway_min and the avg_speed_kmh are estimates; the 1440-minute figures are inferred from trains 93/96 being a single daily round trip. Service frequency before 1948 is entirely unknown -- the 720-minute figures for 1910-1948 are guesses. The date passenger service on this specific branch began is assumed to be the January 9 1910 line opening; no source was found confirming scheduled passenger trains from that date. Whether the alignment was ever relocated between 1910 and 1965 has not been checked against a period valuation map.", "pulled": "20260824"}, "features": [{"type": "Feature", "properties": {"company": "Panhandle and Santa Fe Railway (Santa Fe subsidiary)", "line": "Panhandle and Santa Fe: Amarillo \u2013 Lubbock", "id": "psf-amarillo-lubbock", "color": "#003DA5", "mode": "intercity_rail", "avg_speed_kmh": 55, "speed_source": "Estimated. No Amarillo\u2013Lubbock schedule time was found for any era; 55 km/h is a plain guess for a 123-mile line with eight intermediate stops.", "geometry_quality": "Fully real-traced from OpenStreetMap -- no straight-line approximation anywhere on this feature, and no bridged gaps over 60 m. 146.3 km of the trace is BNSF Railway's Plainview Subdivision (the ex-Santa Fe Canyon\u2013Plainview\u2013Lubbock line), 16.8 km is BNSF's Hereford Subdivision over the Amarillo\u2013Canyon stretch the two routes share, 20.7 km is untagged rail (yard and connecting track at Amarillo and Lubbock), and about 1.6 km is other named track at the Amarillo terminal throat. Traced length 123.4 miles against a documented 120 miles (Amarillo\u2013Canyon about 17, Canyon\u2013Plainview 57 opened February 27 1907, Plainview\u2013Lubbock 46 opened January 9 1910); the 3 percent excess is normal curvature against round milepost figures. The trace passes within 1.1 km of all eight documented station towns (Amarillo 0.07, Canyon 0.42, Happy 0.19, Tulia 0.94, Kress 0.10, Plainview 1.07, Hale Center 0.44, Abernathy 0.40, Lubbock 0.32 km). Five yard-detour spikes were removed and the result carries no reversal over 120 degrees and no revisits. CAVEAT: this is today's BNSF alignment. The corridor is believed unrelocated since construction, but no period valuation map was consulted, and the exact terminal trackage into the Amarillo and Lubbock depots in 1910-1965 is not the same as the yard layout drawn here. Straight-line repair 2026-08-29: 2 ruled segments totalling 26 mi replaced with OpenStreetMap-traced rail geometry (see geometry_repairs for the OSM lines each one followed).", "segments": [{"start": 1910, "end": 1914, "headway_min": 720, "note": "The Pecos and Northern Texas Railway, a Santa Fe property since the AT&SF bought it in 1901, reached Lubbock on January 9 1910 with the 46-mile line up from Plainview, completing a through route from Amarillo south through Canyon (Canyon\u2013Plainview, 57 miles, had opened February 27 1907). Lubbock's rail connection to the Santa Fe system dates from this line. headway_min and avg_speed_kmh are estimates, not read off a timetable.", "sources": ["Segment-level: the January 9 1910 Plainview\u2013Lubbock opening (46 miles), the February 27 1907 Canyon\u2013Plainview opening (57 miles) and the AT&SF's 1901 acquisition of the P&NT are given in the Texas State Historical Association's P&NT entry; headway and speed are unsourced estimates.", "https://www.tshaonline.org/handbook/entries/pecos-and-northern-texas-railway"]}, {"start": 1914, "end": 1948, "headway_min": 720, "note": "The Panhandle and Santa Fe Railway took the name on June 5 1914 and leased the P&NT's properties, so this line was worked by the P&SF from then on. In the same year the P&NT completed the 88-mile Farwell\u2013Lubbock Junction line (March 1 1914), which with the Sweetwater\u2013Coleman line of December 1 1911 made Lubbock a crossing point on Santa Fe's Coleman Cutoff -- the Gulf-to-California short route -- as well as the end of this branch from Amarillo. headway_min and avg_speed_kmh are estimates, not read off a timetable.", "sources": ["Segment-level: the June 5 1914 P&SF name change and lease of P&NT properties, and the 1911 and 1914 Coleman Cutoff line openings, are given in the TSHA entries for the P&SF and the P&NT; headway and speed are unsourced estimates.", "https://www.tshaonline.org/handbook/entries/panhandle-and-santa-fe-railway", "https://www.tshaonline.org/handbook/entries/pecos-and-northern-texas-railway"]}, {"start": 1948, "end": 1955, "headway_min": 1440, "note": "The P&NT was merged outright into the P&SF in 1948. By the early 1950s the Amarillo\u2013Lubbock service was a single daily round trip worked by motor car -- trains 93 and 96, the westbound advertised as the West Texas Express and the eastbound as the Eastern Express, running as motor-trains with articulated motor car M-190. Stops: Canyon, Happy, Tulia, Kress, Plainview, Hale Center, Abernathy. headway_min and avg_speed_kmh are estimates, not read off a timetable.", "sources": ["Segment-level: the 1948 P&NT merger is from the TSHA P&NT entry; the train numbers, the West Texas Express / Eastern Express names, the M-190 motor car and the station list are from the West Texas Express article. Headway is inferred from 'trains 93 and 96' being a single daily round trip, not read off a timetable; speed is an unsourced estimate.", "https://www.tshaonline.org/handbook/entries/pecos-and-northern-texas-railway", "https://en.wikipedia.org/wiki/West_Texas_Express"]}, {"start": 1955, "end": 1965, "headway_min": 1440, "note": "In 1955 train 96 was renumbered 94 and the pair went back to conventional locomotive haulage -- baggage car, lightweight coaches and sleepers, connecting at Amarillo with the San Francisco Chief. Trains 93-94 were discontinued June 19 1965, six weeks before the Panhandle and Santa Fe Railway itself was merged into the AT&SF on August 1 1965, so no era of this line was ever operated by the parent Santa Fe under its own name. Freight continues over the route today as BNSF's Plainview Subdivision -- context, not passenger service, and not drawn. headway_min and avg_speed_kmh are estimates, not read off a timetable.", "sources": ["Segment-level: the 1955 renumbering, the change back to locomotive haulage, the San Francisco Chief connection at Amarillo and the June 19 1965 discontinuance are from the West Texas Express article; the August 1 1965 P&SF merger into the AT&SF is from the TSHA P&SF entry. Headway and speed are unsourced estimates.", "https://en.wikipedia.org/wiki/West_Texas_Express", "https://www.tshaonline.org/handbook/entries/panhandle-and-santa-fe-railway"]}], "geometry_repairs": [{"date": "2026-08-29", "from": [-101.84405, 34.0532], "to": [-101.84456, 33.85963], "chord_mi": 13.37, "traced_mi": 13.38, "snap_m": [1, 1], "bridged_mi": 0.0, "osm_lines": ["BNSF Plainview Subdivision (13.38 mi)"], "method": "Overpass rail graph, 8.0 km corridor, Dijkstra, simplified to 3.0 m"}, {"date": "2026-08-29", "from": [-101.77912, 34.52227], "to": [-101.74319, 34.34124], "chord_mi": 12.67, "traced_mi": 12.68, "snap_m": [0, 0], "bridged_mi": 0.0, "osm_lines": ["BNSF Plainview Subdivision (12.68 mi)"], "method": "Overpass rail graph, 8.0 km corridor, Dijkstra, simplified to 3.0 m"}]}, "geometry": {"type": "LineString", "coordinates": [[-101.8377, 35.20767], [-101.83707, 35.21085], [-101.83707, 35.21353], [-101.82982, 35.21283], [-101.82563, 35.21171], [-101.82692, 35.20619], [-101.82759, 35.19977], [-101.82952, 35.19958], [-101.82951, 35.19524], [-101.83091, 35.19375], [-101.83095, 35.19268], [-101.83198, 35.1912], [-101.83601, 35.18005], [-101.83724, 35.17802], [-101.8392, 35.17163], [-101.84023, 35.16998], [-101.84, 35.16799], [-101.8396, 35.16772], [-101.84094, 35.16711], [-101.84161, 35.16627], [-101.85263, 35.13639], [-101.85337, 35.13489], [-101.85492, 35.13331], [-101.85734, 35.12627], [-101.8572, 35.12297], [-101.85747, 35.12314], [-101.85865, 35.12142], [-101.85853, 35.12041], [-101.86001, 35.11452], [-101.85993, 35.11339], [-101.8616, 35.11205], [-101.87616, 35.07233], [-101.8944, 35.03881], [-101.89874, 35.02694], [-101.9047, 35.02048], [-101.91315, 35.00766], [-101.91358, 35.00454], [-101.91328, 34.99338], [-101.91404, 34.9904], [-101.91546, 34.98851], [-101.9173, 34.98712], [-101.9269, 34.98329], [-101.93079, 34.98252], [-101.94527, 34.98244], [-101.94681, 34.98156], [-101.94737, 34.97998], [-101.94234, 34.95781], [-101.91069, 34.89471], [-101.91019, 34.89262], [-101.91045, 34.88136], [-101.90992, 34.87895], [-101.86171, 34.76968], [-101.85465, 34.74559], [-101.85377, 34.74134], [-101.82807, 34.64947], [-101.78164, 34.54715], [-101.78005, 34.54338], [-101.78059, 34.5423], [-101.779, 34.54107], [-101.77867, 34.54027], [-101.77755, 34.53525], [-101.7791158, 34.5222673], [-101.7791867, 34.5207543], [-101.7790658, 34.5191829], [-101.7789621, 34.5185918], [-101.7623788, 34.441274], [-101.7431872, 34.3412382], [-101.70852, 34.25929], [-101.70777, 34.23423], [-101.70639, 34.23255], [-101.70771, 34.23223], [-101.70692, 34.19737], [-101.70614, 34.19498], [-101.70447, 34.19419], [-101.69624, 34.19294], [-101.69354, 34.19206], [-101.69241, 34.19054], [-101.6947, 34.17264], [-101.69576, 34.17019], [-101.69778, 34.16779], [-101.78174, 34.10406], [-101.8334, 34.07636], [-101.83565, 34.07352], [-101.8440536, 34.0531951], [-101.8442622, 34.052357], [-101.8444013, 34.0514961], [-101.8445117, 34.0500206], [-101.8445636, 33.859634], [-101.83698, 33.82276], [-101.83646, 33.7024], [-101.83782, 33.69741], [-101.84762, 33.67737], [-101.84798, 33.6752], [-101.84691, 33.66441], [-101.85425, 33.64948], [-101.8551, 33.64689], [-101.85542, 33.6444], [-101.85501, 33.61125], [-101.8553, 33.60341], [-101.85823, 33.59908], [-101.85528, 33.59882], [-101.85534, 33.59726], [-101.8494, 33.59435], [-101.84626, 33.59157], [-101.84506, 33.59095], [-101.844, 33.58981], [-101.84382, 33.58665]]}}]}