{"type": "FeatureCollection", "metadata": {"note": "South Texas - the largest hole the map had. Corpus Christi, Laredo and Brownsville had no passenger rail drawn in any year, and Austin\u2019s nearest drawn line was 66 km away, even though all four were served for decades. This layer draws the Missouri Pacific system that served them: the International-Great Northern from Taylor through Austin and San Antonio to Laredo (1876-1881), the San Antonio, Uvalde and Gulf - the \"Sausage\" - from San Antonio to Corpus Christi (1912-14), and the St. Louis, Brownsville and Mexico - the \"Brownie\" - from Robstown into the Lower Rio Grande Valley (1904); plus the independent Texas Mexican Railway from Corpus Christi to Laredo (1881). Two of the three Missouri Pacific predecessors are split at their purchase dates per the map\u2019s one-company-one-colour rule: the SAU&G in its own colour to December 1925 and the Brownie to the same date, with Missouri Pacific blue (#0057B8) after. The I-GN is drawn in Missouri Pacific blue throughout, since Jay Gould took control in December 1880, four years into its life, and it ran as a Missouri Pacific property from then until the outright merger of March 1 1956. The trains: the Sunshine Special from 1915, the Texas Eagle from August 1948 (with sections for Austin, San Antonio and Laredo) and the Valley Eagle from October 1948 (Houston - Brownsville, 371 miles, with a Corpus Christi section). The Valley Eagle\u2019s last run was in 1962; the Eagle between Laredo and Texarkana was cancelled on September 21 1970, the last Missouri Pacific passenger train in Texas.", "sources": ["https://en.wikipedia.org/wiki/International%E2%80%93Great_Northern_Railroad", "https://en.wikipedia.org/wiki/St._Louis,_Brownsville_and_Mexico_Railway", "https://en.wikipedia.org/wiki/Valley_Eagle", "https://en.wikipedia.org/wiki/Texas_Eagle_(MP_train)", "https://www.tshaonline.org/handbook/entries/san-antonio-uvalde-and-gulf-railroad", "https://www.tshaonline.org/handbook/entries/texas-mexican-railway", "https://en.wikipedia.org/wiki/Texas_Mexican_Railway", "http://www.arkansasrailroadhistory.com/TxEgle/Eagle-TX-1970.htm", "https://www.american-rails.com/txegl.html", "https://en.wikipedia.org/wiki/Sunshine_Special"], "geometry_sources": ["Traced from OpenStreetMap route relations pulled whole from the OSM API: 7529319 UP Austin Subdivision (San Antonio - San Marcos - Austin - Taylor), 7529467 UP Laredo Subdivision (San Antonio - Pearsall - Dilley - Cotulla - Laredo), 8815485 UP Corpus Christi Subdivision (San Antonio - Pleasanton - Three Rivers - Mathis - Corpus Christi, the ex-SAU&G), 1464268 UP Brownsville Subdivision (Robstown - Kingsville - Harlingen - Brownsville) and 1457969 CPKC Laredo Subdivision (Corpus Christi - Robstown - Alice - Hebbronville - Laredo, the ex-Tex-Mex). Node-id graph, Dijkstra between terminal stations, Douglas-Peucker at 15 m."], "not_yet_sourced": ["When the Texas Mexican Railway\u2019s own regular passenger service ended is not sourced anywhere consulted - TSHA, Wikipedia and american-rails all skip it. The Corpus Christi - Laredo feature is therefore drawn 1881-1902 and again 1986-89 with a deliberate hole between, rather than a guessed end year. Resolving this needs an Official Guide or a Texas Mexican timetable.", "A nameless night train is reported to have continued on the Corpus Christi route into 1965 or 1966 after the Valley Eagle was dropped in 1962. The report is too loose to draw (it does not say which segment), so both Corpus Christi features end in 1962 - an under-draw of up to four years.", "The Valley Eagle\u2019s Houston - Robstown leg (the St. Louis, Brownsville and Mexico line of December 31 1907, via Bay City and Victoria) is not drawn: the OSM Brownsville and Angleton subdivision relations do not connect through to Houston, so the Valley line currently ends at Robstown.", "The San Antonio and Aransas Pass route from San Antonio to Corpus Christi via Kenedy and Beeville - a separate railroad from the SAU&G line drawn here - is not drawn at all.", "No Missouri Pacific timetable was consulted for this layer, so every avg_speed_kmh on the I-GN features and every pre-1948 headway_min in the file is an estimate."], "passenger_only_rule": "Features end at the end of passenger service: 1962 in the Valley and at Corpus Christi, 1970 on the Austin - San Antonio - Laredo main line. Union Pacific and CPKC still run freight over all of it. Amtrak\u2019s Texas Eagle returned to the San Antonio - Austin - Taylor segment and is drawn in data/amtrak.geojson, not here."}, "features": [{"type": "Feature", "properties": {"company": "International\u2013Great Northern Railroad (Missouri Pacific)", "line": "International\u2013Great Northern: Austin \u2013 Taylor", "id": "ign-taylor-austin", "color": "#0057B8", "mode": "intercity_rail", "avg_speed_kmh": 70, "speed_source": "Estimated. No I-GN or Missouri Pacific timetable was consulted for this segment; 70 km/h is a guess for a main-line Texas run with few intermediate stops.", "segments": [{"start": 1876, "end": 1881, "headway_min": 720, "note": "The I-GN reached Austin on December 28 1876, building down from Hearne through Taylor; for five years Austin was the end of track and this was the last 33 miles of the line. Jay Gould took control of the I-GN in December 1880. headway_min is an unsourced estimate.", "sources": ["Segment-level: the December 28 1876 arrival at Austin and the December 1880 Gould takeover are from the Wikipedia I-GN article. headway_min and avg_speed_kmh are estimates.", "https://en.wikipedia.org/wiki/International%E2%80%93Great_Northern_Railroad"]}, {"start": 1881, "end": 1948, "headway_min": 720, "note": "Part of the through I-GN main line once the rails reached San Antonio in 1880 and Laredo on December 1 1881, carrying Missouri Pacific system trains including the Sunshine Special from 1915. The I-GN was merged into the Missouri Pacific outright on March 1 1956. headway_min is an unsourced estimate over a 67-year span.", "sources": ["NOT SOURCED AT SEGMENT LEVEL: the 1880/1881 construction dates and the March 1 1956 merger are from the Wikipedia I-GN article, but no timetable was consulted for train counts over this segment in this era.", "https://en.wikipedia.org/wiki/International%E2%80%93Great_Northern_Railroad"]}, {"start": 1948, "end": 1970, "headway_min": 1440, "note": "Texas Eagle era: the Missouri Pacific\u2019s streamliner debuted in mid-August 1948 and ran St. Louis and Memphis to Texas, with sections that split for Austin, San Antonio and Laredo. Missouri Pacific passenger service over this line ended on September 21 1970, when the Texas Railroad Commission granted the railroad\u2019s request to cancel the Eagle between Laredo and Texarkana effective immediately - the two trains already running became the last. Amtrak did not take the route over in 1971; it returned to Austin and San Antonio later and is drawn separately in data/amtrak.geojson.", "sources": ["Segment-level: the mid-August 1948 Texas Eagle debut is from american-rails.com and the Wikipedia Texas Eagle (MP train) article; the September 21 1970 Texas Railroad Commission cancellation is from arkansasrailroadhistory.com.", "https://en.wikipedia.org/wiki/Texas_Eagle_(MP_train)", "http://www.arkansasrailroadhistory.com/TxEgle/Eagle-TX-1970.htm"]}], "geometry_source": "Traced from OpenStreetMap route relations pulled whole from the OSM API: 7529319 UP Austin Subdivision (San Antonio - San Marcos - Austin - Taylor), 7529467 UP Laredo Subdivision (San Antonio - Pearsall - Dilley - Cotulla - Laredo), 8815485 UP Corpus Christi Subdivision (San Antonio - Pleasanton - Three Rivers - Mathis - Corpus Christi, the ex-SAU&G), 1464268 UP Brownsville Subdivision (Robstown - Kingsville - Harlingen - Brownsville) and 1457969 CPKC Laredo Subdivision (Corpus Christi - Robstown - Alice - Hebbronville - Laredo, the ex-Tex-Mex). Node-id graph, Dijkstra between terminal stations, Douglas-Peucker at 15 m.", "geometry_quality": "Traced from the UP Austin Subdivision relation (OSM 7529319), cut at Austin: 35.1 traced miles against a documented Austin - Taylor distance of about 33. Present-day alignment; no straight-line legs. Straight-line repair 2026-08-29: 1 ruled segment totalling 10 mi replaced with OpenStreetMap-traced rail geometry (see geometry_repairs for the OSM lines each one followed).", "geometry_repairs": [{"date": "2026-08-29", "from": [-97.61958, 30.52971], "to": [-97.44919, 30.55888], "chord_mi": 10.35, "traced_mi": 10.36, "snap_m": [1, 0], "bridged_mi": 0.0, "osm_lines": ["UP Austin Subdivision (10.36 mi)"], "method": "Overpass rail graph, 8.0 km corridor, Dijkstra, simplified to 3.0 m"}]}, "geometry": {"type": "LineString", "coordinates": [[-97.75339, 30.26696], [-97.75339, 30.26779], [-97.75397, 30.26847], [-97.76353, 30.2727], [-97.76481, 30.2735], [-97.76701, 30.27639], [-97.76753, 30.27828], [-97.7671, 30.2802], [-97.76523, 30.28398], [-97.76044, 30.29125], [-97.75953, 30.29364], [-97.75836, 30.29804], [-97.75823, 30.29957], [-97.75846, 30.30388], [-97.7572, 30.31018], [-97.75598, 30.32007], [-97.75547, 30.33495], [-97.75499, 30.33641], [-97.74426, 30.35928], [-97.72861, 30.39711], [-97.72838, 30.39975], [-97.73018, 30.42534], [-97.72743, 30.43977], [-97.72021, 30.45407], [-97.69962, 30.48597], [-97.69768, 30.48839], [-97.67885, 30.50602], [-97.67704, 30.5073], [-97.67512, 30.50806], [-97.65851, 30.5128], [-97.65084, 30.51708], [-97.619576, 30.5297069], [-97.617026, 30.530655], [-97.6144807, 30.5314223], [-97.612284, 30.531929], [-97.610684, 30.532227], [-97.608258, 30.532551], [-97.602444, 30.533109], [-97.6012151, 30.5332949], [-97.4671851, 30.5563281], [-97.4658255, 30.5564994], [-97.4544709, 30.5573871], [-97.45248, 30.5576115], [-97.4515759, 30.5578303], [-97.4504583, 30.558223], [-97.4491906, 30.5588793], [-97.4414, 30.56495], [-97.43938, 30.56571], [-97.40922, 30.56741]]}}, {"type": "Feature", "properties": {"company": "International\u2013Great Northern Railroad (Missouri Pacific)", "line": "International\u2013Great Northern: Austin \u2013 San Antonio", "id": "ign-austin-san-antonio", "color": "#0057B8", "mode": "intercity_rail", "avg_speed_kmh": 70, "speed_source": "Estimated, same basis as the Austin - Taylor feature.", "segments": [{"start": 1880, "end": 1948, "headway_min": 720, "note": "The I-GN pushed south from Austin through San Marcos and New Braunfels and reached San Antonio in 1880; Laredo followed on December 1 1881, making this the middle of a St. Louis - Mexico route. Jay Gould had taken control in December 1880, and the company was formally merged into the Missouri Pacific on March 1 1956. headway_min is an unsourced estimate.", "sources": ["NOT SOURCED AT SEGMENT LEVEL: construction and corporate dates are from the Wikipedia I-GN article; no period timetable was consulted for service levels. headway_min is an estimate.", "https://en.wikipedia.org/wiki/International%E2%80%93Great_Northern_Railroad"]}, {"start": 1948, "end": 1970, "headway_min": 1440, "note": "Texas Eagle era. Missouri Pacific passenger service over this line ended on September 21 1970, when the Texas Railroad Commission granted the railroad\u2019s request to cancel the Eagle between Laredo and Texarkana effective immediately - the two trains already running became the last. Amtrak did not take the route over in 1971; it returned to Austin and San Antonio later and is drawn separately in data/amtrak.geojson. Amtrak\u2019s Texas Eagle now runs this same San Antonio - San Marcos - Austin - Taylor line daily.", "sources": ["Segment-level: the September 21 1970 end is from arkansasrailroadhistory.com; the 1948 Texas Eagle debut from the Wikipedia Texas Eagle (MP train) article.", "http://www.arkansasrailroadhistory.com/TxEgle/Eagle-TX-1970.htm", "https://en.wikipedia.org/wiki/Texas_Eagle_(MP_train)"]}], "geometry_source": "Traced from OpenStreetMap route relations pulled whole from the OSM API: 7529319 UP Austin Subdivision (San Antonio - San Marcos - Austin - Taylor), 7529467 UP Laredo Subdivision (San Antonio - Pearsall - Dilley - Cotulla - Laredo), 8815485 UP Corpus Christi Subdivision (San Antonio - Pleasanton - Three Rivers - Mathis - Corpus Christi, the ex-SAU&G), 1464268 UP Brownsville Subdivision (Robstown - Kingsville - Harlingen - Brownsville) and 1457969 CPKC Laredo Subdivision (Corpus Christi - Robstown - Alice - Hebbronville - Laredo, the ex-Tex-Mex). Node-id graph, Dijkstra between terminal stations, Douglas-Peucker at 15 m.", "geometry_quality": "Traced from the UP Austin Subdivision relation (OSM 7529319): 79.2 traced miles against a documented Austin - San Antonio distance of about 80. Trace passes within 0.7 km of San Marcos. Present-day alignment; no straight-line legs."}, "geometry": {"type": "LineString", "coordinates": [[-98.5064, 29.42515], [-98.50591, 29.4308], [-98.50625, 29.43208], [-98.5074, 29.43433], [-98.50762, 29.43594], [-98.50449, 29.46064], [-98.50361, 29.46239], [-98.49673, 29.47224], [-98.47562, 29.51016], [-98.46907, 29.51827], [-98.45388, 29.53376], [-98.45188, 29.53536], [-98.43327, 29.54773], [-98.42943, 29.55172], [-98.41618, 29.56766], [-98.39885, 29.58239], [-98.39647, 29.58405], [-98.38092, 29.5932], [-98.37751, 29.5948], [-98.37134, 29.59664], [-98.36253, 29.59744], [-98.36092, 29.59778], [-98.35876, 29.59874], [-98.354, 29.60225], [-98.35011, 29.60365], [-98.31235, 29.61158], [-98.30107, 29.61697], [-98.26978, 29.62809], [-98.24047, 29.64527], [-98.22867, 29.65299], [-98.20338, 29.66725], [-98.19316, 29.6721], [-98.18247, 29.67935], [-98.16129, 29.69123], [-98.15307, 29.69642], [-98.13386, 29.70382], [-98.13247, 29.70404], [-98.13138, 29.70391], [-98.12892, 29.70259], [-98.12913, 29.71152], [-98.12868, 29.71376], [-98.12718, 29.71613], [-98.12381, 29.71921], [-98.12239, 29.72089], [-98.11686, 29.73004], [-98.11566, 29.73258], [-98.11386, 29.73903], [-98.11257, 29.7409], [-98.11047, 29.74218], [-98.10482, 29.74353], [-98.10212, 29.7449], [-98.06938, 29.77031], [-98.06681, 29.77178], [-98.0612, 29.77424], [-98.05917, 29.77556], [-98.0332, 29.79959], [-98.0105, 29.81685], [-98.0074, 29.81833], [-97.95355, 29.86183], [-97.95214, 29.8632], [-97.94325, 29.87461], [-97.94036, 29.87658], [-97.93107, 29.88167], [-97.92812, 29.88406], [-97.9274, 29.88506], [-97.92707, 29.88612], [-97.92759, 29.88964], [-97.9274, 29.89062], [-97.9269, 29.8915], [-97.9206, 29.89744], [-97.91613, 29.90082], [-97.91041, 29.9058], [-97.90816, 29.90844], [-97.90452, 29.91327], [-97.90373, 29.91523], [-97.90376, 29.91682], [-97.90553, 29.92192], [-97.90583, 29.92344], [-97.90567, 29.92622], [-97.90501, 29.92799], [-97.90418, 29.92902], [-97.89696, 29.93557], [-97.87896, 29.95745], [-97.87761, 29.96004], [-97.87662, 29.96413], [-97.87647, 29.96647], [-97.87824, 29.97295], [-97.87829, 29.97456], [-97.87544, 29.98558], [-97.86758, 30.02583], [-97.85958, 30.05331], [-97.84305, 30.08064], [-97.84139, 30.08417], [-97.83839, 30.09536], [-97.83233, 30.11512], [-97.83195, 30.11958], [-97.83226, 30.13068], [-97.82998, 30.14055], [-97.82762, 30.15031], [-97.81981, 30.17449], [-97.81716, 30.17938], [-97.79298, 30.21448], [-97.7911, 30.21581], [-97.78663, 30.21746], [-97.78468, 30.21787], [-97.78185, 30.21804], [-97.78044, 30.21842], [-97.77893, 30.21927], [-97.77779, 30.22044], [-97.777, 30.22229], [-97.77683, 30.22607], [-97.7765, 30.22769], [-97.77069, 30.24392], [-97.76924, 30.24584], [-97.76463, 30.24937], [-97.76213, 30.2522], [-97.75339, 30.26696]]}}, {"type": "Feature", "properties": {"company": "International\u2013Great Northern Railroad (Missouri Pacific)", "line": "International\u2013Great Northern: San Antonio \u2013 Laredo", "id": "ign-san-antonio-laredo", "color": "#0057B8", "mode": "intercity_rail", "avg_speed_kmh": 70, "speed_source": "Estimated. No timetable was consulted; 70 km/h is a guess for the brush-country main line.", "segments": [{"start": 1881, "end": 1948, "headway_min": 720, "note": "The I-GN completed its line to Laredo on the Rio Grande on December 1 1881, giving the Gould system a US gateway to the Mexican National lines at Nuevo Laredo. headway_min is an unsourced estimate over a 67-year span.", "sources": ["NOT SOURCED AT SEGMENT LEVEL: the December 1 1881 arrival at Laredo is from the Wikipedia I-GN article; no timetable was consulted for service levels in this era.", "https://en.wikipedia.org/wiki/International%E2%80%93Great_Northern_Railroad"]}, {"start": 1948, "end": 1970, "headway_min": 1440, "note": "Texas Eagle era, with the Laredo section running through to the border and connecting to National Railways of Mexico trains for Mexico City. Through San Antonio - Laredo - Nuevo Laredo coach service lasted into January 1969, and missouri Pacific passenger service over this line ended on September 21 1970, when the Texas Railroad Commission granted the railroad\u2019s request to cancel the Eagle between Laredo and Texarkana effective immediately - the two trains already running became the last. Amtrak did not take the route over in 1971; it returned to Austin and San Antonio later and is drawn separately in data/amtrak.geojson.", "sources": ["Segment-level: the January 1969 end of through Nuevo Laredo coach service and the September 21 1970 cancellation of the Eagle between Laredo and Texarkana are from arkansasrailroadhistory.com.", "http://www.arkansasrailroadhistory.com/TxEgle/Eagle-TX-1970.htm", "https://en.wikipedia.org/wiki/Texas_Eagle_(MP_train)"]}], "geometry_source": "Traced from OpenStreetMap route relations pulled whole from the OSM API: 7529319 UP Austin Subdivision (San Antonio - San Marcos - Austin - Taylor), 7529467 UP Laredo Subdivision (San Antonio - Pearsall - Dilley - Cotulla - Laredo), 8815485 UP Corpus Christi Subdivision (San Antonio - Pleasanton - Three Rivers - Mathis - Corpus Christi, the ex-SAU&G), 1464268 UP Brownsville Subdivision (Robstown - Kingsville - Harlingen - Brownsville) and 1457969 CPKC Laredo Subdivision (Corpus Christi - Robstown - Alice - Hebbronville - Laredo, the ex-Tex-Mex). Node-id graph, Dijkstra between terminal stations, Douglas-Peucker at 15 m.", "geometry_quality": "Traced from the UP Laredo Subdivision relation (OSM 7529467): 145.0 traced miles against a documented San Antonio - Laredo distance of about 150. Trace passes within 0.3 km of Pearsall, Dilley and Cotulla. The north end stops about 10 km short of downtown San Antonio, where the OSM subdivision relation ends at the edge of the terminal trackage; nothing is drawn across that gap. Straight-line repair 2026-08-29: 3 ruled segments totalling 49 mi replaced with OpenStreetMap-traced rail geometry (see geometry_repairs for the OSM lines each one followed).", "geometry_repairs": [{"date": "2026-08-29", "from": [-99.32601, 28.13803], "to": [-99.38505, 27.94409], "chord_mi": 13.87, "traced_mi": 13.88, "snap_m": [0, 1], "bridged_mi": 0.0, "osm_lines": ["UP Laredo Subdivision (13.88 mi)"], "method": "Overpass rail graph, 8.0 km corridor, Dijkstra, simplified to 3.0 m"}, {"date": "2026-08-29", "from": [-99.1521, 28.72556], "to": [-99.23577, 28.44886], "chord_mi": 19.78, "traced_mi": 19.79, "snap_m": [0, 0], "bridged_mi": 0.0, "osm_lines": ["UP Laredo Subdivision (19.79 mi)"], "method": "Overpass rail graph, 8.0 km corridor, Dijkstra, simplified to 3.0 m"}, {"date": "2026-08-29", "from": [-99.07522, 28.96626], "to": [-99.13972, 28.74468], "chord_mi": 15.8, "traced_mi": 15.8, "snap_m": [0, 0], "bridged_mi": 0.0, "osm_lines": ["UP Laredo Subdivision (15.8 mi)"], "method": "Overpass rail graph, 8.0 km corridor, Dijkstra, simplified to 3.0 m"}]}, "geometry": {"type": "LineString", "coordinates": [[-98.59695, 29.33124], [-98.61665, 29.31877], [-98.61835, 29.31748], [-98.6204, 29.31541], [-98.636, 29.29672], [-98.64175, 29.29176], [-98.64336, 29.2908], [-98.646, 29.28999], [-98.7051, 29.27892], [-98.70702, 29.27837], [-98.72338, 29.26986], [-98.76066, 29.25214], [-98.83556, 29.21373], [-98.86038, 29.19473], [-98.86254, 29.19272], [-98.8874, 29.16401], [-98.90566, 29.13745], [-98.92029, 29.11665], [-98.98177, 29.06972], [-99.01746, 29.04892], [-99.02502, 29.04125], [-99.03756, 29.03642], [-99.04726, 29.02928], [-99.04875, 29.02761], [-99.0752167, 28.9662626], [-99.0836695, 28.9373602], [-99.0977937, 28.8886432], [-99.0983759, 28.8867855], [-99.1239408, 28.7984339], [-99.125884, 28.791932], [-99.1302991, 28.7765363], [-99.1391254, 28.7461101], [-99.1397165, 28.7446829], [-99.1520969, 28.7255611], [-99.1524603, 28.7249436], [-99.1531054, 28.7235777], [-99.1533361, 28.7229903], [-99.1541038, 28.7205071], [-99.2310758, 28.4643297], [-99.2321503, 28.4608166], [-99.2325079, 28.4597873], [-99.2351732, 28.4534454], [-99.2355146, 28.4524406], [-99.235771, 28.4510598], [-99.2358343, 28.4500691], [-99.2357722, 28.4488588], [-99.23317, 28.43451], [-99.23319, 28.43248], [-99.23356, 28.43077], [-99.23483, 28.42818], [-99.24422, 28.4139], [-99.2527, 28.39987], [-99.25905, 28.3867], [-99.2614, 28.37771], [-99.26927, 28.3644], [-99.26979, 28.36317], [-99.27349, 28.31708], [-99.31013, 28.19731], [-99.3114, 28.19338], [-99.32545, 28.1556], [-99.32602, 28.1524], [-99.3260069, 28.1380274], [-99.3260609, 28.1370651], [-99.3262165, 28.1359091], [-99.3263308, 28.1353438], [-99.3268615, 28.1334783], [-99.3713841, 27.988742], [-99.3850516, 27.9440948], [-99.39939, 27.8902], [-99.39993, 27.887], [-99.40181, 27.86366], [-99.40235, 27.86104], [-99.42739, 27.77738], [-99.42807, 27.7756], [-99.43763, 27.75699], [-99.44196, 27.74405], [-99.44824, 27.71745], [-99.45759, 27.69082], [-99.45834, 27.68935], [-99.46547, 27.68093], [-99.4704, 27.66515], [-99.47107, 27.66365], [-99.48334, 27.64906], [-99.48444, 27.64732], [-99.49582, 27.59548], [-99.50137, 27.57912], [-99.51666, 27.52745], [-99.51704, 27.52475], [-99.51721, 27.50606]]}}, {"type": "Feature", "properties": {"company": "San Antonio, Uvalde and Gulf Railroad", "line": "San Antonio, Uvalde and Gulf: San Antonio \u2013 Corpus Christi", "id": "saug-san-antonio-corpus-christi", "color": "#4E9F3D", "mode": "intercity_rail", "avg_speed_kmh": 55, "speed_source": "Estimated. No SAU&G timetable was consulted; 55 km/h is a guess for a 1910s Texas short-line main.", "segments": [{"start": 1914, "end": 1925, "headway_min": 720, "note": "The \"Sausage\" - the nickname came from the initials SAU&G - built south from San Antonio through Pleasanton to Fowlerton, 78 miles opened November 19 1912, and then the 117-mile Pleasanton Junction to Corpus Christi line in stages between January 30 1913 and February 28 1914. This feature is drawn from 1914, when the whole route it covers was open. The railroad was independent until the New Orleans, Texas and Mexico bought it for the Missouri Pacific on December 1 1925, where this feature ends and the Missouri Pacific-coloured one begins. headway_min is an unsourced estimate.", "sources": ["Segment-level: the November 19 1912 San Antonio - Fowlerton opening, the January 30 1913 - February 28 1914 Pleasanton Junction - Corpus Christi stages, the \"Sausage\" nickname and the December 1 1925 purchase are all from the TSHA SAU&G handbook entry, which also records passenger earnings of $247,000 in 1916. headway_min and avg_speed_kmh are estimates.", "https://www.tshaonline.org/handbook/entries/san-antonio-uvalde-and-gulf-railroad"]}], "geometry_source": "Traced from OpenStreetMap route relations pulled whole from the OSM API: 7529319 UP Austin Subdivision (San Antonio - San Marcos - Austin - Taylor), 7529467 UP Laredo Subdivision (San Antonio - Pearsall - Dilley - Cotulla - Laredo), 8815485 UP Corpus Christi Subdivision (San Antonio - Pleasanton - Three Rivers - Mathis - Corpus Christi, the ex-SAU&G), 1464268 UP Brownsville Subdivision (Robstown - Kingsville - Harlingen - Brownsville) and 1457969 CPKC Laredo Subdivision (Corpus Christi - Robstown - Alice - Hebbronville - Laredo, the ex-Tex-Mex). Node-id graph, Dijkstra between terminal stations, Douglas-Peucker at 15 m.", "geometry_quality": "Traced from the UP Corpus Christi Subdivision relation (OSM 8815485): 146.1 traced miles San Antonio - Corpus Christi via Pleasanton, Three Rivers and Mathis, all within 0.7 km of the trace. This is the SAU&G alignment, not the older San Antonio and Aransas Pass route via Kenedy and Beeville, which lies 26-44 km east and is not drawn in this layer. The Corpus Christi end reaches the downtown waterfront; no straight-line legs."}, "geometry": {"type": "LineString", "coordinates": [[-98.53625, 29.39327], [-98.54016, 29.39041], [-98.54106, 29.3894], [-98.54155, 29.38802], [-98.54207, 29.38382], [-98.54178, 29.3816], [-98.53881, 29.37068], [-98.53864, 29.36272], [-98.53791, 29.35901], [-98.53684, 29.35656], [-98.52844, 29.34359], [-98.51688, 29.31984], [-98.51514, 29.31234], [-98.51524, 29.31022], [-98.51646, 29.30296], [-98.51636, 29.30152], [-98.51569, 29.29951], [-98.50089, 29.27702], [-98.49231, 29.26657], [-98.49053, 29.2618], [-98.48538, 29.2558], [-98.48464, 29.25423], [-98.48431, 29.25264], [-98.48361, 29.24075], [-98.48403, 29.23835], [-98.48508, 29.23643], [-98.49416, 29.22487], [-98.49559, 29.22233], [-98.49641, 29.21993], [-98.50263, 29.17937], [-98.50301, 29.17532], [-98.50254, 29.17217], [-98.49825, 29.15946], [-98.49783, 29.15763], [-98.49454, 29.1389], [-98.49494, 29.13409], [-98.49485, 29.13276], [-98.49451, 29.13147], [-98.49214, 29.12591], [-98.49205, 29.12364], [-98.49295, 29.11887], [-98.49279, 29.11616], [-98.48355, 29.08248], [-98.48367, 29.08017], [-98.48661, 29.06997], [-98.48702, 29.06738], [-98.487, 29.04427], [-98.4866, 29.04169], [-98.47829, 29.01447], [-98.47777, 29.01182], [-98.47776, 29.00931], [-98.48117, 28.97428], [-98.48099, 28.97197], [-98.4798, 28.96628], [-98.47936, 28.96531], [-98.47834, 28.9641], [-98.47649, 28.96298], [-98.46734, 28.96122], [-98.46494, 28.96147], [-98.44772, 28.96536], [-98.44598, 28.9654], [-98.44424, 28.96513], [-98.44135, 28.96389], [-98.41073, 28.94264], [-98.40845, 28.94005], [-98.3963, 28.9209], [-98.39416, 28.91798], [-98.39244, 28.91653], [-98.39029, 28.91537], [-98.37879, 28.91143], [-98.37709, 28.9103], [-98.37599, 28.90917], [-98.37497, 28.90744], [-98.37457, 28.90615], [-98.37376, 28.90096], [-98.37308, 28.89953], [-98.37206, 28.89832], [-98.36953, 28.89681], [-98.35933, 28.89339], [-98.35668, 28.89149], [-98.35537, 28.89], [-98.35444, 28.88839], [-98.35337, 28.88455], [-98.34356, 28.83464], [-98.34259, 28.83246], [-98.3408, 28.83025], [-98.33857, 28.82861], [-98.3349, 28.827], [-98.33251, 28.82565], [-98.33019, 28.82336], [-98.32899, 28.8213], [-98.31376, 28.75897], [-98.31285, 28.75701], [-98.31162, 28.75512], [-98.30466, 28.74703], [-98.30346, 28.74528], [-98.29669, 28.72639], [-98.29633, 28.72402], [-98.2964, 28.72146], [-98.29928, 28.7074], [-98.29899, 28.70176], [-98.2987, 28.70034], [-98.29792, 28.69861], [-98.29381, 28.694], [-98.29318, 28.69254], [-98.29298, 28.69114], [-98.29345, 28.68882], [-98.29797, 28.67831], [-98.29842, 28.67626], [-98.29842, 28.67457], [-98.29782, 28.6719], [-98.28878, 28.64555], [-98.28751, 28.64347], [-98.2855, 28.64152], [-98.25725, 28.62254], [-98.2479, 28.61489], [-98.24577, 28.61278], [-98.23041, 28.59472], [-98.22858, 28.59294], [-98.22681, 28.59178], [-98.21208, 28.58387], [-98.20611, 28.57964], [-98.20491, 28.57833], [-98.20395, 28.57652], [-98.19999, 28.55215], [-98.18833, 28.5244], [-98.18758, 28.52208], [-98.18154, 28.48005], [-98.18153, 28.4785], [-98.18185, 28.47664], [-98.18613, 28.46064], [-98.18709, 28.45782], [-98.18753, 28.45546], [-98.1876, 28.45309], [-98.18731, 28.45099], [-98.18441, 28.44308], [-98.18404, 28.44098], [-98.18462, 28.43831], [-98.18718, 28.43447], [-98.18802, 28.43248], [-98.18806, 28.42992], [-98.18715, 28.42762], [-98.18587, 28.42613], [-98.18396, 28.42489], [-98.18187, 28.42416], [-98.17706, 28.42347], [-98.17516, 28.42298], [-98.17356, 28.42209], [-98.17223, 28.42084], [-98.17127, 28.41908], [-98.16669, 28.40473], [-98.16558, 28.39829], [-98.16484, 28.39671], [-98.1637, 28.39526], [-98.16091, 28.39339], [-98.15563, 28.3919], [-98.15378, 28.39114], [-98.14407, 28.38598], [-98.14278, 28.385], [-98.14171, 28.38379], [-98.14061, 28.38158], [-98.13914, 28.37644], [-98.13775, 28.37377], [-98.13295, 28.36713], [-98.11555, 28.34059], [-98.09928, 28.32042], [-98.09234, 28.30642], [-98.09111, 28.3047], [-98.08942, 28.30314], [-98.08814, 28.30231], [-98.08577, 28.30128], [-98.05083, 28.28943], [-98.04816, 28.28821], [-98.04576, 28.28626], [-98.04296, 28.2827], [-98.04076, 28.27805], [-98.0392, 28.27624], [-98.0321, 28.27213], [-98.02741, 28.27003], [-98.02255, 28.26745], [-98.01633, 28.26303], [-98.01455, 28.26204], [-98.01148, 28.26142], [-98.00627, 28.2618], [-98.00415, 28.26166], [-98.0017, 28.26106], [-97.99961, 28.26009], [-97.99712, 28.25819], [-97.97158, 28.23566], [-97.96776, 28.23314], [-97.90905, 28.21308], [-97.90573, 28.21152], [-97.90235, 28.20888], [-97.90011, 28.20613], [-97.89269, 28.19572], [-97.89133, 28.19347], [-97.87327, 28.14909], [-97.87208, 28.14675], [-97.8708, 28.145], [-97.85704, 28.13186], [-97.83081, 28.1006], [-97.81639, 28.08954], [-97.78793, 28.06143], [-97.78586, 28.05868], [-97.78073, 28.04931], [-97.77503, 28.04156], [-97.77395, 28.03932], [-97.77245, 28.03489], [-97.77068, 28.03196], [-97.721, 27.98272], [-97.71714, 27.98042], [-97.71284, 27.9791], [-97.60945, 27.96282], [-97.6066, 27.96188], [-97.60411, 27.96063], [-97.59339, 27.9535], [-97.58906, 27.95226], [-97.58682, 27.95137], [-97.5786, 27.94583], [-97.57738, 27.94457], [-97.57653, 27.94297], [-97.57621, 27.9413], [-97.57189, 27.89578], [-97.57142, 27.89296], [-97.57042, 27.89029], [-97.5583, 27.86565], [-97.55579, 27.85821], [-97.55401, 27.85603], [-97.55247, 27.85502], [-97.53852, 27.84793], [-97.52122, 27.841], [-97.49789, 27.8262], [-97.48977, 27.82259], [-97.48516, 27.82086], [-97.48013, 27.81848], [-97.47473, 27.81678], [-97.46559, 27.81519], [-97.45817, 27.81289], [-97.45551, 27.81239], [-97.45237, 27.81238], [-97.44474, 27.81334], [-97.44275, 27.81308], [-97.43833, 27.8119], [-97.43631, 27.81175], [-97.42845, 27.81324], [-97.42632, 27.81323], [-97.42467, 27.81272], [-97.41739, 27.8092], [-97.41496, 27.80848], [-97.41078, 27.80767]]}}, {"type": "Feature", "properties": {"company": "Missouri Pacific Railroad", "line": "Missouri Pacific: San Antonio \u2013 Corpus Christi", "id": "mp-san-antonio-corpus-christi", "color": "#0057B8", "mode": "intercity_rail", "avg_speed_kmh": 67, "speed_source": "From the Valley Eagle\u2019s own schedule: 371 miles Houston - Brownsville in 8h55 southbound per the 1960 timetable = 42 mph = 67 km/h. That is the sister route, not this segment, but the same trains and the same territory.", "segments": [{"start": 1925, "end": 1948, "headway_min": 720, "note": "Missouri Pacific property from December 1 1925, when the New Orleans, Texas and Mexico bought the SAU&G for it; the SAU&G corporate shell survived until the March 1 1956 merger into the Missouri Pacific. headway_min is an unsourced estimate.", "sources": ["NOT SOURCED AT SEGMENT LEVEL: the December 1 1925 purchase and March 1 1956 merger are from the TSHA SAU&G entry; no timetable was consulted for service levels in this era.", "https://www.tshaonline.org/handbook/entries/san-antonio-uvalde-and-gulf-railroad"]}, {"start": 1948, "end": 1962, "headway_min": 1440, "note": "From October 1948 the Valley Eagle ran Houston - Brownsville with a second section serving Corpus Christi, which is the streamliner era for this line. The Valley Eagle made its final run in 1962. Drawn years end there; a nameless night train is said to have carried on into 1965 or 1966 over part of the route, but not on a source good enough to draw - see the layer\u2019s not_yet_sourced field.", "sources": ["Segment-level: the 1948 inaugural, the Corpus Christi section and the 1962 final run are from the Wikipedia Valley Eagle article, which also supplies the 1960 running times used for avg_speed_kmh.", "https://en.wikipedia.org/wiki/Valley_Eagle"]}], "geometry_source": "Traced from OpenStreetMap route relations pulled whole from the OSM API: 7529319 UP Austin Subdivision (San Antonio - San Marcos - Austin - Taylor), 7529467 UP Laredo Subdivision (San Antonio - Pearsall - Dilley - Cotulla - Laredo), 8815485 UP Corpus Christi Subdivision (San Antonio - Pleasanton - Three Rivers - Mathis - Corpus Christi, the ex-SAU&G), 1464268 UP Brownsville Subdivision (Robstown - Kingsville - Harlingen - Brownsville) and 1457969 CPKC Laredo Subdivision (Corpus Christi - Robstown - Alice - Hebbronville - Laredo, the ex-Tex-Mex). Node-id graph, Dijkstra between terminal stations, Douglas-Peucker at 15 m.", "geometry_quality": "Traced from the UP Corpus Christi Subdivision relation (OSM 8815485): 146.1 traced miles San Antonio - Corpus Christi via Pleasanton, Three Rivers and Mathis, all within 0.7 km of the trace. This is the SAU&G alignment, not the older San Antonio and Aransas Pass route via Kenedy and Beeville, which lies 26-44 km east and is not drawn in this layer. The Corpus Christi end reaches the downtown waterfront; no straight-line legs."}, "geometry": {"type": "LineString", "coordinates": [[-98.53625, 29.39327], [-98.54016, 29.39041], [-98.54106, 29.3894], [-98.54155, 29.38802], [-98.54207, 29.38382], [-98.54178, 29.3816], [-98.53881, 29.37068], [-98.53864, 29.36272], [-98.53791, 29.35901], [-98.53684, 29.35656], [-98.52844, 29.34359], [-98.51688, 29.31984], [-98.51514, 29.31234], [-98.51524, 29.31022], [-98.51646, 29.30296], [-98.51636, 29.30152], [-98.51569, 29.29951], [-98.50089, 29.27702], [-98.49231, 29.26657], [-98.49053, 29.2618], [-98.48538, 29.2558], [-98.48464, 29.25423], [-98.48431, 29.25264], [-98.48361, 29.24075], [-98.48403, 29.23835], [-98.48508, 29.23643], [-98.49416, 29.22487], [-98.49559, 29.22233], [-98.49641, 29.21993], [-98.50263, 29.17937], [-98.50301, 29.17532], [-98.50254, 29.17217], [-98.49825, 29.15946], [-98.49783, 29.15763], [-98.49454, 29.1389], [-98.49494, 29.13409], [-98.49485, 29.13276], [-98.49451, 29.13147], [-98.49214, 29.12591], [-98.49205, 29.12364], [-98.49295, 29.11887], [-98.49279, 29.11616], [-98.48355, 29.08248], [-98.48367, 29.08017], [-98.48661, 29.06997], [-98.48702, 29.06738], [-98.487, 29.04427], [-98.4866, 29.04169], [-98.47829, 29.01447], [-98.47777, 29.01182], [-98.47776, 29.00931], [-98.48117, 28.97428], [-98.48099, 28.97197], [-98.4798, 28.96628], [-98.47936, 28.96531], [-98.47834, 28.9641], [-98.47649, 28.96298], [-98.46734, 28.96122], [-98.46494, 28.96147], [-98.44772, 28.96536], [-98.44598, 28.9654], [-98.44424, 28.96513], [-98.44135, 28.96389], [-98.41073, 28.94264], [-98.40845, 28.94005], [-98.3963, 28.9209], [-98.39416, 28.91798], [-98.39244, 28.91653], [-98.39029, 28.91537], [-98.37879, 28.91143], [-98.37709, 28.9103], [-98.37599, 28.90917], [-98.37497, 28.90744], [-98.37457, 28.90615], [-98.37376, 28.90096], [-98.37308, 28.89953], [-98.37206, 28.89832], [-98.36953, 28.89681], [-98.35933, 28.89339], [-98.35668, 28.89149], [-98.35537, 28.89], [-98.35444, 28.88839], [-98.35337, 28.88455], [-98.34356, 28.83464], [-98.34259, 28.83246], [-98.3408, 28.83025], [-98.33857, 28.82861], [-98.3349, 28.827], [-98.33251, 28.82565], [-98.33019, 28.82336], [-98.32899, 28.8213], [-98.31376, 28.75897], [-98.31285, 28.75701], [-98.31162, 28.75512], [-98.30466, 28.74703], [-98.30346, 28.74528], [-98.29669, 28.72639], [-98.29633, 28.72402], [-98.2964, 28.72146], [-98.29928, 28.7074], [-98.29899, 28.70176], [-98.2987, 28.70034], [-98.29792, 28.69861], [-98.29381, 28.694], [-98.29318, 28.69254], [-98.29298, 28.69114], [-98.29345, 28.68882], [-98.29797, 28.67831], [-98.29842, 28.67626], [-98.29842, 28.67457], [-98.29782, 28.6719], [-98.28878, 28.64555], [-98.28751, 28.64347], [-98.2855, 28.64152], [-98.25725, 28.62254], [-98.2479, 28.61489], [-98.24577, 28.61278], [-98.23041, 28.59472], [-98.22858, 28.59294], [-98.22681, 28.59178], [-98.21208, 28.58387], [-98.20611, 28.57964], [-98.20491, 28.57833], [-98.20395, 28.57652], [-98.19999, 28.55215], [-98.18833, 28.5244], [-98.18758, 28.52208], [-98.18154, 28.48005], [-98.18153, 28.4785], [-98.18185, 28.47664], [-98.18613, 28.46064], [-98.18709, 28.45782], [-98.18753, 28.45546], [-98.1876, 28.45309], [-98.18731, 28.45099], [-98.18441, 28.44308], [-98.18404, 28.44098], [-98.18462, 28.43831], [-98.18718, 28.43447], [-98.18802, 28.43248], [-98.18806, 28.42992], [-98.18715, 28.42762], [-98.18587, 28.42613], [-98.18396, 28.42489], [-98.18187, 28.42416], [-98.17706, 28.42347], [-98.17516, 28.42298], [-98.17356, 28.42209], [-98.17223, 28.42084], [-98.17127, 28.41908], [-98.16669, 28.40473], [-98.16558, 28.39829], [-98.16484, 28.39671], [-98.1637, 28.39526], [-98.16091, 28.39339], [-98.15563, 28.3919], [-98.15378, 28.39114], [-98.14407, 28.38598], [-98.14278, 28.385], [-98.14171, 28.38379], [-98.14061, 28.38158], [-98.13914, 28.37644], [-98.13775, 28.37377], [-98.13295, 28.36713], [-98.11555, 28.34059], [-98.09928, 28.32042], [-98.09234, 28.30642], [-98.09111, 28.3047], [-98.08942, 28.30314], [-98.08814, 28.30231], [-98.08577, 28.30128], [-98.05083, 28.28943], [-98.04816, 28.28821], [-98.04576, 28.28626], [-98.04296, 28.2827], [-98.04076, 28.27805], [-98.0392, 28.27624], [-98.0321, 28.27213], [-98.02741, 28.27003], [-98.02255, 28.26745], [-98.01633, 28.26303], [-98.01455, 28.26204], [-98.01148, 28.26142], [-98.00627, 28.2618], [-98.00415, 28.26166], [-98.0017, 28.26106], [-97.99961, 28.26009], [-97.99712, 28.25819], [-97.97158, 28.23566], [-97.96776, 28.23314], [-97.90905, 28.21308], [-97.90573, 28.21152], [-97.90235, 28.20888], [-97.90011, 28.20613], [-97.89269, 28.19572], [-97.89133, 28.19347], [-97.87327, 28.14909], [-97.87208, 28.14675], [-97.8708, 28.145], [-97.85704, 28.13186], [-97.83081, 28.1006], [-97.81639, 28.08954], [-97.78793, 28.06143], [-97.78586, 28.05868], [-97.78073, 28.04931], [-97.77503, 28.04156], [-97.77395, 28.03932], [-97.77245, 28.03489], [-97.77068, 28.03196], [-97.721, 27.98272], [-97.71714, 27.98042], [-97.71284, 27.9791], [-97.60945, 27.96282], [-97.6066, 27.96188], [-97.60411, 27.96063], [-97.59339, 27.9535], [-97.58906, 27.95226], [-97.58682, 27.95137], [-97.5786, 27.94583], [-97.57738, 27.94457], [-97.57653, 27.94297], [-97.57621, 27.9413], [-97.57189, 27.89578], [-97.57142, 27.89296], [-97.57042, 27.89029], [-97.5583, 27.86565], [-97.55579, 27.85821], [-97.55401, 27.85603], [-97.55247, 27.85502], [-97.53852, 27.84793], [-97.52122, 27.841], [-97.49789, 27.8262], [-97.48977, 27.82259], [-97.48516, 27.82086], [-97.48013, 27.81848], [-97.47473, 27.81678], [-97.46559, 27.81519], [-97.45817, 27.81289], [-97.45551, 27.81239], [-97.45237, 27.81238], [-97.44474, 27.81334], [-97.44275, 27.81308], [-97.43833, 27.8119], [-97.43631, 27.81175], [-97.42845, 27.81324], [-97.42632, 27.81323], [-97.42467, 27.81272], [-97.41739, 27.8092], [-97.41496, 27.80848], [-97.41078, 27.80767]]}}, {"type": "Feature", "properties": {"company": "St. Louis, Brownsville and Mexico Railway", "line": "St. Louis, Brownsville and Mexico: Robstown \u2013 Brownsville", "id": "stlbm-robstown-brownsville", "color": "#FB5607", "mode": "intercity_rail", "avg_speed_kmh": 55, "speed_source": "Estimated. No pre-1948 timetable was consulted; 55 km/h is a guess for the era.", "segments": [{"start": 1904, "end": 1925, "headway_min": 720, "note": "The \"Brownie\", chartered June 6 1903 as part of Benjamin Yoakum\u2019s Chicago-to-Mexico-City scheme: the first segment of track, Robstown to Brownsville, was completed on July 4 1904 and opened the Lower Rio Grande Valley to the rest of the country. Its Robstown - Houston line followed on December 31 1907. The securities passed to the Gulf Coast Lines in 1916 and the Missouri Pacific bought the property in December 1924, taking effective control from 1925. headway_min is an unsourced estimate.", "sources": ["Segment-level: the June 6 1903 charter, the July 4 1904 Robstown - Brownsville completion, the December 31 1907 Houston line, the Gulf Coast Lines era and the December 1924 Missouri Pacific purchase are all from the Wikipedia St. Louis, Brownsville and Mexico article. headway_min and avg_speed_kmh are estimates.", "https://en.wikipedia.org/wiki/St._Louis,_Brownsville_and_Mexico_Railway"]}], "geometry_source": "Traced from OpenStreetMap route relations pulled whole from the OSM API: 7529319 UP Austin Subdivision (San Antonio - San Marcos - Austin - Taylor), 7529467 UP Laredo Subdivision (San Antonio - Pearsall - Dilley - Cotulla - Laredo), 8815485 UP Corpus Christi Subdivision (San Antonio - Pleasanton - Three Rivers - Mathis - Corpus Christi, the ex-SAU&G), 1464268 UP Brownsville Subdivision (Robstown - Kingsville - Harlingen - Brownsville) and 1457969 CPKC Laredo Subdivision (Corpus Christi - Robstown - Alice - Hebbronville - Laredo, the ex-Tex-Mex). Node-id graph, Dijkstra between terminal stations, Douglas-Peucker at 15 m.", "geometry_quality": "Traced from the UP Brownsville Subdivision relation (OSM 1464268): 134.3 traced miles Robstown - Kingsville - Harlingen - Brownsville, each of those towns within 1.3 km of the trace. The south end stops 11.4 km short of downtown Brownsville, where the modern relation ends - the original approach into the city was relocated to a bypass in the 2010s and is not usable here; nothing is drawn across that gap. The line north of Robstown towards Sinton and Houston - the rest of the Valley Eagle\u2019s route - is not drawn: the OSM relations for it do not connect through to Houston. Straight-line repair 2026-08-29: 3 ruled segments totalling 37 mi replaced with OpenStreetMap-traced rail geometry (see geometry_repairs for the OSM lines each one followed).", "geometry_repairs": [{"date": "2026-08-29", "from": [-97.79039, 26.33464], "to": [-97.69369, 26.18695], "chord_mi": 11.82, "traced_mi": 11.84, "snap_m": [1, 1], "bridged_mi": 0.0, "osm_lines": ["UP Brownsville Subdivision (11.84 mi)"], "method": "Overpass rail graph, 8.0 km corridor, Dijkstra, simplified to 3.0 m"}, {"date": "2026-08-29", "from": [-97.86798, 27.47898], "to": [-97.80701, 27.27385], "chord_mi": 14.66, "traced_mi": 14.67, "snap_m": [0, 0], "bridged_mi": 0.0, "osm_lines": ["UP Brownsville Subdivision (14.67 mi)"], "method": "Overpass rail graph, 8.0 km corridor, Dijkstra, simplified to 3.0 m"}, {"date": "2026-08-29", "from": [-97.77036, 26.75256], "to": [-97.7672, 26.59635], "chord_mi": 10.79, "traced_mi": 10.8, "snap_m": [0, 0], "bridged_mi": 0.0, "osm_lines": ["UP Brownsville Subdivision (10.8 mi)"], "method": "Overpass rail graph, 8.0 km corridor, Dijkstra, simplified to 3.0 m"}]}, "geometry": {"type": "LineString", "coordinates": [[-97.66248, 27.78716], [-97.73914, 27.69251], [-97.79304, 27.59245], [-97.7943, 27.5911], [-97.86606, 27.52856], [-97.8678, 27.52631], [-97.86857, 27.52367], [-97.8679807, 27.4789844], [-97.8679136, 27.4776527], [-97.8676737, 27.4760914], [-97.8674917, 27.4753514], [-97.8433455, 27.3933436], [-97.8105133, 27.2812155], [-97.8100746, 27.2801603], [-97.8095343, 27.2792465], [-97.8082724, 27.2775385], [-97.8078631, 27.2768618], [-97.8075725, 27.276273], [-97.8073404, 27.2756783], [-97.807228, 27.2752395], [-97.8070467, 27.2743076], [-97.8070104, 27.2738543], [-97.80657, 27.25346], [-97.80624, 27.25108], [-97.79574, 27.2316], [-97.79483, 27.22913], [-97.7924, 27.2191], [-97.7926, 27.2165], [-97.8025, 27.16832], [-97.79474, 27.11133], [-97.79399, 27.06776], [-97.796, 26.98025], [-97.78892, 26.87333], [-97.7703637, 26.7525623], [-97.7702779, 26.7501633], [-97.7700118, 26.7352319], [-97.7693166, 26.7031089], [-97.768836, 26.677921], [-97.7686814, 26.6720737], [-97.7684713, 26.6594619], [-97.7682695, 26.6511478], [-97.768226, 26.6473241], [-97.768158, 26.6462382], [-97.7681048, 26.6409436], [-97.7675915, 26.6176967], [-97.7671967, 26.5963473], [-97.78869, 26.44148], [-97.79182, 26.38043], [-97.79136, 26.33862], [-97.7903869, 26.3346363], [-97.7900045, 26.3337832], [-97.789375, 26.332577], [-97.788745, 26.331593], [-97.760276, 26.288094], [-97.7441598, 26.2633812], [-97.743891, 26.262884], [-97.742727, 26.261093], [-97.7386261, 26.2548992], [-97.736957, 26.252255], [-97.7354648, 26.2500678], [-97.6967764, 26.190669], [-97.6960539, 26.1896119], [-97.6953632, 26.1887], [-97.6943057, 26.1875302], [-97.6936877, 26.1869453], [-97.59619, 26.1002], [-97.59354, 26.09763], [-97.57968, 26.0797], [-97.56415, 26.0573], [-97.5365, 26.03242], [-97.53522, 26.03087], [-97.53417, 26.0282], [-97.53004, 26.00019]]}}, {"type": "Feature", "properties": {"company": "Missouri Pacific Railroad", "line": "Missouri Pacific: Robstown \u2013 Brownsville", "id": "mp-robstown-brownsville", "color": "#0057B8", "mode": "intercity_rail", "avg_speed_kmh": 67, "speed_source": "From the Valley Eagle\u2019s 1960 timetable: 371 miles Houston - Brownsville in 8h55 southbound = 42 mph = 67 km/h.", "segments": [{"start": 1925, "end": 1948, "headway_min": 720, "note": "Missouri Pacific-controlled from the December 1924 purchase; the St. Louis, Brownsville and Mexico kept its own corporate shell until the March 1 1956 merger. headway_min is an unsourced estimate.", "sources": ["NOT SOURCED AT SEGMENT LEVEL: ownership dates are from the Wikipedia St. Louis, Brownsville and Mexico article; no timetable was consulted for service levels in this era.", "https://en.wikipedia.org/wiki/St._Louis,_Brownsville_and_Mexico_Railway"]}, {"start": 1948, "end": 1962, "headway_min": 1440, "note": "The Valley Eagle, inaugurated October 1948, ran Houston Union Station to Brownsville - 371 miles, 8h55 southbound in the 1960 timetable, numbered 11/12 and later 321/322 - and was the train that made this line matter. It made its final run in 1962, ending passenger service to the Lower Rio Grande Valley. headway_min 1440 = one train each way daily.", "sources": ["Segment-level: the October 1948 inaugural, the 371-mile length, the 1960 running times, the train numbers and the 1962 final run are all from the Wikipedia Valley Eagle article.", "https://en.wikipedia.org/wiki/Valley_Eagle"]}], "geometry_source": "Traced from OpenStreetMap route relations pulled whole from the OSM API: 7529319 UP Austin Subdivision (San Antonio - San Marcos - Austin - Taylor), 7529467 UP Laredo Subdivision (San Antonio - Pearsall - Dilley - Cotulla - Laredo), 8815485 UP Corpus Christi Subdivision (San Antonio - Pleasanton - Three Rivers - Mathis - Corpus Christi, the ex-SAU&G), 1464268 UP Brownsville Subdivision (Robstown - Kingsville - Harlingen - Brownsville) and 1457969 CPKC Laredo Subdivision (Corpus Christi - Robstown - Alice - Hebbronville - Laredo, the ex-Tex-Mex). Node-id graph, Dijkstra between terminal stations, Douglas-Peucker at 15 m.", "geometry_quality": "Traced from the UP Brownsville Subdivision relation (OSM 1464268): 134.3 traced miles Robstown - Kingsville - Harlingen - Brownsville, each of those towns within 1.3 km of the trace. The south end stops 11.4 km short of downtown Brownsville, where the modern relation ends - the original approach into the city was relocated to a bypass in the 2010s and is not usable here; nothing is drawn across that gap. The line north of Robstown towards Sinton and Houston - the rest of the Valley Eagle\u2019s route - is not drawn: the OSM relations for it do not connect through to Houston. Straight-line repair 2026-08-29: 3 ruled segments totalling 37 mi replaced with OpenStreetMap-traced rail geometry (see geometry_repairs for the OSM lines each one followed).", "geometry_repairs": [{"date": "2026-08-29", "from": [-97.79039, 26.33464], "to": [-97.69369, 26.18695], "chord_mi": 11.82, "traced_mi": 11.84, "snap_m": [1, 1], "bridged_mi": 0.0, "osm_lines": ["UP Brownsville Subdivision (11.84 mi)"], "method": "Overpass rail graph, 8.0 km corridor, Dijkstra, simplified to 3.0 m"}, {"date": "2026-08-29", "from": [-97.86798, 27.47898], "to": [-97.80701, 27.27385], "chord_mi": 14.66, "traced_mi": 14.67, "snap_m": [0, 0], "bridged_mi": 0.0, "osm_lines": ["UP Brownsville Subdivision (14.67 mi)"], "method": "Overpass rail graph, 8.0 km corridor, Dijkstra, simplified to 3.0 m"}, {"date": "2026-08-29", "from": [-97.77036, 26.75256], "to": [-97.7672, 26.59635], "chord_mi": 10.79, "traced_mi": 10.8, "snap_m": [0, 0], "bridged_mi": 0.0, "osm_lines": ["UP Brownsville Subdivision (10.8 mi)"], "method": "Overpass rail graph, 8.0 km corridor, Dijkstra, simplified to 3.0 m"}]}, "geometry": {"type": "LineString", "coordinates": [[-97.66248, 27.78716], [-97.73914, 27.69251], [-97.79304, 27.59245], [-97.7943, 27.5911], [-97.86606, 27.52856], [-97.8678, 27.52631], [-97.86857, 27.52367], [-97.8679807, 27.4789844], [-97.8679136, 27.4776527], [-97.8676737, 27.4760914], [-97.8674917, 27.4753514], [-97.8433455, 27.3933436], [-97.8105133, 27.2812155], [-97.8100746, 27.2801603], [-97.8095343, 27.2792465], [-97.8082724, 27.2775385], [-97.8078631, 27.2768618], [-97.8075725, 27.276273], [-97.8073404, 27.2756783], [-97.807228, 27.2752395], [-97.8070467, 27.2743076], [-97.8070104, 27.2738543], [-97.80657, 27.25346], [-97.80624, 27.25108], [-97.79574, 27.2316], [-97.79483, 27.22913], [-97.7924, 27.2191], [-97.7926, 27.2165], [-97.8025, 27.16832], [-97.79474, 27.11133], [-97.79399, 27.06776], [-97.796, 26.98025], [-97.78892, 26.87333], [-97.7703637, 26.7525623], [-97.7702779, 26.7501633], [-97.7700118, 26.7352319], [-97.7693166, 26.7031089], [-97.768836, 26.677921], [-97.7686814, 26.6720737], [-97.7684713, 26.6594619], [-97.7682695, 26.6511478], [-97.768226, 26.6473241], [-97.768158, 26.6462382], [-97.7681048, 26.6409436], [-97.7675915, 26.6176967], [-97.7671967, 26.5963473], [-97.78869, 26.44148], [-97.79182, 26.38043], [-97.79136, 26.33862], [-97.7903869, 26.3346363], [-97.7900045, 26.3337832], [-97.789375, 26.332577], [-97.788745, 26.331593], [-97.760276, 26.288094], [-97.7441598, 26.2633812], [-97.743891, 26.262884], [-97.742727, 26.261093], [-97.7386261, 26.2548992], [-97.736957, 26.252255], [-97.7354648, 26.2500678], [-97.6967764, 26.190669], [-97.6960539, 26.1896119], [-97.6953632, 26.1887], [-97.6943057, 26.1875302], [-97.6936877, 26.1869453], [-97.59619, 26.1002], [-97.59354, 26.09763], [-97.57968, 26.0797], [-97.56415, 26.0573], [-97.5365, 26.03242], [-97.53522, 26.03087], [-97.53417, 26.0282], [-97.53004, 26.00019]]}}, {"type": "Feature", "properties": {"company": "Texas Mexican Railway", "line": "Texas Mexican: Corpus Christi \u2013 Laredo", "id": "texmex-corpus-christi-laredo", "color": "#8338EC", "mode": "intercity_rail", "avg_speed_kmh": 56, "speed_source": "From the Tex-Mex Express: 157 miles Corpus Christi - Laredo in about 4.5 hours = 35 mph = 56 km/h. That is the 1986-89 excursion-era schedule, the only one found; nineteenth-century running was slower.", "segments": [{"start": 1881, "end": 1902, "headway_min": 1440, "note": "Three-foot narrow gauge, built west from Corpus Christi to Rancho Banquete between 1875 and 1877 and on to San Diego, Texas by 1879; the Texas Mexican Railway charter of 1881 carried it the remaining 110 miles to Laredo, completed in September 1881. This feature is drawn from 1881, when the whole Corpus Christi - Laredo route it covers was open, and stops in 1902 at the standard-gauging - NOT because service ended then. The end of the railroad\u2019s regular passenger service could not be sourced, so the years between are left undrawn rather than guessed; see the layer\u2019s not_yet_sourced field. headway_min is an unsourced estimate.", "sources": ["Segment-level: the 1875-79 narrow-gauge construction, the September 1881 completion to Laredo and the July 17 1902 standard-gauging are from the TSHA Texas Mexican Railway entry and the Wikipedia article. The 1902 end year is a deliberate under-draw, not a sourced discontinuance. headway_min is an estimate.", "https://www.tshaonline.org/handbook/entries/texas-mexican-railway", "https://en.wikipedia.org/wiki/Texas_Mexican_Railway"]}, {"start": 1986, "end": 1989, "headway_min": 4320, "note": "The Tex-Mex Express, January 31 1986 to June 18 1989: one round trip on Fridays, Saturdays and Sundays through the spring and summer, 157 miles Corpus Christi - Robstown - Alice - Hebbronville - Laredo in about four and a half hours. headway_min 4320 reflects a train that ran three days a week, not daily.", "sources": ["Segment-level: the January 31 1986 - June 18 1989 dates, the weekend-only seasonal pattern, the 157-mile route, the intermediate stops and the 4.5-hour running time are from the Wikipedia Texas Mexican Railway article.", "https://en.wikipedia.org/wiki/Texas_Mexican_Railway"]}], "geometry_source": "Traced from OpenStreetMap route relations pulled whole from the OSM API: 7529319 UP Austin Subdivision (San Antonio - San Marcos - Austin - Taylor), 7529467 UP Laredo Subdivision (San Antonio - Pearsall - Dilley - Cotulla - Laredo), 8815485 UP Corpus Christi Subdivision (San Antonio - Pleasanton - Three Rivers - Mathis - Corpus Christi, the ex-SAU&G), 1464268 UP Brownsville Subdivision (Robstown - Kingsville - Harlingen - Brownsville) and 1457969 CPKC Laredo Subdivision (Corpus Christi - Robstown - Alice - Hebbronville - Laredo, the ex-Tex-Mex). Node-id graph, Dijkstra between terminal stations, Douglas-Peucker at 15 m.", "geometry_quality": "Traced from the CPKC Laredo Subdivision relation (OSM 1457969): 158.2 traced miles against the 157 miles the Tex-Mex Express is documented to have covered. Trace passes within 0.3 km of Alice and 0.1 km of Hebbronville and runs through Robstown. Present-day alignment - the 1881 narrow-gauge era is drawn on the line as standard-gauged in 1902 and maintained since. No straight-line legs. Straight-line repair 2026-08-29: 2 ruled segments totalling 23 mi replaced with OpenStreetMap-traced rail geometry (see geometry_repairs for the OSM lines each one followed).", "geometry_repairs": [{"date": "2026-08-29", "from": [-97.82113, 27.79564], "to": [-97.99582, 27.76694], "chord_mi": 10.88, "traced_mi": 10.88, "snap_m": [1, 0], "bridged_mi": 0.0, "osm_lines": ["CPKC Laredo Subdivision (10.88 mi)"], "method": "Overpass rail graph, 8.0 km corridor, Dijkstra, simplified to 3.0 m"}, {"date": "2026-08-29", "from": [-97.43355, 27.78645], "to": [-97.6329, 27.78347], "chord_mi": 12.21, "traced_mi": 12.19, "snap_m": [0, 1], "bridged_mi": 0.0, "osm_lines": ["CPKC Laredo Subdivision (12.19 mi)"], "method": "Overpass rail graph, 8.0 km corridor, Dijkstra, simplified to 3.0 m"}]}, "geometry": {"type": "LineString", "coordinates": [[-97.4335532, 27.7864502], [-97.5348959, 27.7849412], [-97.6288181, 27.7834729], [-97.6312727, 27.7834363], [-97.6329044, 27.7834667], [-97.75113, 27.80047], [-97.7839, 27.80303], [-97.80793, 27.80406], [-97.80999, 27.80378], [-97.81369, 27.80277], [-97.81682, 27.80163], [-97.81804, 27.80037], [-97.8211282, 27.7956357], [-97.8217314, 27.7950826], [-97.8224304, 27.7946297], [-97.8232078, 27.7943052], [-97.8236107, 27.7941876], [-97.8246786, 27.7939851], [-97.9109366, 27.7801738], [-97.9792374, 27.7694952], [-97.9958169, 27.7669396], [-98.01734, 27.76016], [-98.02016, 27.75869], [-98.0216, 27.75825], [-98.08963, 27.74623], [-98.09106, 27.74644], [-98.10067, 27.74951], [-98.14737, 27.75104], [-98.16593, 27.75318], [-98.20312, 27.75631], [-98.20719, 27.75726], [-98.21055, 27.75892], [-98.2351, 27.76533], [-98.24234, 27.76717], [-98.24426, 27.767], [-98.24519, 27.76639], [-98.24578, 27.76555], [-98.24907, 27.75559], [-98.24992, 27.75418], [-98.2598, 27.74573], [-98.26236, 27.74266], [-98.2641, 27.7417], [-98.2673, 27.74103], [-98.26859, 27.74054], [-98.27289, 27.73706], [-98.27374, 27.73545], [-98.27486, 27.73023], [-98.27677, 27.72676], [-98.27833, 27.72268], [-98.27975, 27.72092], [-98.28086, 27.72022], [-98.28255, 27.71966], [-98.28942, 27.71976], [-98.29426, 27.71897], [-98.29593, 27.71835], [-98.30637, 27.70927], [-98.30813, 27.70854], [-98.31198, 27.70795], [-98.31365, 27.70742], [-98.32554, 27.69968], [-98.33147, 27.69332], [-98.3426, 27.68519], [-98.34685, 27.68098], [-98.35017, 27.67739], [-98.35257, 27.67183], [-98.35338, 27.67076], [-98.35442, 27.66994], [-98.35619, 27.6692], [-98.36084, 27.66842], [-98.36407, 27.6666], [-98.36562, 27.666], [-98.37212, 27.66552], [-98.3756, 27.66428], [-98.37686, 27.66342], [-98.37761, 27.66196], [-98.37791, 27.65713], [-98.37767, 27.65582], [-98.37628, 27.65275], [-98.37588, 27.65134], [-98.37651, 27.64617], [-98.37625, 27.64519], [-98.3756, 27.64413], [-98.37387, 27.64258], [-98.37326, 27.64173], [-98.37291, 27.64079], [-98.37287, 27.63951], [-98.37376, 27.63764], [-98.38038, 27.63122], [-98.38159, 27.62964], [-98.3871, 27.60723], [-98.38773, 27.60588], [-98.38875, 27.60475], [-98.39103, 27.60355], [-98.4418, 27.59107], [-98.4454, 27.59024], [-98.45273, 27.58936], [-98.45414, 27.58872], [-98.45539, 27.58769], [-98.45629, 27.58632], [-98.46003, 27.57592], [-98.46272, 27.57029], [-98.46409, 27.56672], [-98.46906, 27.561], [-98.48552, 27.53645], [-98.48602, 27.53455], [-98.48739, 27.51938], [-98.48794, 27.51754], [-98.48888, 27.51626], [-98.48985, 27.51549], [-98.49491, 27.51346], [-98.49817, 27.51087], [-98.49929, 27.50926], [-98.49942, 27.50733], [-98.49781, 27.50201], [-98.49428, 27.49725], [-98.49035, 27.49466], [-98.4897, 27.49356], [-98.48946, 27.49226], [-98.4899, 27.49056], [-98.49287, 27.48438], [-98.49521, 27.47448], [-98.49593, 27.47246], [-98.49703, 27.47041], [-98.49896, 27.46793], [-98.50116, 27.46603], [-98.5676, 27.41966], [-98.56877, 27.41854], [-98.56964, 27.41685], [-98.57469, 27.39962], [-98.58473, 27.37961], [-98.60694, 27.35287], [-98.60733, 27.35166], [-98.60725, 27.35039], [-98.60451, 27.34524], [-98.60431, 27.34417], [-98.60449, 27.3429], [-98.6163, 27.31899], [-98.61732, 27.31764], [-98.61859, 27.31653], [-98.63271, 27.30728], [-98.63503, 27.30586], [-98.63764, 27.30505], [-98.64876, 27.30399], [-98.67575, 27.30551], [-98.67852, 27.30597], [-98.6965, 27.31428], [-98.70194, 27.31801], [-98.74419, 27.33446], [-98.74579, 27.3353], [-98.7506, 27.33892], [-98.75632, 27.34127], [-98.758, 27.34254], [-98.77444, 27.35908], [-98.77896, 27.3624], [-98.7805, 27.36393], [-98.78147, 27.36558], [-98.78789, 27.38124], [-98.78888, 27.38281], [-98.78997, 27.38393], [-98.80926, 27.39757], [-98.81122, 27.39824], [-98.81672, 27.39865], [-98.81855, 27.399], [-98.81983, 27.39963], [-98.82566, 27.40403], [-98.82689, 27.40537], [-98.83272, 27.41328], [-98.83328, 27.41506], [-98.83335, 27.41867], [-98.83389, 27.4199], [-98.83495, 27.42097], [-98.85532, 27.42988], [-98.86722, 27.43645], [-98.90911, 27.44905], [-98.93167, 27.45009], [-98.93372, 27.45041], [-98.97189, 27.46455], [-98.97375, 27.465], [-98.97577, 27.46487], [-98.98255, 27.46324], [-98.98505, 27.46193], [-98.98931, 27.45909], [-98.98987, 27.45827], [-98.99022, 27.45716], [-98.98982, 27.45336], [-98.99006, 27.45166], [-98.99196, 27.4483], [-98.99358, 27.44171], [-98.99436, 27.44066], [-98.99547, 27.43988], [-98.9971, 27.43939], [-98.99852, 27.43945], [-99.00414, 27.4417], [-99.0061, 27.44202], [-99.02574, 27.44082], [-99.02772, 27.43995], [-99.0351, 27.43366], [-99.03663, 27.4329], [-99.03845, 27.43257], [-99.05134, 27.43337], [-99.05355, 27.43375], [-99.1061, 27.45569], [-99.10784, 27.45608], [-99.1134, 27.45619], [-99.11536, 27.45664], [-99.11714, 27.45774], [-99.14024, 27.48075], [-99.14424, 27.48304], [-99.14521, 27.48381], [-99.18755, 27.52597], [-99.18947, 27.52719], [-99.1913, 27.52781], [-99.19475, 27.5285], [-99.19747, 27.52806], [-99.21932, 27.51597], [-99.22137, 27.5151], [-99.24727, 27.51066], [-99.27598, 27.51054], [-99.27747, 27.51028], [-99.28684, 27.50609], [-99.28915, 27.5047], [-99.29932, 27.4927], [-99.30085, 27.49138], [-99.30219, 27.49079], [-99.30925, 27.48885], [-99.31094, 27.48892], [-99.3235, 27.49123], [-99.32909, 27.49371], [-99.33302, 27.49457], [-99.33511, 27.49462], [-99.34216, 27.49363], [-99.34391, 27.49379], [-99.34778, 27.49498], [-99.35246, 27.49754], [-99.35461, 27.49817], [-99.35681, 27.49804], [-99.3678, 27.49502], [-99.36966, 27.49485], [-99.38191, 27.49918], [-99.43208, 27.5039], [-99.43569, 27.50482], [-99.44759, 27.50987], [-99.44921, 27.51025], [-99.46108, 27.50934], [-99.47907, 27.50125], [-99.4894, 27.50112], [-99.49078, 27.50157], [-99.49189, 27.50256], [-99.49393, 27.50788], [-99.49537, 27.50923], [-99.49712, 27.50962], [-99.50747, 27.50972]]}}]}