{"type": "FeatureCollection", "metadata": {"note": "The Southbridge and Sturbridge Street Railway: a village-to-village electric street railway in south-central Worcester County, MA, linking Fiskdale (Sturbridge) to Sandersdale (Southbridge) via Sturbridge Center, Globe Village and Southbridge Center, 1896-circa 1930. Organized as an independent company, it was built with an eye toward forming part of a through Worcester-Hartford route (the two cities had no direct steam railroad connection), a plan that never fully materialized, though the line itself ran successfully for over three decades under three owners: the original independent company, the Worcester and Southbridge Street Railway (which absorbed it in 1901-1905), and finally the Worcester Consolidated Street Railway (from the 1911 four-company merger) until abandonment sometime in the mid-to-late 1920s.", "sources": ["https://en.wikipedia.org/wiki/Worcester_Consolidated_Street_Railway -- Southbridge and Sturbridge organization/opening date and mileage, ownership chain (Worcester and Southbridge control from 1901/1902, New Haven purchase May 1904, merger Jan 1905), Worcester Consolidated's 1911 four-company merger and general 1924-1930 rural abandonment wave", "https://bigalumlake.org/chapter-9/ -- route description (Fiskdale - Sturbridge Center - Globe Village - Southbridge Center - Fairview Park Road/Route 131), 1906 Fiskdale substation, 1901 timetable fare/running-time detail, local color on the line's effect on Big Alum Lake's development", "https://en.wikipedia.org/wiki/Sandersdale,_Massachusetts -- Sandersdale's location on Southbridge's east side along Route 131/East Main Street past the AO Rotary", "OpenStreetMap (ODbL) via Overpass (overpass.openstreetmap.fr) -- all route geometry, present-day street centrelines", "Nominatim (OpenStreetMap) -- geocoding of Fiskdale, Sturbridge Center, Globe Village, Southbridge Center and Sandersdale"], "geometry_sources": "Street-centreline routing throughout -- see each feature's geometry_source/geometry_quality. No railway-tagged remnant of this line survives in OSM.", "not_yet_sourced": ["The specific year this branch's passenger service was abandoned is not sourced; 1930 is used as a placeholder within the documented 1924-1930 general abandonment window for Worcester Consolidated's rural lines.", "Headway_min (60) is an unsourced estimate for all three eras; only the ~18 km/h speed estimate has a real (1901 timetable) source, and only for the Southbridge-Sturbridge leg specifically.", "The exact street-by-street routing through Sturbridge Center and Southbridge Center, and whether the line used the original alignment or the later Route 131 realignment near Sandersdale, are not verified against period maps."], "freight_only_audit": "N/A -- passenger street railway, added 2026-08-24; no freight-only content involved.", "horsecar_audit": "N/A -- opened 1896 as an electric line from the start; no horsecar predecessor found in sources.", "pulled": "20260824"}, "features": [{"type": "Feature", "properties": {"company": "Southbridge and Sturbridge Street Railway", "line": "Southbridge and Sturbridge: Fiskdale - Sturbridge Center - Globe Village - Southbridge - Sandersdale", "id": "southbridge-sturbridge-street-railway", "color": "#BC4749", "mode": "streetcar", "avg_speed_kmh": 18, "speed_source": "A dated (1901) company timetable detail survives for the Southbridge-Sturbridge leg specifically: fare 5 cents, running time 15 minutes -- roughly 18 km/h over that ~4.5 mile stretch. Applied here as a single average for the whole Fiskdale-Sandersdale line; no source gives a separate speed for the Globe Village-Sandersdale extension.", "segments": [{"start": 1896, "end": 1901, "headway_min": 60, "note": "Organized Feb 18, 1896; opened Aug 29, 1896 as a 7.44-mile line between Fiskdale (a village of Sturbridge) and Sandersdale (a village of Southbridge), running southeast from Fiskdale through Sturbridge Center, Globe Village and Southbridge Center. Intended as part of a through route between Worcester and Hartford, CT, which had no direct steam railroad connection. A 1901 timetable shows the Southbridge-Sturbridge fare as 5 cents for a 15-minute run. Headway is an unsourced estimate."}], "geometry_source": "Routed along present-day street centrelines from OpenStreetMap (ODbL) via Overpass (overpass.openstreetmap.fr): shortest path along the road network from Fiskdale (Sturbridge) through Sturbridge Center and Globe Village to Southbridge Center, mostly on Main Street with brief stretches signed 'Old Southbridge Road'/'Old Sturbridge Road' -- plausibly closer to the original alignment than the modern Route 131 realignment, given the names -- then continuing via Main Street, the Southbridge Rotary and East Main Street to Sandersdale. No abandoned railway/streetcar trace survives in OSM for this line (it was a true street railway, running in the roadway throughout), so this is street-centreline routing rather than a track alignment. Passes within 175m of Globe Village and 200m of Sturbridge Center as geocoded. 702 points, 10.82 km (6.72 mi) one-way against the 7.44 mi Fiskdale-Sandersdale figure the company itself reported at opening -- a reasonable match; the shortfall is most likely the terminal/yard trackage at each end plus minor local deviations this routing can't recover. Checked for self-intersection using cumulative along-path distance (not just point proximity, which false-positives heavily on a dense, nearly-straight road) -- none found.", "geometry_quality": "STREET-CENTRELINE ROUTING, not a traced track alignment -- there is nothing else to trace against, since no railway-tagged remnant of this line survives in OpenStreetMap. Which side of the street the single track ran, the exact routing through Sturbridge Center and Southbridge Center (both dense village cores where several streets converge), and the original vs. Route-131-era alignment near Sandersdale are not verified against period maps or Sanborn atlases. No leg is a straight-line placeholder."}, "geometry": {"type": "LineString", "coordinates": [[-72.113353, 42.116235], [-72.113227, 42.116231], [-72.113058, 42.116209], [-72.112905, 42.116189], [-72.112795, 42.116166], [-72.112574, 42.116115], [-72.112413, 42.116073], [-72.112374, 42.116064], [-72.112213, 42.116019], [-72.111968, 42.115951], [-72.111539, 42.115833], [-72.111328, 42.115769], [-72.11106, 42.115695], [-72.110949, 42.115671], [-72.110773, 42.115621], [-72.110569, 42.115563], [-72.110365, 42.115502], [-72.110075, 42.11542], [-72.109842, 42.115358], [-72.109782, 42.115341], [-72.109731, 42.115327], [-72.109567, 42.115282], [-72.109415, 42.115241], [-72.109305, 42.115211], [-72.109171, 42.115177], [-72.109061, 42.115145], [-72.108875, 42.115087], [-72.108753, 42.115053], [-72.108492, 42.114987], [-72.108383, 42.114957], [-72.108134, 42.114891], [-72.107932, 42.114834], [-72.107723, 42.114773], [-72.107502, 42.11471], [-72.1073, 42.114654], [-72.106892, 42.114533], [-72.106431, 42.114412], [-72.1063, 42.114375], [-72.106039, 42.114301], [-72.105597, 42.114191], [-72.105251, 42.114101], [-72.104924, 42.114026], [-72.10476, 42.113992], [-72.104321, 42.11391], [-72.104093, 42.113863], [-72.103847, 42.113811], [-72.103433, 42.113724], [-72.103304, 42.113696], [-72.103048, 42.113639], [-72.102945, 42.113617], [-72.10274, 42.113577], [-72.102688, 42.113567], [-72.102616, 42.113551], [-72.101989, 42.113416], [-72.101765, 42.113368], [-72.101222, 42.113255], [-72.101051, 42.113219], [-72.100868, 42.113182], [-72.100657, 42.113136], [-72.100343, 42.113065], [-72.100218, 42.113038], [-72.100001, 42.112998], [-72.099844, 42.112965], [-72.099489, 42.112889], [-72.099231, 42.112835], [-72.098855, 42.112748], [-72.098676, 42.112701], [-72.098535, 42.112661], [-72.09838, 42.11261], [-72.098202, 42.112546], [-72.09813, 42.112518], [-72.097966, 42.112448], [-72.097669, 42.112303], [-72.097612, 42.112264], [-72.097479, 42.112211], [-72.097254, 42.112046], [-72.097142, 42.111969], [-72.096936, 42.111821], [-72.096841, 42.111749], [-72.096743, 42.111681], [-72.09663, 42.111608], [-72.096513, 42.111539], [-72.096391, 42.111475], [-72.096282, 42.111424], [-72.096169, 42.111377], [-72.096054, 42.111334], [-72.09593, 42.111292], [-72.095803, 42.111254], [-72.095581, 42.111194], [-72.095364, 42.111144], [-72.095211, 42.11111], [-72.095055, 42.111082], [-72.094989, 42.111071], [-72.094723, 42.11104], [-72.094589, 42.11103], [-72.094455, 42.111024], [-72.094214, 42.11102], [-72.094, 42.111027], [-72.09379, 42.111049], [-72.093634, 42.111076], [-72.093506, 42.111103], [-72.09329, 42.11114], [-72.09317, 42.111162], [-72.093014, 42.111195], [-72.092702, 42.111267], [-72.092558, 42.111298], [-72.092271, 42.111363], [-72.091889, 42.111457], [-72.091657, 42.11151], [-72.091511, 42.111545], [-72.091284, 42.111604], [-72.091065, 42.111656], [-72.09068, 42.111739], [-72.090529, 42.111772], [-72.09021, 42.111838], [-72.08974, 42.111944], [-72.089466, 42.112002], [-72.089271, 42.112046], [-72.089033, 42.112095], [-72.088955, 42.112107], [-72.088808, 42.112128], [-72.088611, 42.112152], [-72.088376, 42.112175], [-72.088053, 42.1122], [-72.088028, 42.112174], [-72.087994, 42.11215], [-72.08796, 42.112127], [-72.087906, 42.112113], [-72.087851, 42.1121], [-72.087797, 42.112085], [-72.08774, 42.112065], [-72.087685, 42.112043], [-72.08763, 42.112021], [-72.087553, 42.111993], [-72.087475, 42.111965], [-72.087398, 42.111937], [-72.087292, 42.111912], [-72.087188, 42.111885], [-72.087056, 42.111843], [-72.086858, 42.111785], [-72.086626, 42.111718], [-72.085863, 42.111497], [-72.085384, 42.111357], [-72.085223, 42.111347], [-72.085192, 42.111337], [-72.085155, 42.111325], [-72.085041, 42.111278], [-72.084924, 42.111233], [-72.084805, 42.111185], [-72.08472, 42.111144], [-72.084643, 42.11111], [-72.084566, 42.11107], [-72.084501, 42.111038], [-72.084437, 42.111005], [-72.084389, 42.110979], [-72.084374, 42.110971], [-72.084289, 42.110923], [-72.084206, 42.110874], [-72.084124, 42.110824], [-72.084026, 42.11076], [-72.083998, 42.110741], [-72.083875, 42.110655], [-72.083752, 42.110569], [-72.083701, 42.110534], [-72.083658, 42.110504], [-72.083563, 42.11044], [-72.083472, 42.110374], [-72.083454, 42.11036], [-72.083395, 42.110314], [-72.08332, 42.110253], [-72.083222, 42.110177], [-72.083154, 42.110128], [-72.083063, 42.110065], [-72.082975, 42.109999], [-72.082912, 42.109948], [-72.082851, 42.109895], [-72.082788, 42.109844], [-72.082687, 42.109767], [-72.082584, 42.109693], [-72.082481, 42.109618], [-72.08242, 42.109572], [-72.082372, 42.109536], [-72.082265, 42.109452], [-72.082157, 42.10937], [-72.082, 42.109249], [-72.081844, 42.109129], [-72.08181, 42.109103], [-72.081687, 42.109009], [-72.081529, 42.108891], [-72.081493, 42.108865], [-72.081371, 42.108774], [-72.081215, 42.108655], [-72.08118, 42.108627], [-72.081145, 42.108599], [-72.08111, 42.108571], [-72.080999, 42.108484], [-72.080785, 42.108317], [-72.080593, 42.10818], [-72.080485, 42.108103], [-72.080375, 42.108019], [-72.080213, 42.107909], [-72.080051, 42.107809], [-72.079895, 42.10772], [-72.07974, 42.107637], [-72.079694, 42.107616], [-72.079615, 42.10758], [-72.079291, 42.107449], [-72.078991, 42.107327], [-72.078708, 42.107217], [-72.078632, 42.107185], [-72.077908, 42.106905], [-72.077759, 42.106843], [-72.077611, 42.106782], [-72.077466, 42.106716], [-72.077338, 42.10665], [-72.077212, 42.10658], [-72.077091, 42.106507], [-72.076962, 42.106423], [-72.076838, 42.106335], [-72.07672, 42.106243], [-72.076665, 42.106196], [-72.076611, 42.106149], [-72.076553, 42.106097], [-72.076458, 42.106005], [-72.076365, 42.105906], [-72.076277, 42.105804], [-72.076196, 42.1057], [-72.076121, 42.105593], [-72.076052, 42.105484], [-72.075999, 42.105394], [-72.07595, 42.105303], [-72.075905, 42.105211], [-72.075863, 42.10512], [-72.075825, 42.105029], [-72.075793, 42.104937], [-72.075766, 42.104845], [-72.075744, 42.104754], [-72.075726, 42.104661], [-72.075712, 42.104565], [-72.075702, 42.104469], [-72.075705, 42.104366], [-72.07575, 42.102834], [-72.075753, 42.102742], [-72.075763, 42.102599], [-72.075763, 42.102456], [-72.07575, 42.102324], [-72.075729, 42.102193], [-72.075703, 42.102062], [-72.075662, 42.101898], [-72.075612, 42.101735], [-72.07555, 42.101575], [-72.075462, 42.101398], [-72.07538, 42.101259], [-72.075279, 42.101106], [-72.075177, 42.100968], [-72.075068, 42.100833], [-72.074958, 42.100698], [-72.074834, 42.100579], [-72.074628, 42.100382], [-72.074589, 42.100343], [-72.074339, 42.100113], [-72.074124, 42.099916], [-72.073877, 42.099686], [-72.073797, 42.099612], [-72.073716, 42.099525], [-72.073635, 42.099438], [-72.073557, 42.09935], [-72.073476, 42.099253], [-72.073398, 42.099154], [-72.073325, 42.099053], [-72.07326, 42.09895], [-72.073199, 42.098845], [-72.073144, 42.098738], [-72.073091, 42.098619], [-72.073044, 42.098498], [-72.072997, 42.098377], [-72.072948, 42.098237], [-72.07262, 42.09729], [-72.072561, 42.097141], [-72.072491, 42.096993], [-72.072422, 42.096863], [-72.072341, 42.096734], [-72.072255, 42.096608], [-72.072155, 42.096481], [-72.072054, 42.09636], [-72.071941, 42.096241], [-72.071816, 42.096118], [-72.071739, 42.096048], [-72.071685, 42.095998], [-72.071487, 42.095836], [-72.071421, 42.095781], [-72.071196, 42.095596], [-72.07115, 42.095559], [-72.071114, 42.095529], [-72.070952, 42.095405], [-72.070801, 42.09529], [-72.070706, 42.095217], [-72.070207, 42.094837], [-72.069848, 42.094561], [-72.069809, 42.094531], [-72.069604, 42.094373], [-72.069442, 42.094248], [-72.069308, 42.094144], [-72.069175, 42.09404], [-72.069103, 42.093981], [-72.069045, 42.093935], [-72.068949, 42.093852], [-72.068901, 42.09381], [-72.068854, 42.093768], [-72.068761, 42.093684], [-72.068661, 42.093596], [-72.068562, 42.093507], [-72.068548, 42.093493], [-72.068467, 42.093415], [-72.068352, 42.093296], [-72.068297, 42.093235], [-72.068243, 42.093173], [-72.068137, 42.093047], [-72.068023, 42.092903], [-72.068014, 42.092892], [-72.067892, 42.092722], [-72.067785, 42.092562], [-72.067689, 42.092397], [-72.067585, 42.092207], [-72.067574, 42.092183], [-72.067492, 42.092017], [-72.067487, 42.092008], [-72.067191, 42.09141], [-72.067012, 42.091088], [-72.066867, 42.090809], [-72.066773, 42.090626], [-72.066697, 42.090479], [-72.066583, 42.090259], [-72.066457, 42.089999], [-72.066388, 42.089868], [-72.066306, 42.089738], [-72.066218, 42.089608], [-72.066125, 42.089482], [-72.066021, 42.089361], [-72.065906, 42.08924], [-72.065791, 42.089131], [-72.065667, 42.089026], [-72.065537, 42.088924], [-72.065394, 42.088826], [-72.065286, 42.088756], [-72.065191, 42.088698], [-72.065097, 42.088642], [-72.064936, 42.088556], [-72.06491, 42.088544], [-72.064765, 42.088475], [-72.064627, 42.088417], [-72.064531, 42.088381], [-72.064453, 42.088351], [-72.064301, 42.088296], [-72.064237, 42.088275], [-72.064076, 42.088223], [-72.063808, 42.088139], [-72.063464, 42.088037], [-72.063385, 42.088014], [-72.0631, 42.087931], [-72.062668, 42.087805], [-72.061853, 42.087568], [-72.0614, 42.087436], [-72.060874, 42.087283], [-72.060645, 42.087216], [-72.060498, 42.087173], [-72.060414, 42.087149], [-72.060253, 42.0871], [-72.059949, 42.087009], [-72.059808, 42.086963], [-72.059671, 42.086915], [-72.059536, 42.086866], [-72.059398, 42.086814], [-72.059264, 42.086759], [-72.059135, 42.086706], [-72.059003, 42.086648], [-72.058878, 42.086589], [-72.058702, 42.086488], [-72.058587, 42.086418], [-72.058532, 42.086385], [-72.058368, 42.086286], [-72.058195, 42.086175], [-72.057982, 42.086037], [-72.057622, 42.085803], [-72.057292, 42.08559], [-72.056818, 42.085282], [-72.056604, 42.085152], [-72.056401, 42.085027], [-72.056272, 42.085025], [-72.056138, 42.084975], [-72.056048, 42.084939], [-72.055958, 42.084902], [-72.055788, 42.084827], [-72.055683, 42.084776], [-72.055593, 42.084745], [-72.055502, 42.084714], [-72.055414, 42.084681], [-72.055331, 42.084643], [-72.055251, 42.084604], [-72.055171, 42.084563], [-72.055093, 42.08452], [-72.055016, 42.084476], [-72.054941, 42.084431], [-72.054872, 42.084386], [-72.054804, 42.08434], [-72.054732, 42.0843], [-72.054648, 42.084266], [-72.05456, 42.084239], [-72.054404, 42.084193], [-72.054258, 42.08414], [-72.054152, 42.084107], [-72.054046, 42.084074], [-72.053884, 42.084028], [-72.053721, 42.083982], [-72.05356, 42.083933], [-72.053428, 42.083889], [-72.053298, 42.083842], [-72.05311, 42.083771], [-72.053072, 42.083759], [-72.052976, 42.083723], [-72.052881, 42.083686], [-72.052765, 42.08364], [-72.052649, 42.083593], [-72.052537, 42.083542], [-72.052452, 42.083498], [-72.052368, 42.083453], [-72.052286, 42.083407], [-72.052185, 42.08335], [-72.052086, 42.083293], [-72.05199, 42.083233], [-72.051909, 42.083176], [-72.051831, 42.083117], [-72.051751, 42.08306], [-72.051667, 42.083006], [-72.051582, 42.082952], [-72.051497, 42.082898], [-72.051402, 42.082836], [-72.051308, 42.082773], [-72.051212, 42.082714], [-72.051113, 42.082657], [-72.051011, 42.082604], [-72.050953, 42.082576], [-72.050907, 42.082553], [-72.050821, 42.082513], [-72.050733, 42.082475], [-72.050644, 42.082438], [-72.050545, 42.082401], [-72.050444, 42.082366], [-72.050343, 42.082332], [-72.050273, 42.08231], [-72.050203, 42.082289], [-72.050133, 42.082268], [-72.050016, 42.082232], [-72.049899, 42.082195], [-72.049784, 42.082156], [-72.049677, 42.082118], [-72.049571, 42.082079], [-72.049474, 42.082031], [-72.049412, 42.081987], [-72.049383, 42.081963], [-72.049354, 42.081939], [-72.04931, 42.081904], [-72.048848, 42.081924], [-72.048526, 42.081926], [-72.048333, 42.081926], [-72.048181, 42.081925], [-72.048111, 42.081925], [-72.047682, 42.081898], [-72.047502, 42.08188], [-72.047325, 42.081858], [-72.047273, 42.08185], [-72.047148, 42.081831], [-72.046979, 42.081802], [-72.046813, 42.081765], [-72.046799, 42.081761], [-72.046658, 42.081722], [-72.046501, 42.081671], [-72.046344, 42.081614], [-72.046274, 42.081584], [-72.046204, 42.081552], [-72.046193, 42.081547], [-72.046137, 42.081519], [-72.046069, 42.081483], [-72.046003, 42.081445], [-72.045939, 42.081405], [-72.045877, 42.081362], [-72.045818, 42.081316], [-72.045789, 42.081293], [-72.04576, 42.08127], [-72.045694, 42.081214], [-72.04563, 42.081158], [-72.045587, 42.08112], [-72.045566, 42.081101], [-72.045535, 42.081074], [-72.045353, 42.080913], [-72.045326, 42.080889], [-72.045289, 42.08086], [-72.04525, 42.080832], [-72.045207, 42.080807], [-72.045163, 42.080784], [-72.045099, 42.080762], [-72.044868, 42.080715], [-72.044721, 42.08069], [-72.044596, 42.080669], [-72.04426, 42.08062], [-72.044142, 42.080602], [-72.043079, 42.080476], [-72.042811, 42.080408], [-72.042285, 42.080205], [-72.042014, 42.080101], [-72.041879, 42.080044], [-72.04062, 42.079507], [-72.04005, 42.079205], [-72.039843, 42.079054], [-72.039637, 42.078791], [-72.039602, 42.078709], [-72.039469, 42.078376], [-72.039418, 42.078297], [-72.039367, 42.078241], [-72.039347, 42.078219], [-72.039236, 42.078135], [-72.039123, 42.078071], [-72.038725, 42.077872], [-72.038229, 42.077671], [-72.037487, 42.077481], [-72.036861, 42.077312], [-72.036441, 42.077111], [-72.036215, 42.076937], [-72.036101, 42.076848], [-72.036021, 42.076781], [-72.035705, 42.076536], [-72.035517, 42.076387], [-72.03511, 42.07605], [-72.035035, 42.075984], [-72.034574, 42.075579], [-72.034267, 42.075309], [-72.034018, 42.075153], [-72.0339, 42.075079], [-72.033673, 42.074969], [-72.033532, 42.0749], [-72.033416, 42.074844], [-72.033164, 42.074734], [-72.032982, 42.074652], [-72.03291, 42.07462], [-72.032723, 42.074534], [-72.032294, 42.074338], [-72.032123, 42.074258], [-72.031786, 42.074099], [-72.03177, 42.074091], [-72.031746, 42.07408], [-72.031644, 42.074037], [-72.03151, 42.07398], [-72.031187, 42.073842], [-72.031127, 42.073815], [-72.031025, 42.073771], [-72.030975, 42.073748], [-72.030786, 42.073665], [-72.030733, 42.073641], [-72.030624, 42.073596], [-72.030549, 42.073566], [-72.030523, 42.073556], [-72.030474, 42.073536], [-72.030398, 42.073507], [-72.030321, 42.073481], [-72.030243, 42.073456], [-72.030163, 42.073433], [-72.030123, 42.073423], [-72.0301, 42.073418], [-72.030036, 42.073405], [-72.03001, 42.0734], [-72.029972, 42.073393], [-72.029885, 42.073381], [-72.029798, 42.073373], [-72.02971, 42.073364], [-72.029608, 42.073355], [-72.029506, 42.073345], [-72.029404, 42.073336], [-72.028953, 42.073312], [-72.028881, 42.073309], [-72.028809, 42.073307], [-72.028737, 42.073303], [-72.028652, 42.073301], [-72.028567, 42.073299], [-72.028483, 42.073298], [-72.028392, 42.073298], [-72.028302, 42.073298], [-72.028212, 42.073299], [-72.027992, 42.073307], [-72.027762, 42.073315], [-72.0277, 42.073317], [-72.027001, 42.073353], [-72.026851, 42.073365], [-72.026723, 42.073358], [-72.026667, 42.073361], [-72.026631, 42.073362], [-72.026599, 42.073361], [-72.026586, 42.07336], [-72.026513, 42.073356], [-72.026407, 42.073347], [-72.026363, 42.07333], [-72.026314, 42.07332], [-72.025601, 42.072906], [-72.025504, 42.072849], [-72.025443, 42.072806], [-72.024667, 42.072256], [-72.024571, 42.072181], [-72.024474, 42.072108], [-72.024381, 42.072032], [-72.024318, 42.071976], [-72.024256, 42.07192], [-72.024196, 42.071862], [-72.02413, 42.071795], [-72.024066, 42.071726], [-72.024003, 42.071657], [-72.02331, 42.070884], [-72.023241, 42.070815], [-72.023207, 42.070781], [-72.023109, 42.070692], [-72.023004, 42.070606], [-72.022909, 42.070537], [-72.02281, 42.070472], [-72.022707, 42.07041], [-72.022591, 42.070345], [-72.022471, 42.070285], [-72.022347, 42.070229], [-72.022207, 42.070174], [-72.022062, 42.070124], [-72.022026, 42.070113], [-72.021915, 42.070079], [-72.021781, 42.070042], [-72.021645, 42.070007], [-72.021508, 42.069977], [-72.021353, 42.069946], [-72.021197, 42.069921], [-72.021039, 42.069906], [-72.020887, 42.069906], [-72.020735, 42.069915], [-72.020582, 42.069925], [-72.020511, 42.069934], [-72.020421, 42.069948], [-72.020243, 42.06997], [-72.020092, 42.06999], [-72.019946, 42.07002], [-72.01971, 42.070062], [-72.019596, 42.07008], [-72.019577, 42.070084], [-72.019521, 42.070093], [-72.019338, 42.070131], [-72.019214, 42.070155], [-72.019068, 42.070184], [-72.018943, 42.070216], [-72.018821, 42.070245], [-72.018637, 42.070305], [-72.018472, 42.070366], [-72.018307, 42.070421], [-72.018149, 42.070479], [-72.018034, 42.070516], [-72.017912, 42.070548], [-72.017783, 42.07058], [-72.017566, 42.070631], [-72.017098, 42.070723], [-72.016718, 42.070788], [-72.016593, 42.070808], [-72.01604, 42.0709], [-72.015937, 42.070917], [-72.015506, 42.070989], [-72.015362, 42.071006], [-72.015294, 42.071019], [-72.015186, 42.071038], [-72.015069, 42.071054], [-72.014966, 42.071061], [-72.014901, 42.071066], [-72.014837, 42.071074], [-72.014718, 42.071079], [-72.014624, 42.071079], [-72.014525, 42.071073], [-72.014471, 42.07107], [-72.014437, 42.071069], [-72.014325, 42.071059], [-72.014198, 42.071041], [-72.014116, 42.071024], [-72.014055, 42.071012], [-72.013998, 42.071], [-72.013873, 42.070963], [-72.01372, 42.070927], [-72.013529, 42.070874], [-72.013371, 42.07083], [-72.013142, 42.070766], [-72.012996, 42.070717], [-72.012918, 42.070682], [-72.012859, 42.070655], [-72.01276, 42.070611], [-72.012726, 42.070595], [-72.01258, 42.070521], [-72.012456, 42.070433], [-72.012317, 42.070348], [-72.012171, 42.070247], [-72.012045, 42.070149], [-72.011852, 42.070012], [-72.011809, 42.06998], [-72.011679, 42.069884], [-72.011641, 42.069856]]}}, {"type": "Feature", "properties": {"company": "Worcester and Southbridge Street Railway", "line": "Worcester and Southbridge: Fiskdale - Sturbridge Center - Globe Village - Southbridge - Sandersdale", "id": "worcester-southbridge-street-railway-sturbridge-branch", "color": "#3D348B", "mode": "streetcar", "avg_speed_kmh": 18, "speed_source": "A dated (1901) company timetable detail survives for the Southbridge-Sturbridge leg specifically: fare 5 cents, running time 15 minutes -- roughly 18 km/h over that ~4.5 mile stretch. Applied here as a single average for the whole Fiskdale-Sandersdale line; no source gives a separate speed for the Globe Village-Sandersdale extension.", "segments": [{"start": 1902, "end": 1910, "headway_min": 60, "note": "The Worcester and Southbridge Street Railway obtained control of the Southbridge and Sturbridge in 1901 and began operating it in January 1902 -- the split used here, matching this dataset's convention of coloring by whoever actually ran the trains, not the later formal paperwork. The New York, New Haven and Hartford Railroad purchased the Worcester and Southbridge (along with the Worcester, Rochdale and Charlton Depot, and the Southbridge and Sturbridge itself) in May 1904, and the two smaller companies were formally merged into the Worcester and Southbridge on Jan 9, 1905, ending the Southbridge and Sturbridge's separate corporate existence. Headway is an unsourced estimate."}], "geometry_source": "Routed along present-day street centrelines from OpenStreetMap (ODbL) via Overpass (overpass.openstreetmap.fr): shortest path along the road network from Fiskdale (Sturbridge) through Sturbridge Center and Globe Village to Southbridge Center, mostly on Main Street with brief stretches signed 'Old Southbridge Road'/'Old Sturbridge Road' -- plausibly closer to the original alignment than the modern Route 131 realignment, given the names -- then continuing via Main Street, the Southbridge Rotary and East Main Street to Sandersdale. No abandoned railway/streetcar trace survives in OSM for this line (it was a true street railway, running in the roadway throughout), so this is street-centreline routing rather than a track alignment. Passes within 175m of Globe Village and 200m of Sturbridge Center as geocoded. 702 points, 10.82 km (6.72 mi) one-way against the 7.44 mi Fiskdale-Sandersdale figure the company itself reported at opening -- a reasonable match; the shortfall is most likely the terminal/yard trackage at each end plus minor local deviations this routing can't recover. Checked for self-intersection using cumulative along-path distance (not just point proximity, which false-positives heavily on a dense, nearly-straight road) -- none found.", "geometry_quality": "STREET-CENTRELINE ROUTING, not a traced track alignment -- there is nothing else to trace against, since no railway-tagged remnant of this line survives in OpenStreetMap. Which side of the street the single track ran, the exact routing through Sturbridge Center and Southbridge Center (both dense village cores where several streets converge), and the original vs. Route-131-era alignment near Sandersdale are not verified against period maps or Sanborn atlases. No leg is a straight-line placeholder."}, "geometry": {"type": "LineString", "coordinates": [[-72.113353, 42.116235], [-72.113227, 42.116231], [-72.113058, 42.116209], [-72.112905, 42.116189], [-72.112795, 42.116166], [-72.112574, 42.116115], [-72.112413, 42.116073], [-72.112374, 42.116064], [-72.112213, 42.116019], [-72.111968, 42.115951], [-72.111539, 42.115833], [-72.111328, 42.115769], [-72.11106, 42.115695], [-72.110949, 42.115671], [-72.110773, 42.115621], [-72.110569, 42.115563], [-72.110365, 42.115502], [-72.110075, 42.11542], [-72.109842, 42.115358], [-72.109782, 42.115341], [-72.109731, 42.115327], [-72.109567, 42.115282], [-72.109415, 42.115241], [-72.109305, 42.115211], [-72.109171, 42.115177], [-72.109061, 42.115145], [-72.108875, 42.115087], [-72.108753, 42.115053], [-72.108492, 42.114987], [-72.108383, 42.114957], [-72.108134, 42.114891], [-72.107932, 42.114834], [-72.107723, 42.114773], [-72.107502, 42.11471], [-72.1073, 42.114654], [-72.106892, 42.114533], [-72.106431, 42.114412], [-72.1063, 42.114375], [-72.106039, 42.114301], [-72.105597, 42.114191], [-72.105251, 42.114101], [-72.104924, 42.114026], [-72.10476, 42.113992], [-72.104321, 42.11391], [-72.104093, 42.113863], [-72.103847, 42.113811], [-72.103433, 42.113724], [-72.103304, 42.113696], [-72.103048, 42.113639], [-72.102945, 42.113617], [-72.10274, 42.113577], [-72.102688, 42.113567], [-72.102616, 42.113551], [-72.101989, 42.113416], [-72.101765, 42.113368], [-72.101222, 42.113255], [-72.101051, 42.113219], [-72.100868, 42.113182], [-72.100657, 42.113136], [-72.100343, 42.113065], [-72.100218, 42.113038], [-72.100001, 42.112998], [-72.099844, 42.112965], [-72.099489, 42.112889], [-72.099231, 42.112835], [-72.098855, 42.112748], [-72.098676, 42.112701], [-72.098535, 42.112661], [-72.09838, 42.11261], [-72.098202, 42.112546], [-72.09813, 42.112518], [-72.097966, 42.112448], [-72.097669, 42.112303], [-72.097612, 42.112264], [-72.097479, 42.112211], [-72.097254, 42.112046], [-72.097142, 42.111969], [-72.096936, 42.111821], [-72.096841, 42.111749], [-72.096743, 42.111681], [-72.09663, 42.111608], [-72.096513, 42.111539], [-72.096391, 42.111475], [-72.096282, 42.111424], [-72.096169, 42.111377], [-72.096054, 42.111334], [-72.09593, 42.111292], [-72.095803, 42.111254], [-72.095581, 42.111194], [-72.095364, 42.111144], [-72.095211, 42.11111], [-72.095055, 42.111082], [-72.094989, 42.111071], [-72.094723, 42.11104], [-72.094589, 42.11103], [-72.094455, 42.111024], [-72.094214, 42.11102], [-72.094, 42.111027], [-72.09379, 42.111049], [-72.093634, 42.111076], [-72.093506, 42.111103], [-72.09329, 42.11114], [-72.09317, 42.111162], [-72.093014, 42.111195], [-72.092702, 42.111267], [-72.092558, 42.111298], [-72.092271, 42.111363], [-72.091889, 42.111457], [-72.091657, 42.11151], [-72.091511, 42.111545], [-72.091284, 42.111604], [-72.091065, 42.111656], [-72.09068, 42.111739], [-72.090529, 42.111772], [-72.09021, 42.111838], [-72.08974, 42.111944], [-72.089466, 42.112002], [-72.089271, 42.112046], [-72.089033, 42.112095], [-72.088955, 42.112107], [-72.088808, 42.112128], [-72.088611, 42.112152], [-72.088376, 42.112175], [-72.088053, 42.1122], [-72.088028, 42.112174], [-72.087994, 42.11215], [-72.08796, 42.112127], [-72.087906, 42.112113], [-72.087851, 42.1121], [-72.087797, 42.112085], [-72.08774, 42.112065], [-72.087685, 42.112043], [-72.08763, 42.112021], [-72.087553, 42.111993], [-72.087475, 42.111965], [-72.087398, 42.111937], [-72.087292, 42.111912], [-72.087188, 42.111885], [-72.087056, 42.111843], [-72.086858, 42.111785], [-72.086626, 42.111718], [-72.085863, 42.111497], [-72.085384, 42.111357], [-72.085223, 42.111347], [-72.085192, 42.111337], [-72.085155, 42.111325], [-72.085041, 42.111278], [-72.084924, 42.111233], [-72.084805, 42.111185], [-72.08472, 42.111144], [-72.084643, 42.11111], [-72.084566, 42.11107], [-72.084501, 42.111038], [-72.084437, 42.111005], [-72.084389, 42.110979], [-72.084374, 42.110971], [-72.084289, 42.110923], [-72.084206, 42.110874], [-72.084124, 42.110824], [-72.084026, 42.11076], [-72.083998, 42.110741], [-72.083875, 42.110655], [-72.083752, 42.110569], [-72.083701, 42.110534], [-72.083658, 42.110504], [-72.083563, 42.11044], [-72.083472, 42.110374], [-72.083454, 42.11036], [-72.083395, 42.110314], [-72.08332, 42.110253], [-72.083222, 42.110177], [-72.083154, 42.110128], [-72.083063, 42.110065], [-72.082975, 42.109999], [-72.082912, 42.109948], [-72.082851, 42.109895], [-72.082788, 42.109844], [-72.082687, 42.109767], [-72.082584, 42.109693], [-72.082481, 42.109618], [-72.08242, 42.109572], [-72.082372, 42.109536], [-72.082265, 42.109452], [-72.082157, 42.10937], [-72.082, 42.109249], [-72.081844, 42.109129], [-72.08181, 42.109103], [-72.081687, 42.109009], [-72.081529, 42.108891], [-72.081493, 42.108865], [-72.081371, 42.108774], [-72.081215, 42.108655], [-72.08118, 42.108627], [-72.081145, 42.108599], [-72.08111, 42.108571], [-72.080999, 42.108484], [-72.080785, 42.108317], [-72.080593, 42.10818], [-72.080485, 42.108103], [-72.080375, 42.108019], [-72.080213, 42.107909], [-72.080051, 42.107809], [-72.079895, 42.10772], [-72.07974, 42.107637], [-72.079694, 42.107616], [-72.079615, 42.10758], [-72.079291, 42.107449], [-72.078991, 42.107327], [-72.078708, 42.107217], [-72.078632, 42.107185], [-72.077908, 42.106905], [-72.077759, 42.106843], [-72.077611, 42.106782], [-72.077466, 42.106716], [-72.077338, 42.10665], [-72.077212, 42.10658], [-72.077091, 42.106507], [-72.076962, 42.106423], [-72.076838, 42.106335], [-72.07672, 42.106243], [-72.076665, 42.106196], [-72.076611, 42.106149], [-72.076553, 42.106097], [-72.076458, 42.106005], [-72.076365, 42.105906], [-72.076277, 42.105804], [-72.076196, 42.1057], [-72.076121, 42.105593], [-72.076052, 42.105484], [-72.075999, 42.105394], [-72.07595, 42.105303], [-72.075905, 42.105211], [-72.075863, 42.10512], [-72.075825, 42.105029], [-72.075793, 42.104937], [-72.075766, 42.104845], [-72.075744, 42.104754], [-72.075726, 42.104661], [-72.075712, 42.104565], [-72.075702, 42.104469], [-72.075705, 42.104366], [-72.07575, 42.102834], [-72.075753, 42.102742], [-72.075763, 42.102599], [-72.075763, 42.102456], [-72.07575, 42.102324], [-72.075729, 42.102193], [-72.075703, 42.102062], [-72.075662, 42.101898], [-72.075612, 42.101735], [-72.07555, 42.101575], [-72.075462, 42.101398], [-72.07538, 42.101259], [-72.075279, 42.101106], [-72.075177, 42.100968], [-72.075068, 42.100833], [-72.074958, 42.100698], [-72.074834, 42.100579], [-72.074628, 42.100382], [-72.074589, 42.100343], [-72.074339, 42.100113], [-72.074124, 42.099916], [-72.073877, 42.099686], [-72.073797, 42.099612], [-72.073716, 42.099525], [-72.073635, 42.099438], [-72.073557, 42.09935], [-72.073476, 42.099253], [-72.073398, 42.099154], [-72.073325, 42.099053], [-72.07326, 42.09895], [-72.073199, 42.098845], [-72.073144, 42.098738], [-72.073091, 42.098619], [-72.073044, 42.098498], [-72.072997, 42.098377], [-72.072948, 42.098237], [-72.07262, 42.09729], [-72.072561, 42.097141], [-72.072491, 42.096993], [-72.072422, 42.096863], [-72.072341, 42.096734], [-72.072255, 42.096608], [-72.072155, 42.096481], [-72.072054, 42.09636], [-72.071941, 42.096241], [-72.071816, 42.096118], [-72.071739, 42.096048], [-72.071685, 42.095998], [-72.071487, 42.095836], [-72.071421, 42.095781], [-72.071196, 42.095596], [-72.07115, 42.095559], [-72.071114, 42.095529], [-72.070952, 42.095405], [-72.070801, 42.09529], [-72.070706, 42.095217], [-72.070207, 42.094837], [-72.069848, 42.094561], [-72.069809, 42.094531], [-72.069604, 42.094373], [-72.069442, 42.094248], [-72.069308, 42.094144], [-72.069175, 42.09404], [-72.069103, 42.093981], [-72.069045, 42.093935], [-72.068949, 42.093852], [-72.068901, 42.09381], [-72.068854, 42.093768], [-72.068761, 42.093684], [-72.068661, 42.093596], [-72.068562, 42.093507], [-72.068548, 42.093493], [-72.068467, 42.093415], [-72.068352, 42.093296], [-72.068297, 42.093235], [-72.068243, 42.093173], [-72.068137, 42.093047], [-72.068023, 42.092903], [-72.068014, 42.092892], [-72.067892, 42.092722], [-72.067785, 42.092562], [-72.067689, 42.092397], [-72.067585, 42.092207], [-72.067574, 42.092183], [-72.067492, 42.092017], [-72.067487, 42.092008], [-72.067191, 42.09141], [-72.067012, 42.091088], [-72.066867, 42.090809], [-72.066773, 42.090626], [-72.066697, 42.090479], [-72.066583, 42.090259], [-72.066457, 42.089999], [-72.066388, 42.089868], [-72.066306, 42.089738], [-72.066218, 42.089608], [-72.066125, 42.089482], [-72.066021, 42.089361], [-72.065906, 42.08924], [-72.065791, 42.089131], [-72.065667, 42.089026], [-72.065537, 42.088924], [-72.065394, 42.088826], [-72.065286, 42.088756], [-72.065191, 42.088698], [-72.065097, 42.088642], [-72.064936, 42.088556], [-72.06491, 42.088544], [-72.064765, 42.088475], [-72.064627, 42.088417], [-72.064531, 42.088381], [-72.064453, 42.088351], [-72.064301, 42.088296], [-72.064237, 42.088275], [-72.064076, 42.088223], [-72.063808, 42.088139], [-72.063464, 42.088037], [-72.063385, 42.088014], [-72.0631, 42.087931], [-72.062668, 42.087805], [-72.061853, 42.087568], [-72.0614, 42.087436], [-72.060874, 42.087283], [-72.060645, 42.087216], [-72.060498, 42.087173], [-72.060414, 42.087149], [-72.060253, 42.0871], [-72.059949, 42.087009], [-72.059808, 42.086963], [-72.059671, 42.086915], [-72.059536, 42.086866], [-72.059398, 42.086814], [-72.059264, 42.086759], [-72.059135, 42.086706], [-72.059003, 42.086648], [-72.058878, 42.086589], [-72.058702, 42.086488], [-72.058587, 42.086418], [-72.058532, 42.086385], [-72.058368, 42.086286], [-72.058195, 42.086175], [-72.057982, 42.086037], [-72.057622, 42.085803], [-72.057292, 42.08559], [-72.056818, 42.085282], [-72.056604, 42.085152], [-72.056401, 42.085027], [-72.056272, 42.085025], [-72.056138, 42.084975], [-72.056048, 42.084939], [-72.055958, 42.084902], [-72.055788, 42.084827], [-72.055683, 42.084776], [-72.055593, 42.084745], [-72.055502, 42.084714], [-72.055414, 42.084681], [-72.055331, 42.084643], [-72.055251, 42.084604], [-72.055171, 42.084563], [-72.055093, 42.08452], [-72.055016, 42.084476], [-72.054941, 42.084431], [-72.054872, 42.084386], [-72.054804, 42.08434], [-72.054732, 42.0843], [-72.054648, 42.084266], [-72.05456, 42.084239], [-72.054404, 42.084193], [-72.054258, 42.08414], [-72.054152, 42.084107], [-72.054046, 42.084074], [-72.053884, 42.084028], [-72.053721, 42.083982], [-72.05356, 42.083933], [-72.053428, 42.083889], [-72.053298, 42.083842], [-72.05311, 42.083771], [-72.053072, 42.083759], [-72.052976, 42.083723], [-72.052881, 42.083686], [-72.052765, 42.08364], [-72.052649, 42.083593], [-72.052537, 42.083542], [-72.052452, 42.083498], [-72.052368, 42.083453], [-72.052286, 42.083407], [-72.052185, 42.08335], [-72.052086, 42.083293], [-72.05199, 42.083233], [-72.051909, 42.083176], [-72.051831, 42.083117], [-72.051751, 42.08306], [-72.051667, 42.083006], [-72.051582, 42.082952], [-72.051497, 42.082898], [-72.051402, 42.082836], [-72.051308, 42.082773], [-72.051212, 42.082714], [-72.051113, 42.082657], [-72.051011, 42.082604], [-72.050953, 42.082576], [-72.050907, 42.082553], [-72.050821, 42.082513], [-72.050733, 42.082475], [-72.050644, 42.082438], [-72.050545, 42.082401], [-72.050444, 42.082366], [-72.050343, 42.082332], [-72.050273, 42.08231], [-72.050203, 42.082289], [-72.050133, 42.082268], [-72.050016, 42.082232], [-72.049899, 42.082195], [-72.049784, 42.082156], [-72.049677, 42.082118], [-72.049571, 42.082079], [-72.049474, 42.082031], [-72.049412, 42.081987], [-72.049383, 42.081963], [-72.049354, 42.081939], [-72.04931, 42.081904], [-72.048848, 42.081924], [-72.048526, 42.081926], [-72.048333, 42.081926], [-72.048181, 42.081925], [-72.048111, 42.081925], [-72.047682, 42.081898], [-72.047502, 42.08188], [-72.047325, 42.081858], [-72.047273, 42.08185], [-72.047148, 42.081831], [-72.046979, 42.081802], [-72.046813, 42.081765], [-72.046799, 42.081761], [-72.046658, 42.081722], [-72.046501, 42.081671], [-72.046344, 42.081614], [-72.046274, 42.081584], [-72.046204, 42.081552], [-72.046193, 42.081547], [-72.046137, 42.081519], [-72.046069, 42.081483], [-72.046003, 42.081445], [-72.045939, 42.081405], [-72.045877, 42.081362], [-72.045818, 42.081316], [-72.045789, 42.081293], [-72.04576, 42.08127], [-72.045694, 42.081214], [-72.04563, 42.081158], [-72.045587, 42.08112], [-72.045566, 42.081101], [-72.045535, 42.081074], [-72.045353, 42.080913], [-72.045326, 42.080889], [-72.045289, 42.08086], [-72.04525, 42.080832], [-72.045207, 42.080807], [-72.045163, 42.080784], [-72.045099, 42.080762], [-72.044868, 42.080715], [-72.044721, 42.08069], [-72.044596, 42.080669], [-72.04426, 42.08062], [-72.044142, 42.080602], [-72.043079, 42.080476], [-72.042811, 42.080408], [-72.042285, 42.080205], [-72.042014, 42.080101], [-72.041879, 42.080044], [-72.04062, 42.079507], [-72.04005, 42.079205], [-72.039843, 42.079054], [-72.039637, 42.078791], [-72.039602, 42.078709], [-72.039469, 42.078376], [-72.039418, 42.078297], [-72.039367, 42.078241], [-72.039347, 42.078219], [-72.039236, 42.078135], [-72.039123, 42.078071], [-72.038725, 42.077872], [-72.038229, 42.077671], [-72.037487, 42.077481], [-72.036861, 42.077312], [-72.036441, 42.077111], [-72.036215, 42.076937], [-72.036101, 42.076848], [-72.036021, 42.076781], [-72.035705, 42.076536], [-72.035517, 42.076387], [-72.03511, 42.07605], [-72.035035, 42.075984], [-72.034574, 42.075579], [-72.034267, 42.075309], [-72.034018, 42.075153], [-72.0339, 42.075079], [-72.033673, 42.074969], [-72.033532, 42.0749], [-72.033416, 42.074844], [-72.033164, 42.074734], [-72.032982, 42.074652], [-72.03291, 42.07462], [-72.032723, 42.074534], [-72.032294, 42.074338], [-72.032123, 42.074258], [-72.031786, 42.074099], [-72.03177, 42.074091], [-72.031746, 42.07408], [-72.031644, 42.074037], [-72.03151, 42.07398], [-72.031187, 42.073842], [-72.031127, 42.073815], [-72.031025, 42.073771], [-72.030975, 42.073748], [-72.030786, 42.073665], [-72.030733, 42.073641], [-72.030624, 42.073596], [-72.030549, 42.073566], [-72.030523, 42.073556], [-72.030474, 42.073536], [-72.030398, 42.073507], [-72.030321, 42.073481], [-72.030243, 42.073456], [-72.030163, 42.073433], [-72.030123, 42.073423], [-72.0301, 42.073418], [-72.030036, 42.073405], [-72.03001, 42.0734], [-72.029972, 42.073393], [-72.029885, 42.073381], [-72.029798, 42.073373], [-72.02971, 42.073364], [-72.029608, 42.073355], [-72.029506, 42.073345], [-72.029404, 42.073336], [-72.028953, 42.073312], [-72.028881, 42.073309], [-72.028809, 42.073307], [-72.028737, 42.073303], [-72.028652, 42.073301], [-72.028567, 42.073299], [-72.028483, 42.073298], [-72.028392, 42.073298], [-72.028302, 42.073298], [-72.028212, 42.073299], [-72.027992, 42.073307], [-72.027762, 42.073315], [-72.0277, 42.073317], [-72.027001, 42.073353], [-72.026851, 42.073365], [-72.026723, 42.073358], [-72.026667, 42.073361], [-72.026631, 42.073362], [-72.026599, 42.073361], [-72.026586, 42.07336], [-72.026513, 42.073356], [-72.026407, 42.073347], [-72.026363, 42.07333], [-72.026314, 42.07332], [-72.025601, 42.072906], [-72.025504, 42.072849], [-72.025443, 42.072806], [-72.024667, 42.072256], [-72.024571, 42.072181], [-72.024474, 42.072108], [-72.024381, 42.072032], [-72.024318, 42.071976], [-72.024256, 42.07192], [-72.024196, 42.071862], [-72.02413, 42.071795], [-72.024066, 42.071726], [-72.024003, 42.071657], [-72.02331, 42.070884], [-72.023241, 42.070815], [-72.023207, 42.070781], [-72.023109, 42.070692], [-72.023004, 42.070606], [-72.022909, 42.070537], [-72.02281, 42.070472], [-72.022707, 42.07041], [-72.022591, 42.070345], [-72.022471, 42.070285], [-72.022347, 42.070229], [-72.022207, 42.070174], [-72.022062, 42.070124], [-72.022026, 42.070113], [-72.021915, 42.070079], [-72.021781, 42.070042], [-72.021645, 42.070007], [-72.021508, 42.069977], [-72.021353, 42.069946], [-72.021197, 42.069921], [-72.021039, 42.069906], [-72.020887, 42.069906], [-72.020735, 42.069915], [-72.020582, 42.069925], [-72.020511, 42.069934], [-72.020421, 42.069948], [-72.020243, 42.06997], [-72.020092, 42.06999], [-72.019946, 42.07002], [-72.01971, 42.070062], [-72.019596, 42.07008], [-72.019577, 42.070084], [-72.019521, 42.070093], [-72.019338, 42.070131], [-72.019214, 42.070155], [-72.019068, 42.070184], [-72.018943, 42.070216], [-72.018821, 42.070245], [-72.018637, 42.070305], [-72.018472, 42.070366], [-72.018307, 42.070421], [-72.018149, 42.070479], [-72.018034, 42.070516], [-72.017912, 42.070548], [-72.017783, 42.07058], [-72.017566, 42.070631], [-72.017098, 42.070723], [-72.016718, 42.070788], [-72.016593, 42.070808], [-72.01604, 42.0709], [-72.015937, 42.070917], [-72.015506, 42.070989], [-72.015362, 42.071006], [-72.015294, 42.071019], [-72.015186, 42.071038], [-72.015069, 42.071054], [-72.014966, 42.071061], [-72.014901, 42.071066], [-72.014837, 42.071074], [-72.014718, 42.071079], [-72.014624, 42.071079], [-72.014525, 42.071073], [-72.014471, 42.07107], [-72.014437, 42.071069], [-72.014325, 42.071059], [-72.014198, 42.071041], [-72.014116, 42.071024], [-72.014055, 42.071012], [-72.013998, 42.071], [-72.013873, 42.070963], [-72.01372, 42.070927], [-72.013529, 42.070874], [-72.013371, 42.07083], [-72.013142, 42.070766], [-72.012996, 42.070717], [-72.012918, 42.070682], [-72.012859, 42.070655], [-72.01276, 42.070611], [-72.012726, 42.070595], [-72.01258, 42.070521], [-72.012456, 42.070433], [-72.012317, 42.070348], [-72.012171, 42.070247], [-72.012045, 42.070149], [-72.011852, 42.070012], [-72.011809, 42.06998], [-72.011679, 42.069884], [-72.011641, 42.069856]]}}, {"type": "Feature", "properties": {"company": "Worcester Consolidated Street Railway", "line": "Worcester Consolidated: Fiskdale - Sturbridge Center - Globe Village - Southbridge - Sandersdale", "id": "worcester-consolidated-street-railway-sturbridge-branch", "color": "#D4A017", "mode": "streetcar", "avg_speed_kmh": 18, "speed_source": "A dated (1901) company timetable detail survives for the Southbridge-Sturbridge leg specifically: fare 5 cents, running time 15 minutes -- roughly 18 km/h over that ~4.5 mile stretch. Applied here as a single average for the whole Fiskdale-Sandersdale line; no source gives a separate speed for the Globe Village-Sandersdale extension.", "segments": [{"start": 1911, "end": 1930, "headway_min": 60, "note": "The Worcester and Southbridge was one of four companies merged into the Worcester Consolidated Street Railway on May 3, 1911. No source found gives a specific abandonment date for this branch -- Worcester Consolidated's rural/suburban lines were abandoned in a wave between 1924 and 1930 as the company retrenched to its most profitable routes (Southbridge itself is named as one of the surviving destinations in the mid-1920s cutback, but that doesn't confirm this Sturbridge branch specifically survived to the end of the window), so 1930 is used here as a placeholder end date, flagged in this file's not_yet_sourced. Headway is an unsourced estimate."}], "geometry_source": "Routed along present-day street centrelines from OpenStreetMap (ODbL) via Overpass (overpass.openstreetmap.fr): shortest path along the road network from Fiskdale (Sturbridge) through Sturbridge Center and Globe Village to Southbridge Center, mostly on Main Street with brief stretches signed 'Old Southbridge Road'/'Old Sturbridge Road' -- plausibly closer to the original alignment than the modern Route 131 realignment, given the names -- then continuing via Main Street, the Southbridge Rotary and East Main Street to Sandersdale. No abandoned railway/streetcar trace survives in OSM for this line (it was a true street railway, running in the roadway throughout), so this is street-centreline routing rather than a track alignment. Passes within 175m of Globe Village and 200m of Sturbridge Center as geocoded. 702 points, 10.82 km (6.72 mi) one-way against the 7.44 mi Fiskdale-Sandersdale figure the company itself reported at opening -- a reasonable match; the shortfall is most likely the terminal/yard trackage at each end plus minor local deviations this routing can't recover. Checked for self-intersection using cumulative along-path distance (not just point proximity, which false-positives heavily on a dense, nearly-straight road) -- none found.", "geometry_quality": "STREET-CENTRELINE ROUTING, not a traced track alignment -- there is nothing else to trace against, since no railway-tagged remnant of this line survives in OpenStreetMap. Which side of the street the single track ran, the exact routing through Sturbridge Center and Southbridge Center (both dense village cores where several streets converge), and the original vs. Route-131-era alignment near Sandersdale are not verified against period maps or Sanborn atlases. No leg is a straight-line placeholder."}, "geometry": {"type": "LineString", "coordinates": [[-72.113353, 42.116235], [-72.113227, 42.116231], [-72.113058, 42.116209], [-72.112905, 42.116189], [-72.112795, 42.116166], [-72.112574, 42.116115], [-72.112413, 42.116073], [-72.112374, 42.116064], [-72.112213, 42.116019], [-72.111968, 42.115951], [-72.111539, 42.115833], [-72.111328, 42.115769], [-72.11106, 42.115695], [-72.110949, 42.115671], [-72.110773, 42.115621], [-72.110569, 42.115563], [-72.110365, 42.115502], [-72.110075, 42.11542], [-72.109842, 42.115358], [-72.109782, 42.115341], [-72.109731, 42.115327], [-72.109567, 42.115282], [-72.109415, 42.115241], [-72.109305, 42.115211], [-72.109171, 42.115177], [-72.109061, 42.115145], [-72.108875, 42.115087], [-72.108753, 42.115053], [-72.108492, 42.114987], [-72.108383, 42.114957], [-72.108134, 42.114891], [-72.107932, 42.114834], [-72.107723, 42.114773], [-72.107502, 42.11471], [-72.1073, 42.114654], [-72.106892, 42.114533], [-72.106431, 42.114412], [-72.1063, 42.114375], [-72.106039, 42.114301], [-72.105597, 42.114191], [-72.105251, 42.114101], [-72.104924, 42.114026], [-72.10476, 42.113992], [-72.104321, 42.11391], [-72.104093, 42.113863], [-72.103847, 42.113811], [-72.103433, 42.113724], [-72.103304, 42.113696], [-72.103048, 42.113639], [-72.102945, 42.113617], [-72.10274, 42.113577], [-72.102688, 42.113567], [-72.102616, 42.113551], [-72.101989, 42.113416], [-72.101765, 42.113368], [-72.101222, 42.113255], [-72.101051, 42.113219], [-72.100868, 42.113182], [-72.100657, 42.113136], [-72.100343, 42.113065], [-72.100218, 42.113038], [-72.100001, 42.112998], [-72.099844, 42.112965], [-72.099489, 42.112889], [-72.099231, 42.112835], [-72.098855, 42.112748], [-72.098676, 42.112701], [-72.098535, 42.112661], [-72.09838, 42.11261], [-72.098202, 42.112546], [-72.09813, 42.112518], [-72.097966, 42.112448], [-72.097669, 42.112303], [-72.097612, 42.112264], [-72.097479, 42.112211], [-72.097254, 42.112046], [-72.097142, 42.111969], [-72.096936, 42.111821], [-72.096841, 42.111749], [-72.096743, 42.111681], [-72.09663, 42.111608], [-72.096513, 42.111539], [-72.096391, 42.111475], [-72.096282, 42.111424], [-72.096169, 42.111377], [-72.096054, 42.111334], [-72.09593, 42.111292], [-72.095803, 42.111254], [-72.095581, 42.111194], [-72.095364, 42.111144], [-72.095211, 42.11111], [-72.095055, 42.111082], [-72.094989, 42.111071], [-72.094723, 42.11104], [-72.094589, 42.11103], [-72.094455, 42.111024], [-72.094214, 42.11102], [-72.094, 42.111027], [-72.09379, 42.111049], [-72.093634, 42.111076], [-72.093506, 42.111103], [-72.09329, 42.11114], [-72.09317, 42.111162], [-72.093014, 42.111195], [-72.092702, 42.111267], [-72.092558, 42.111298], [-72.092271, 42.111363], [-72.091889, 42.111457], [-72.091657, 42.11151], [-72.091511, 42.111545], [-72.091284, 42.111604], [-72.091065, 42.111656], [-72.09068, 42.111739], [-72.090529, 42.111772], [-72.09021, 42.111838], [-72.08974, 42.111944], [-72.089466, 42.112002], [-72.089271, 42.112046], [-72.089033, 42.112095], [-72.088955, 42.112107], [-72.088808, 42.112128], [-72.088611, 42.112152], [-72.088376, 42.112175], [-72.088053, 42.1122], [-72.088028, 42.112174], [-72.087994, 42.11215], [-72.08796, 42.112127], [-72.087906, 42.112113], [-72.087851, 42.1121], [-72.087797, 42.112085], [-72.08774, 42.112065], [-72.087685, 42.112043], [-72.08763, 42.112021], [-72.087553, 42.111993], [-72.087475, 42.111965], [-72.087398, 42.111937], [-72.087292, 42.111912], [-72.087188, 42.111885], [-72.087056, 42.111843], [-72.086858, 42.111785], [-72.086626, 42.111718], [-72.085863, 42.111497], [-72.085384, 42.111357], [-72.085223, 42.111347], [-72.085192, 42.111337], [-72.085155, 42.111325], [-72.085041, 42.111278], [-72.084924, 42.111233], [-72.084805, 42.111185], [-72.08472, 42.111144], [-72.084643, 42.11111], [-72.084566, 42.11107], [-72.084501, 42.111038], [-72.084437, 42.111005], [-72.084389, 42.110979], [-72.084374, 42.110971], [-72.084289, 42.110923], [-72.084206, 42.110874], [-72.084124, 42.110824], [-72.084026, 42.11076], [-72.083998, 42.110741], [-72.083875, 42.110655], [-72.083752, 42.110569], [-72.083701, 42.110534], [-72.083658, 42.110504], [-72.083563, 42.11044], [-72.083472, 42.110374], [-72.083454, 42.11036], [-72.083395, 42.110314], [-72.08332, 42.110253], [-72.083222, 42.110177], [-72.083154, 42.110128], [-72.083063, 42.110065], [-72.082975, 42.109999], [-72.082912, 42.109948], [-72.082851, 42.109895], [-72.082788, 42.109844], [-72.082687, 42.109767], [-72.082584, 42.109693], [-72.082481, 42.109618], [-72.08242, 42.109572], [-72.082372, 42.109536], [-72.082265, 42.109452], [-72.082157, 42.10937], [-72.082, 42.109249], [-72.081844, 42.109129], [-72.08181, 42.109103], [-72.081687, 42.109009], [-72.081529, 42.108891], [-72.081493, 42.108865], [-72.081371, 42.108774], [-72.081215, 42.108655], [-72.08118, 42.108627], [-72.081145, 42.108599], [-72.08111, 42.108571], [-72.080999, 42.108484], [-72.080785, 42.108317], [-72.080593, 42.10818], [-72.080485, 42.108103], [-72.080375, 42.108019], [-72.080213, 42.107909], [-72.080051, 42.107809], [-72.079895, 42.10772], [-72.07974, 42.107637], [-72.079694, 42.107616], [-72.079615, 42.10758], [-72.079291, 42.107449], [-72.078991, 42.107327], [-72.078708, 42.107217], [-72.078632, 42.107185], [-72.077908, 42.106905], [-72.077759, 42.106843], [-72.077611, 42.106782], [-72.077466, 42.106716], [-72.077338, 42.10665], [-72.077212, 42.10658], [-72.077091, 42.106507], [-72.076962, 42.106423], [-72.076838, 42.106335], [-72.07672, 42.106243], [-72.076665, 42.106196], [-72.076611, 42.106149], [-72.076553, 42.106097], [-72.076458, 42.106005], [-72.076365, 42.105906], [-72.076277, 42.105804], [-72.076196, 42.1057], [-72.076121, 42.105593], [-72.076052, 42.105484], [-72.075999, 42.105394], [-72.07595, 42.105303], [-72.075905, 42.105211], [-72.075863, 42.10512], [-72.075825, 42.105029], [-72.075793, 42.104937], [-72.075766, 42.104845], [-72.075744, 42.104754], [-72.075726, 42.104661], [-72.075712, 42.104565], [-72.075702, 42.104469], [-72.075705, 42.104366], [-72.07575, 42.102834], [-72.075753, 42.102742], [-72.075763, 42.102599], [-72.075763, 42.102456], [-72.07575, 42.102324], [-72.075729, 42.102193], [-72.075703, 42.102062], [-72.075662, 42.101898], [-72.075612, 42.101735], [-72.07555, 42.101575], [-72.075462, 42.101398], [-72.07538, 42.101259], [-72.075279, 42.101106], [-72.075177, 42.100968], [-72.075068, 42.100833], [-72.074958, 42.100698], [-72.074834, 42.100579], [-72.074628, 42.100382], [-72.074589, 42.100343], [-72.074339, 42.100113], [-72.074124, 42.099916], [-72.073877, 42.099686], [-72.073797, 42.099612], [-72.073716, 42.099525], [-72.073635, 42.099438], [-72.073557, 42.09935], [-72.073476, 42.099253], [-72.073398, 42.099154], [-72.073325, 42.099053], [-72.07326, 42.09895], [-72.073199, 42.098845], [-72.073144, 42.098738], [-72.073091, 42.098619], [-72.073044, 42.098498], [-72.072997, 42.098377], [-72.072948, 42.098237], [-72.07262, 42.09729], [-72.072561, 42.097141], [-72.072491, 42.096993], [-72.072422, 42.096863], [-72.072341, 42.096734], [-72.072255, 42.096608], [-72.072155, 42.096481], [-72.072054, 42.09636], [-72.071941, 42.096241], [-72.071816, 42.096118], [-72.071739, 42.096048], [-72.071685, 42.095998], [-72.071487, 42.095836], [-72.071421, 42.095781], [-72.071196, 42.095596], [-72.07115, 42.095559], [-72.071114, 42.095529], [-72.070952, 42.095405], [-72.070801, 42.09529], [-72.070706, 42.095217], [-72.070207, 42.094837], [-72.069848, 42.094561], [-72.069809, 42.094531], [-72.069604, 42.094373], [-72.069442, 42.094248], [-72.069308, 42.094144], [-72.069175, 42.09404], [-72.069103, 42.093981], [-72.069045, 42.093935], [-72.068949, 42.093852], [-72.068901, 42.09381], [-72.068854, 42.093768], [-72.068761, 42.093684], [-72.068661, 42.093596], [-72.068562, 42.093507], [-72.068548, 42.093493], [-72.068467, 42.093415], [-72.068352, 42.093296], [-72.068297, 42.093235], [-72.068243, 42.093173], [-72.068137, 42.093047], [-72.068023, 42.092903], [-72.068014, 42.092892], [-72.067892, 42.092722], [-72.067785, 42.092562], [-72.067689, 42.092397], [-72.067585, 42.092207], [-72.067574, 42.092183], [-72.067492, 42.092017], [-72.067487, 42.092008], [-72.067191, 42.09141], [-72.067012, 42.091088], [-72.066867, 42.090809], [-72.066773, 42.090626], [-72.066697, 42.090479], [-72.066583, 42.090259], [-72.066457, 42.089999], [-72.066388, 42.089868], [-72.066306, 42.089738], [-72.066218, 42.089608], [-72.066125, 42.089482], [-72.066021, 42.089361], [-72.065906, 42.08924], [-72.065791, 42.089131], [-72.065667, 42.089026], [-72.065537, 42.088924], [-72.065394, 42.088826], [-72.065286, 42.088756], [-72.065191, 42.088698], [-72.065097, 42.088642], [-72.064936, 42.088556], [-72.06491, 42.088544], [-72.064765, 42.088475], [-72.064627, 42.088417], [-72.064531, 42.088381], [-72.064453, 42.088351], [-72.064301, 42.088296], [-72.064237, 42.088275], [-72.064076, 42.088223], [-72.063808, 42.088139], [-72.063464, 42.088037], [-72.063385, 42.088014], [-72.0631, 42.087931], [-72.062668, 42.087805], [-72.061853, 42.087568], [-72.0614, 42.087436], [-72.060874, 42.087283], [-72.060645, 42.087216], [-72.060498, 42.087173], [-72.060414, 42.087149], [-72.060253, 42.0871], [-72.059949, 42.087009], [-72.059808, 42.086963], [-72.059671, 42.086915], [-72.059536, 42.086866], [-72.059398, 42.086814], [-72.059264, 42.086759], [-72.059135, 42.086706], [-72.059003, 42.086648], [-72.058878, 42.086589], [-72.058702, 42.086488], [-72.058587, 42.086418], [-72.058532, 42.086385], [-72.058368, 42.086286], [-72.058195, 42.086175], [-72.057982, 42.086037], [-72.057622, 42.085803], [-72.057292, 42.08559], [-72.056818, 42.085282], [-72.056604, 42.085152], [-72.056401, 42.085027], [-72.056272, 42.085025], [-72.056138, 42.084975], [-72.056048, 42.084939], [-72.055958, 42.084902], [-72.055788, 42.084827], [-72.055683, 42.084776], [-72.055593, 42.084745], [-72.055502, 42.084714], [-72.055414, 42.084681], [-72.055331, 42.084643], [-72.055251, 42.084604], [-72.055171, 42.084563], [-72.055093, 42.08452], [-72.055016, 42.084476], [-72.054941, 42.084431], [-72.054872, 42.084386], [-72.054804, 42.08434], [-72.054732, 42.0843], [-72.054648, 42.084266], [-72.05456, 42.084239], [-72.054404, 42.084193], [-72.054258, 42.08414], [-72.054152, 42.084107], [-72.054046, 42.084074], [-72.053884, 42.084028], [-72.053721, 42.083982], [-72.05356, 42.083933], [-72.053428, 42.083889], [-72.053298, 42.083842], [-72.05311, 42.083771], [-72.053072, 42.083759], [-72.052976, 42.083723], [-72.052881, 42.083686], [-72.052765, 42.08364], [-72.052649, 42.083593], [-72.052537, 42.083542], [-72.052452, 42.083498], [-72.052368, 42.083453], [-72.052286, 42.083407], [-72.052185, 42.08335], [-72.052086, 42.083293], [-72.05199, 42.083233], [-72.051909, 42.083176], [-72.051831, 42.083117], [-72.051751, 42.08306], [-72.051667, 42.083006], [-72.051582, 42.082952], [-72.051497, 42.082898], [-72.051402, 42.082836], [-72.051308, 42.082773], [-72.051212, 42.082714], [-72.051113, 42.082657], [-72.051011, 42.082604], [-72.050953, 42.082576], [-72.050907, 42.082553], [-72.050821, 42.082513], [-72.050733, 42.082475], [-72.050644, 42.082438], [-72.050545, 42.082401], [-72.050444, 42.082366], [-72.050343, 42.082332], [-72.050273, 42.08231], [-72.050203, 42.082289], [-72.050133, 42.082268], [-72.050016, 42.082232], [-72.049899, 42.082195], [-72.049784, 42.082156], [-72.049677, 42.082118], [-72.049571, 42.082079], [-72.049474, 42.082031], [-72.049412, 42.081987], [-72.049383, 42.081963], [-72.049354, 42.081939], [-72.04931, 42.081904], [-72.048848, 42.081924], [-72.048526, 42.081926], [-72.048333, 42.081926], [-72.048181, 42.081925], [-72.048111, 42.081925], [-72.047682, 42.081898], [-72.047502, 42.08188], [-72.047325, 42.081858], [-72.047273, 42.08185], [-72.047148, 42.081831], [-72.046979, 42.081802], [-72.046813, 42.081765], [-72.046799, 42.081761], [-72.046658, 42.081722], [-72.046501, 42.081671], [-72.046344, 42.081614], [-72.046274, 42.081584], [-72.046204, 42.081552], [-72.046193, 42.081547], [-72.046137, 42.081519], [-72.046069, 42.081483], [-72.046003, 42.081445], [-72.045939, 42.081405], [-72.045877, 42.081362], [-72.045818, 42.081316], [-72.045789, 42.081293], [-72.04576, 42.08127], [-72.045694, 42.081214], [-72.04563, 42.081158], [-72.045587, 42.08112], [-72.045566, 42.081101], [-72.045535, 42.081074], [-72.045353, 42.080913], [-72.045326, 42.080889], [-72.045289, 42.08086], [-72.04525, 42.080832], [-72.045207, 42.080807], [-72.045163, 42.080784], [-72.045099, 42.080762], [-72.044868, 42.080715], [-72.044721, 42.08069], [-72.044596, 42.080669], [-72.04426, 42.08062], [-72.044142, 42.080602], [-72.043079, 42.080476], [-72.042811, 42.080408], [-72.042285, 42.080205], [-72.042014, 42.080101], [-72.041879, 42.080044], [-72.04062, 42.079507], [-72.04005, 42.079205], [-72.039843, 42.079054], [-72.039637, 42.078791], [-72.039602, 42.078709], [-72.039469, 42.078376], [-72.039418, 42.078297], [-72.039367, 42.078241], [-72.039347, 42.078219], [-72.039236, 42.078135], [-72.039123, 42.078071], [-72.038725, 42.077872], [-72.038229, 42.077671], [-72.037487, 42.077481], [-72.036861, 42.077312], [-72.036441, 42.077111], [-72.036215, 42.076937], [-72.036101, 42.076848], [-72.036021, 42.076781], [-72.035705, 42.076536], [-72.035517, 42.076387], [-72.03511, 42.07605], [-72.035035, 42.075984], [-72.034574, 42.075579], [-72.034267, 42.075309], [-72.034018, 42.075153], [-72.0339, 42.075079], [-72.033673, 42.074969], [-72.033532, 42.0749], [-72.033416, 42.074844], [-72.033164, 42.074734], [-72.032982, 42.074652], [-72.03291, 42.07462], [-72.032723, 42.074534], [-72.032294, 42.074338], [-72.032123, 42.074258], [-72.031786, 42.074099], [-72.03177, 42.074091], [-72.031746, 42.07408], [-72.031644, 42.074037], [-72.03151, 42.07398], [-72.031187, 42.073842], [-72.031127, 42.073815], [-72.031025, 42.073771], [-72.030975, 42.073748], [-72.030786, 42.073665], [-72.030733, 42.073641], [-72.030624, 42.073596], [-72.030549, 42.073566], [-72.030523, 42.073556], [-72.030474, 42.073536], [-72.030398, 42.073507], [-72.030321, 42.073481], [-72.030243, 42.073456], [-72.030163, 42.073433], [-72.030123, 42.073423], [-72.0301, 42.073418], [-72.030036, 42.073405], [-72.03001, 42.0734], [-72.029972, 42.073393], [-72.029885, 42.073381], [-72.029798, 42.073373], [-72.02971, 42.073364], [-72.029608, 42.073355], [-72.029506, 42.073345], [-72.029404, 42.073336], [-72.028953, 42.073312], [-72.028881, 42.073309], [-72.028809, 42.073307], [-72.028737, 42.073303], [-72.028652, 42.073301], [-72.028567, 42.073299], [-72.028483, 42.073298], [-72.028392, 42.073298], [-72.028302, 42.073298], [-72.028212, 42.073299], [-72.027992, 42.073307], [-72.027762, 42.073315], [-72.0277, 42.073317], [-72.027001, 42.073353], [-72.026851, 42.073365], [-72.026723, 42.073358], [-72.026667, 42.073361], [-72.026631, 42.073362], [-72.026599, 42.073361], [-72.026586, 42.07336], [-72.026513, 42.073356], [-72.026407, 42.073347], [-72.026363, 42.07333], [-72.026314, 42.07332], [-72.025601, 42.072906], [-72.025504, 42.072849], [-72.025443, 42.072806], [-72.024667, 42.072256], [-72.024571, 42.072181], [-72.024474, 42.072108], [-72.024381, 42.072032], [-72.024318, 42.071976], [-72.024256, 42.07192], [-72.024196, 42.071862], [-72.02413, 42.071795], [-72.024066, 42.071726], [-72.024003, 42.071657], [-72.02331, 42.070884], [-72.023241, 42.070815], [-72.023207, 42.070781], [-72.023109, 42.070692], [-72.023004, 42.070606], [-72.022909, 42.070537], [-72.02281, 42.070472], [-72.022707, 42.07041], [-72.022591, 42.070345], [-72.022471, 42.070285], [-72.022347, 42.070229], [-72.022207, 42.070174], [-72.022062, 42.070124], [-72.022026, 42.070113], [-72.021915, 42.070079], [-72.021781, 42.070042], [-72.021645, 42.070007], [-72.021508, 42.069977], [-72.021353, 42.069946], [-72.021197, 42.069921], [-72.021039, 42.069906], [-72.020887, 42.069906], [-72.020735, 42.069915], [-72.020582, 42.069925], [-72.020511, 42.069934], [-72.020421, 42.069948], [-72.020243, 42.06997], [-72.020092, 42.06999], [-72.019946, 42.07002], [-72.01971, 42.070062], [-72.019596, 42.07008], [-72.019577, 42.070084], [-72.019521, 42.070093], [-72.019338, 42.070131], [-72.019214, 42.070155], [-72.019068, 42.070184], [-72.018943, 42.070216], [-72.018821, 42.070245], [-72.018637, 42.070305], [-72.018472, 42.070366], [-72.018307, 42.070421], [-72.018149, 42.070479], [-72.018034, 42.070516], [-72.017912, 42.070548], [-72.017783, 42.07058], [-72.017566, 42.070631], [-72.017098, 42.070723], [-72.016718, 42.070788], [-72.016593, 42.070808], [-72.01604, 42.0709], [-72.015937, 42.070917], [-72.015506, 42.070989], [-72.015362, 42.071006], [-72.015294, 42.071019], [-72.015186, 42.071038], [-72.015069, 42.071054], [-72.014966, 42.071061], [-72.014901, 42.071066], [-72.014837, 42.071074], [-72.014718, 42.071079], [-72.014624, 42.071079], [-72.014525, 42.071073], [-72.014471, 42.07107], [-72.014437, 42.071069], [-72.014325, 42.071059], [-72.014198, 42.071041], [-72.014116, 42.071024], [-72.014055, 42.071012], [-72.013998, 42.071], [-72.013873, 42.070963], [-72.01372, 42.070927], [-72.013529, 42.070874], [-72.013371, 42.07083], [-72.013142, 42.070766], [-72.012996, 42.070717], [-72.012918, 42.070682], [-72.012859, 42.070655], [-72.01276, 42.070611], [-72.012726, 42.070595], [-72.01258, 42.070521], [-72.012456, 42.070433], [-72.012317, 42.070348], [-72.012171, 42.070247], [-72.012045, 42.070149], [-72.011852, 42.070012], [-72.011809, 42.06998], [-72.011679, 42.069884], [-72.011641, 42.069856]]}}]}