{"type": "FeatureCollection", "metadata": {"note": "Southern Pacific's Coast Division between San Jose and Santa Barbara, drawn as the nine stages in which it was actually built, so the map shows the railhead creeping south. This layer exists to fill a hole: before it, nothing on the map served San Luis Obispo, Salinas, Paso Robles or Santa Maria between the 1870 end of sf_san_jose_railroad.geojson and the 1937 start of southern_pacific_coast_daylight.geojson. In 1897 - the year that prompted this layer - San Luis Obispo sat on a Southern Pacific stub running south from San Francisco as far as Surf, and on the Pacific Coast Railway's narrow gauge (pacific_coast_railway.geojson). Every feature is drawn from its opening year to 1971, when Southern Pacific handed intercity passenger service to Amtrak; the named streamliners that later ran this same iron are drawn separately in southern_pacific_coast_daylight.geojson and amtrak.geojson, so those features deliberately overlap this one. LA - Santa Barbara (opened August 1887 via the Santa Clara River valley) is NOT included here.", "source": "OpenStreetMap relations 4515581 (UP Coast Subdivision) and 4525173 (UP Santa Barbara Subdivision) for geometry; Southern Pacific 'Seventy-Five Years of Progress 1869-1944' (cprr.org), Wikipedia 'Coast Line (California)' and 'San Luis Obispo station', and the Monterey County Historical Society's 'Railroads of the Central Coast' for dates.", "pulled": "20260826", "geometry_quality": "Traced from present-day OSM track. San Jose - San Luis Obispo comes out at 200.9 mi against a documented Southern Pacific mileage of about 201 mi (SF-SLO 248.3 mi less SF-San Jose 47 mi), and San Luis Obispo - Guadalupe at 24.2 mi against a documented 25 mi. Straight-line bridging totals about 2.5 mi, all of it between Guadalupe and Surf. The one place the drawn alignment is later than the era shown is the San Jose end, which uses Southern Pacific's 1935 line around downtown San Jose.", "not_yet_sourced": "No 19th- or 20th-century Southern Pacific timetable was consulted: every headway_min and avg_speed_kmh here is an estimate. The Templeton/Santa Margarita railhead date (1886 vs 1889) and the San Luis Obispo first-train date (May 4 vs May 5 1894) are both unresolved conflicts between sources. The 'about 80 miles' usually quoted for the Surf - Santa Barbara gap does not match the 67.7 mi traced."}, "features": [{"type": "Feature", "properties": {"company": "Southern Pacific Railroad", "line": "Southern Pacific: San Jose \u2013 Gilroy", "id": "sp-coast-sj-gilroy", "color": "#C1272D", "mode": "intercity_rail", "avg_speed_kmh": 55, "speed_source": "Estimate. 19th-century Coast Division locals averaged well under 40 mph including stops; no timetable was consulted for this figure.", "geometry_quality": "Traced from the OSM UP Coast Subdivision relation (4515581) plus a shortest path over mapped track through San Jose; 29.8 mi traced. LATER ALIGNMENT THAN THE ERA DRAWN: the San Jose end follows the line Southern Pacific built around downtown San Jose in 1935, not the 1869 approach through the old San Jose station. Straight-line repair 2026-08-29: 1 ruled segment totalling 12 mi replaced with OpenStreetMap-traced rail geometry (see geometry_repairs for the OSM lines each one followed).", "segments": [{"start": 1869, "end": 1901, "headway_min": 240, "note": "Southern Pacific reached Gilroy on March 13 1869, the first stage of the Coast Division south of San Jose. Stub-end era. Until the Surf - Santa Barbara gap closed there was no through Coast Line train; service was San Francisco - railhead locals and mixed trains, with the far end connecting to Pacific Coast Steamship sailings. headway_min is an estimate - no 19th-century timetable was consulted.", "sources": ["Segment-level: opening date March 13 1869 from Southern Pacific's own 'Seventy-Five Years of Progress' chronology; headway and speed are estimates.", "http://cprr.org/Museum/SP_1869-1944/", "https://en.wikipedia.org/wiki/Coast_Line_(California)"]}, {"start": 1901, "end": 1937, "headway_min": 180, "note": "Through Coast Line era. Regular San Francisco - Los Angeles passenger service began March 31 1901 once ballasting of the new Surf - Santa Barbara line was finished. Named trains over this corridor included the Shore Line Limited (March 1 1906 - September 15 1931), the Coast Line Limited and the Lark overnight train. headway_min is an estimate.", "sources": ["Segment-level: opening date March 13 1869 from Southern Pacific's own 'Seventy-Five Years of Progress' chronology; headway and speed are estimates.", "http://cprr.org/Museum/SP_1869-1944/", "https://en.wikipedia.org/wiki/Coast_Line_(California)", "https://en.wikipedia.org/wiki/Shore_Line_Limited"]}, {"start": 1937, "end": 1971, "headway_min": 180, "note": "Streamliner era. The Coast Daylight began March 21 1937 and ran with the Lark and Coast Line locals until Southern Pacific handed intercity passenger service to Amtrak on May 1 1971 - the drawn end year. The named trains themselves are drawn separately in southern_pacific_coast_daylight.geojson and amtrak.geojson. headway_min is an estimate.", "sources": ["Segment-level: opening date March 13 1869 from Southern Pacific's own 'Seventy-Five Years of Progress' chronology; headway and speed are estimates.", "http://cprr.org/Museum/SP_1869-1944/", "https://en.wikipedia.org/wiki/Coast_Line_(California)", "https://en.wikipedia.org/wiki/Coast_Daylight"]}], "geometry_repairs": [{"date": "2026-08-29", "from": [-121.75254, 37.22703], "to": [-121.61692, 37.09674], "chord_mi": 11.69, "traced_mi": 11.7, "snap_m": [0, 0], "bridged_mi": 0.0, "osm_lines": ["UP Coast Subdivision (11.7 mi)"], "method": "Overpass rail graph, 8.0 km corridor, Dijkstra, simplified to 3.0 m"}]}, "geometry": {"type": "LineString", "coordinates": [[-121.90277, 37.32915], [-121.90263, 37.32417], [-121.90224, 37.32303], [-121.90151, 37.3221], [-121.89893, 37.3197], [-121.89735, 37.31876], [-121.89541, 37.31828], [-121.89033, 37.31794], [-121.88818, 37.31692], [-121.87355, 37.29896], [-121.87025, 37.29601], [-121.86805, 37.29469], [-121.86547, 37.29355], [-121.8471, 37.28743], [-121.84466, 37.28629], [-121.84271, 37.2848], [-121.8315, 37.27389], [-121.82075, 37.2663], [-121.7691, 37.23537], [-121.7525385, 37.2270258], [-121.7515718, 37.2264505], [-121.7503348, 37.2256067], [-121.7490025, 37.2245931], [-121.7479738, 37.2237341], [-121.746236, 37.2221196], [-121.7434491, 37.2192443], [-121.7422884, 37.2181421], [-121.7344386, 37.2113722], [-121.7324015, 37.2095366], [-121.6202035, 37.1000012], [-121.6169185, 37.0967438], [-121.60042, 37.06885], [-121.59347, 37.05626], [-121.57447, 37.01928], [-121.57088, 37.01377], [-121.56733, 37.00631]]}}, {"type": "Feature", "properties": {"company": "Southern Pacific Railroad", "line": "Southern Pacific: Gilroy \u2013 Salinas", "id": "sp-coast-gilroy-salinas", "color": "#C1272D", "mode": "intercity_rail", "avg_speed_kmh": 55, "speed_source": "Estimate. 19th-century Coast Division locals averaged well under 40 mph including stops; no timetable was consulted for this figure.", "geometry_quality": "Traced from the OSM UP Coast Subdivision relation (4515581); 37.8 mi traced, no straight-line legs.", "segments": [{"start": 1872, "end": 1901, "headway_min": 240, "note": "Extended from Gilroy to Hollister July 13 1871, Pajaro Junction November 27 1871 and Salinas November 1 1872; drawn from 1872, when Salinas was reached. Stub-end era. Until the Surf - Santa Barbara gap closed there was no through Coast Line train; service was San Francisco - railhead locals and mixed trains, with the far end connecting to Pacific Coast Steamship sailings. headway_min is an estimate - no 19th-century timetable was consulted.", "sources": ["Segment-level: 1871-1872 construction dates from Southern Pacific's 'Seventy-Five Years of Progress' chronology; headway and speed are estimates.", "http://cprr.org/Museum/SP_1869-1944/", "https://en.wikipedia.org/wiki/Coast_Line_(California)"]}, {"start": 1901, "end": 1937, "headway_min": 180, "note": "Through Coast Line era. Regular San Francisco - Los Angeles passenger service began March 31 1901 once ballasting of the new Surf - Santa Barbara line was finished. Named trains over this corridor included the Shore Line Limited (March 1 1906 - September 15 1931), the Coast Line Limited and the Lark overnight train. headway_min is an estimate.", "sources": ["Segment-level: 1871-1872 construction dates from Southern Pacific's 'Seventy-Five Years of Progress' chronology; headway and speed are estimates.", "http://cprr.org/Museum/SP_1869-1944/", "https://en.wikipedia.org/wiki/Coast_Line_(California)", "https://en.wikipedia.org/wiki/Shore_Line_Limited"]}, {"start": 1937, "end": 1971, "headway_min": 180, "note": "Streamliner era. The Coast Daylight began March 21 1937 and ran with the Lark and Coast Line locals until Southern Pacific handed intercity passenger service to Amtrak on May 1 1971 - the drawn end year. The named trains themselves are drawn separately in southern_pacific_coast_daylight.geojson and amtrak.geojson. headway_min is an estimate.", "sources": ["Segment-level: 1871-1872 construction dates from Southern Pacific's 'Seventy-Five Years of Progress' chronology; headway and speed are estimates.", "http://cprr.org/Museum/SP_1869-1944/", "https://en.wikipedia.org/wiki/Coast_Line_(California)", "https://en.wikipedia.org/wiki/Coast_Daylight"]}]}, "geometry": {"type": "LineString", "coordinates": [[-121.56733, 37.00631], [-121.56642, 37.00477], [-121.56515, 37.00132], [-121.56304, 36.99691], [-121.55907, 36.99074], [-121.55631, 36.98744], [-121.55336, 36.98445], [-121.54351, 36.97601], [-121.54255, 36.97452], [-121.54221, 36.97307], [-121.54905, 36.93618], [-121.54899, 36.93431], [-121.54804, 36.92963], [-121.54801, 36.92058], [-121.54845, 36.91938], [-121.54974, 36.91786], [-121.55524, 36.91474], [-121.55721, 36.91296], [-121.55847, 36.91132], [-121.55929, 36.90981], [-121.55952, 36.90719], [-121.56055, 36.90456], [-121.56073, 36.89966], [-121.56148, 36.89833], [-121.56248, 36.89778], [-121.56358, 36.89763], [-121.57706, 36.8985], [-121.57874, 36.89894], [-121.58205, 36.90064], [-121.58716, 36.90199], [-121.59291, 36.90199], [-121.5991, 36.90118], [-121.60184, 36.90142], [-121.61091, 36.9045], [-121.61864, 36.90948], [-121.62014, 36.90966], [-121.62417, 36.9096], [-121.62663, 36.91103], [-121.62795, 36.91126], [-121.62879, 36.91107], [-121.62973, 36.91038], [-121.63364, 36.90506], [-121.63418, 36.90347], [-121.63473, 36.89844], [-121.63546, 36.89635], [-121.63634, 36.89481], [-121.63739, 36.89376], [-121.63839, 36.89315], [-121.63961, 36.89267], [-121.64121, 36.89236], [-121.65172, 36.89105], [-121.65463, 36.89098], [-121.7085, 36.9011], [-121.71198, 36.90144], [-121.71573, 36.90117], [-121.74091, 36.89628], [-121.74335, 36.89547], [-121.74494, 36.89441], [-121.74617, 36.8929], [-121.74685, 36.89102], [-121.74696, 36.88935], [-121.74646, 36.88292], [-121.74671, 36.87913], [-121.74546, 36.87436], [-121.74624, 36.86932], [-121.74777, 36.86674], [-121.75305, 36.86213], [-121.75443, 36.86048], [-121.75538, 36.85856], [-121.75699, 36.85349], [-121.75717, 36.85208], [-121.75692, 36.85078], [-121.75362, 36.84531], [-121.75162, 36.8438], [-121.74553, 36.8417], [-121.7424, 36.83985], [-121.74129, 36.83884], [-121.73981, 36.8369], [-121.73906, 36.83534], [-121.73861, 36.83348], [-121.73858, 36.83125], [-121.73901, 36.82938], [-121.74813, 36.80481], [-121.74914, 36.80298], [-121.75411, 36.79629], [-121.7546, 36.79495], [-121.75469, 36.79341], [-121.73782, 36.73821], [-121.73601, 36.73429], [-121.73283, 36.73011], [-121.70383, 36.70024], [-121.70105, 36.69764], [-121.69775, 36.69519], [-121.69459, 36.6933], [-121.69045, 36.69137], [-121.65502, 36.67883]]}}, {"type": "Feature", "properties": {"company": "Southern Pacific Railroad", "line": "Southern Pacific: Salinas \u2013 Soledad", "id": "sp-coast-salinas-soledad", "color": "#C1272D", "mode": "intercity_rail", "avg_speed_kmh": 55, "speed_source": "Estimate. 19th-century Coast Division locals averaged well under 40 mph including stops; no timetable was consulted for this figure.", "geometry_quality": "Traced from the OSM UP Coast Subdivision relation (4515581); 25.2 mi traced, no straight-line legs.", "segments": [{"start": 1873, "end": 1901, "headway_min": 240, "note": "Reached Soledad August 12 1873, where the railhead then sat for thirteen years while Southern Pacific built the San Joaquin Valley line instead. Stub-end era. Until the Surf - Santa Barbara gap closed there was no through Coast Line train; service was San Francisco - railhead locals and mixed trains, with the far end connecting to Pacific Coast Steamship sailings. headway_min is an estimate - no 19th-century timetable was consulted.", "sources": ["Segment-level: August 12 1873 opening from Southern Pacific's 'Seventy-Five Years of Progress' chronology; headway and speed are estimates.", "http://cprr.org/Museum/SP_1869-1944/", "https://en.wikipedia.org/wiki/Coast_Line_(California)"]}, {"start": 1901, "end": 1937, "headway_min": 180, "note": "Through Coast Line era. Regular San Francisco - Los Angeles passenger service began March 31 1901 once ballasting of the new Surf - Santa Barbara line was finished. Named trains over this corridor included the Shore Line Limited (March 1 1906 - September 15 1931), the Coast Line Limited and the Lark overnight train. headway_min is an estimate.", "sources": ["Segment-level: August 12 1873 opening from Southern Pacific's 'Seventy-Five Years of Progress' chronology; headway and speed are estimates.", "http://cprr.org/Museum/SP_1869-1944/", "https://en.wikipedia.org/wiki/Coast_Line_(California)", "https://en.wikipedia.org/wiki/Shore_Line_Limited"]}, {"start": 1937, "end": 1971, "headway_min": 180, "note": "Streamliner era. The Coast Daylight began March 21 1937 and ran with the Lark and Coast Line locals until Southern Pacific handed intercity passenger service to Amtrak on May 1 1971 - the drawn end year. The named trains themselves are drawn separately in southern_pacific_coast_daylight.geojson and amtrak.geojson. headway_min is an estimate.", "sources": ["Segment-level: August 12 1873 opening from Southern Pacific's 'Seventy-Five Years of Progress' chronology; headway and speed are estimates.", "http://cprr.org/Museum/SP_1869-1944/", "https://en.wikipedia.org/wiki/Coast_Line_(California)", "https://en.wikipedia.org/wiki/Coast_Daylight"]}]}, "geometry": {"type": "LineString", "coordinates": [[-121.65502, 36.67883], [-121.65088, 36.67727], [-121.64809, 36.6754], [-121.64007, 36.6663], [-121.63568, 36.66238], [-121.55289, 36.60194], [-121.54322, 36.59296], [-121.50286, 36.55393], [-121.41887, 36.48432], [-121.41475, 36.48137], [-121.3296, 36.42649]]}}, {"type": "Feature", "properties": {"company": "Southern Pacific Railroad", "line": "Southern Pacific: Soledad \u2013 Templeton", "id": "sp-coast-soledad-templeton", "color": "#C1272D", "mode": "intercity_rail", "avg_speed_kmh": 55, "speed_source": "Estimate. 19th-century Coast Division locals averaged well under 40 mph including stops; no timetable was consulted for this figure.", "geometry_quality": "Traced from the OSM UP Coast Subdivision relation (4515581); 78.2 mi traced, no straight-line legs.", "segments": [{"start": 1886, "end": 1901, "headway_min": 240, "note": "Construction resumed in 1886: King City, then San Miguel on October 18 1886, the Paso Robles hot-springs resort about two weeks later, and Templeton, a town the West Coast Land Company laid out at the new railhead. Stub-end era. Until the Surf - Santa Barbara gap closed there was no through Coast Line train; service was San Francisco - railhead locals and mixed trains, with the far end connecting to Pacific Coast Steamship sailings. headway_min is an estimate - no 19th-century timetable was consulted.", "sources": ["Segment-level: October 18 1886 San Miguel date and the Paso Robles/Templeton sequence from the Monterey County Historical Society overview; headway and speed are estimates.", "http://cprr.org/Museum/SP_1869-1944/", "https://en.wikipedia.org/wiki/Coast_Line_(California)", "https://mchsmuseum.com/local-history/american-era-settlement/railroads-of-the-central-coast-an-overview/"]}, {"start": 1901, "end": 1937, "headway_min": 180, "note": "Through Coast Line era. Regular San Francisco - Los Angeles passenger service began March 31 1901 once ballasting of the new Surf - Santa Barbara line was finished. Named trains over this corridor included the Shore Line Limited (March 1 1906 - September 15 1931), the Coast Line Limited and the Lark overnight train. headway_min is an estimate.", "sources": ["Segment-level: October 18 1886 San Miguel date and the Paso Robles/Templeton sequence from the Monterey County Historical Society overview; headway and speed are estimates.", "http://cprr.org/Museum/SP_1869-1944/", "https://en.wikipedia.org/wiki/Coast_Line_(California)", "https://mchsmuseum.com/local-history/american-era-settlement/railroads-of-the-central-coast-an-overview/", "https://en.wikipedia.org/wiki/Shore_Line_Limited"]}, {"start": 1937, "end": 1971, "headway_min": 180, "note": "Streamliner era. The Coast Daylight began March 21 1937 and ran with the Lark and Coast Line locals until Southern Pacific handed intercity passenger service to Amtrak on May 1 1971 - the drawn end year. The named trains themselves are drawn separately in southern_pacific_coast_daylight.geojson and amtrak.geojson. headway_min is an estimate.", "sources": ["Segment-level: October 18 1886 San Miguel date and the Paso Robles/Templeton sequence from the Monterey County Historical Society overview; headway and speed are estimates.", "http://cprr.org/Museum/SP_1869-1944/", "https://en.wikipedia.org/wiki/Coast_Line_(California)", "https://mchsmuseum.com/local-history/american-era-settlement/railroads-of-the-central-coast-an-overview/", "https://en.wikipedia.org/wiki/Coast_Daylight"]}]}, "geometry": {"type": "LineString", "coordinates": [[-121.3296, 36.42649], [-121.32249, 36.4219], [-121.3198, 36.4205], [-121.30029, 36.41396], [-121.26757, 36.40706], [-121.2648, 36.40605], [-121.26073, 36.404], [-121.25886, 36.40251], [-121.2552, 36.40058], [-121.25343, 36.39895], [-121.25169, 36.39504], [-121.2495, 36.39209], [-121.24845, 36.38704], [-121.24497, 36.38251], [-121.24165, 36.37938], [-121.24098, 36.37846], [-121.23879, 36.37127], [-121.23281, 36.36327], [-121.23174, 36.36247], [-121.23002, 36.36169], [-121.22813, 36.36122], [-121.22496, 36.36083], [-121.22316, 36.36022], [-121.20509, 36.35119], [-121.20334, 36.35004], [-121.20249, 36.34879], [-121.20028, 36.34155], [-121.19902, 36.33831], [-121.19785, 36.33731], [-121.1909, 36.33443], [-121.18908, 36.33326], [-121.18761, 36.3314], [-121.18214, 36.3217], [-121.1814, 36.32095], [-121.1726, 36.31513], [-121.17122, 36.31393], [-121.15577, 36.29565], [-121.15279, 36.28753], [-121.14843, 36.27817], [-121.14573, 36.26935], [-121.12762, 36.22109], [-121.12574, 36.21784], [-121.11577, 36.20566], [-121.11227, 36.20258], [-121.10923, 36.20089], [-121.10716, 36.20007], [-121.06715, 36.18741], [-121.06485, 36.18639], [-121.06381, 36.18536], [-121.06058, 36.18056], [-121.06032, 36.1784], [-121.05956, 36.17557], [-121.0593, 36.172], [-121.05883, 36.17092], [-121.0467, 36.15692], [-121.03106, 36.13424], [-121.02925, 36.13229], [-121.02752, 36.13106], [-121.0252, 36.12993], [-121.01622, 36.12756], [-121.00666, 36.12334], [-121.00423, 36.12154], [-121.00272, 36.1199], [-120.99661, 36.11047], [-120.99487, 36.10856], [-120.9937, 36.10767], [-120.99246, 36.10687], [-120.98875, 36.1054], [-120.98645, 36.10495], [-120.97914, 36.10424], [-120.97566, 36.10321], [-120.95132, 36.08695], [-120.94425, 36.08005], [-120.92403, 36.05822], [-120.91779, 36.04607], [-120.88232, 35.9923], [-120.87906, 35.98554], [-120.87887, 35.98419], [-120.87909, 35.9797], [-120.87868, 35.97847], [-120.8674, 35.96084], [-120.86223, 35.95063], [-120.86185, 35.94923], [-120.8623, 35.94553], [-120.86312, 35.94196], [-120.86447, 35.93886], [-120.86465, 35.93546], [-120.86414, 35.93315], [-120.8603, 35.92531], [-120.8584, 35.9235], [-120.85454, 35.92146], [-120.84693, 35.91804], [-120.84445, 35.91656], [-120.84032, 35.91271], [-120.8393, 35.91136], [-120.83455, 35.89961], [-120.83413, 35.89691], [-120.83408, 35.89387], [-120.83491, 35.88685], [-120.83403, 35.88372], [-120.83231, 35.88039], [-120.83128, 35.87958], [-120.82774, 35.87873], [-120.82488, 35.87644], [-120.82277, 35.87521], [-120.80487, 35.86564], [-120.80163, 35.86434], [-120.79814, 35.86355], [-120.79054, 35.8626], [-120.77216, 35.86246], [-120.77071, 35.86232], [-120.76918, 35.86186], [-120.76407, 35.85845], [-120.75809, 35.85313], [-120.75419, 35.84865], [-120.7529, 35.84601], [-120.7496, 35.83009], [-120.74994, 35.82714], [-120.75284, 35.82156], [-120.75343, 35.81898], [-120.75332, 35.81756], [-120.75152, 35.81153], [-120.7501, 35.80882], [-120.74569, 35.80255], [-120.74463, 35.80145], [-120.73934, 35.79801], [-120.73217, 35.79258], [-120.72528, 35.78347], [-120.72423, 35.78241], [-120.72253, 35.78127], [-120.71402, 35.77703], [-120.7049, 35.77106], [-120.69655, 35.76484], [-120.69544, 35.76321], [-120.69494, 35.76138], [-120.69475, 35.75887], [-120.69492, 35.75613], [-120.69677, 35.74441], [-120.69715, 35.74314], [-120.7008, 35.7356], [-120.7011, 35.73364], [-120.70087, 35.73095], [-120.70045, 35.72931], [-120.69761, 35.72417], [-120.69642, 35.72006], [-120.69261, 35.71326], [-120.69203, 35.7111], [-120.69201, 35.70989], [-120.69291, 35.70543], [-120.69193, 35.69849], [-120.69211, 35.69386], [-120.69459, 35.68557], [-120.69618, 35.68184], [-120.69599, 35.68068], [-120.69462, 35.67786], [-120.69379, 35.67506], [-120.69359, 35.67276], [-120.69373, 35.66993], [-120.69396, 35.66878], [-120.69619, 35.663], [-120.69645, 35.65844], [-120.69586, 35.65636], [-120.69144, 35.65093], [-120.69007, 35.6481], [-120.68868, 35.63234], [-120.68766, 35.62822], [-120.68776, 35.61873], [-120.69024, 35.61343], [-120.69047, 35.60987], [-120.69189, 35.60625], [-120.69266, 35.59128], [-120.6926, 35.58971], [-120.69216, 35.58804], [-120.69126, 35.58652], [-120.68919, 35.58399], [-120.6879, 35.58163], [-120.68761, 35.58038], [-120.68799, 35.57711], [-120.68851, 35.57519], [-120.68941, 35.57425], [-120.69167, 35.57304], [-120.69265, 35.57179], [-120.69479, 35.56545], [-120.69499, 35.56141], [-120.69546, 35.55957], [-120.69965, 35.55242], [-120.70084, 35.55118], [-120.70428, 35.54857], [-120.70533, 35.54742]]}}, {"type": "Feature", "properties": {"company": "Southern Pacific Railroad", "line": "Southern Pacific: Templeton \u2013 Santa Margarita", "id": "sp-coast-templeton-santamargarita", "color": "#C1272D", "mode": "intercity_rail", "avg_speed_kmh": 55, "speed_source": "Estimate. 19th-century Coast Division locals averaged well under 40 mph including stops; no timetable was consulted for this figure.", "geometry_quality": "Traced from the OSM UP Coast Subdivision relation (4515581); 13.8 mi traced, no straight-line legs.", "segments": [{"start": 1889, "end": 1901, "headway_min": 240, "note": "Southern Pacific brought the line to Santa Margarita in 1889, at the foot of the Santa Lucia range; it stayed there five years while the Cuesta crossing was surveyed and tunnelled. Stub-end era. Until the Surf - Santa Barbara gap closed there was no through Coast Line train; service was San Francisco - railhead locals and mixed trains, with the far end connecting to Pacific Coast Steamship sailings. headway_min is an estimate - no 19th-century timetable was consulted.", "sources": ["Segment-level: 1889 Santa Margarita date from the Monterey County Historical Society overview; Wikipedia's Coast Line article instead lumps Templeton and Santa Margarita into 1886 - the conflict is unresolved. Headway and speed are estimates.", "http://cprr.org/Museum/SP_1869-1944/", "https://en.wikipedia.org/wiki/Coast_Line_(California)", "https://mchsmuseum.com/local-history/american-era-settlement/railroads-of-the-central-coast-an-overview/"]}, {"start": 1901, "end": 1937, "headway_min": 180, "note": "Through Coast Line era. Regular San Francisco - Los Angeles passenger service began March 31 1901 once ballasting of the new Surf - Santa Barbara line was finished. Named trains over this corridor included the Shore Line Limited (March 1 1906 - September 15 1931), the Coast Line Limited and the Lark overnight train. headway_min is an estimate.", "sources": ["Segment-level: 1889 Santa Margarita date from the Monterey County Historical Society overview; Wikipedia's Coast Line article instead lumps Templeton and Santa Margarita into 1886 - the conflict is unresolved. Headway and speed are estimates.", "http://cprr.org/Museum/SP_1869-1944/", "https://en.wikipedia.org/wiki/Coast_Line_(California)", "https://mchsmuseum.com/local-history/american-era-settlement/railroads-of-the-central-coast-an-overview/", "https://en.wikipedia.org/wiki/Shore_Line_Limited"]}, {"start": 1937, "end": 1971, "headway_min": 180, "note": "Streamliner era. The Coast Daylight began March 21 1937 and ran with the Lark and Coast Line locals until Southern Pacific handed intercity passenger service to Amtrak on May 1 1971 - the drawn end year. The named trains themselves are drawn separately in southern_pacific_coast_daylight.geojson and amtrak.geojson. headway_min is an estimate.", "sources": ["Segment-level: 1889 Santa Margarita date from the Monterey County Historical Society overview; Wikipedia's Coast Line article instead lumps Templeton and Santa Margarita into 1886 - the conflict is unresolved. Headway and speed are estimates.", "http://cprr.org/Museum/SP_1869-1944/", "https://en.wikipedia.org/wiki/Coast_Line_(California)", "https://mchsmuseum.com/local-history/american-era-settlement/railroads-of-the-central-coast-an-overview/", "https://en.wikipedia.org/wiki/Coast_Daylight"]}]}, "geometry": {"type": "LineString", "coordinates": [[-120.70533, 35.54742], [-120.70838, 35.54335], [-120.71054, 35.5393], [-120.71057, 35.5376], [-120.70993, 35.53364], [-120.70913, 35.53191], [-120.70821, 35.53078], [-120.70692, 35.52974], [-120.7057, 35.5291], [-120.69977, 35.5271], [-120.67931, 35.51491], [-120.67457, 35.51328], [-120.66851, 35.50893], [-120.66488, 35.5032], [-120.6632, 35.50146], [-120.65903, 35.49929], [-120.65223, 35.49622], [-120.65063, 35.49525], [-120.64963, 35.49387], [-120.64311, 35.47866], [-120.64244, 35.47754], [-120.64093, 35.47619], [-120.63635, 35.4741], [-120.63374, 35.47243], [-120.633, 35.47128], [-120.62916, 35.46224], [-120.62813, 35.46059], [-120.62402, 35.45685], [-120.62298, 35.4545], [-120.62225, 35.45346], [-120.62111, 35.45267], [-120.61754, 35.4509], [-120.61533, 35.44759], [-120.61271, 35.44535], [-120.61167, 35.44416], [-120.60448, 35.43114], [-120.60398, 35.42864], [-120.60414, 35.41709], [-120.60505, 35.41239], [-120.60521, 35.40237], [-120.60439, 35.39373], [-120.60548, 35.39212], [-120.61099, 35.38908]]}}, {"type": "Feature", "properties": {"company": "Southern Pacific Railroad", "line": "Southern Pacific: Santa Margarita \u2013 San Luis Obispo (Cuesta Grade)", "id": "sp-coast-cuesta", "color": "#C1272D", "mode": "intercity_rail", "avg_speed_kmh": 55, "speed_source": "Estimate. 19th-century Coast Division locals averaged well under 40 mph including stops; no timetable was consulted for this figure.", "geometry_quality": "Traced from the OSM UP Coast Subdivision relation (4515581); 16.2 mi traced, no straight-line legs. The Cuesta alignment has not been relocated since 1894, so the modern trace is the era's own route.", "segments": [{"start": 1894, "end": 1901, "headway_min": 240, "note": "The Cuesta crossing - Tunnel No. 6 at the summit, built 1893-1894, and the horseshoe curve below it, dropping 1,056 ft in under ten miles. The first train ran into San Luis Obispo on May 4 1894 (the Monterey County Historical Society dates the arrival celebration May 5 1894, at 3:25 pm). Stub-end era. Until the Surf - Santa Barbara gap closed there was no through Coast Line train; service was San Francisco - railhead locals and mixed trains, with the far end connecting to Pacific Coast Steamship sailings. headway_min is an estimate - no 19th-century timetable was consulted.", "sources": ["Segment-level: May 4 1894 arrival from Wikipedia's San Luis Obispo station article; May 5 1894 from the Monterey County Historical Society overview - conflict recorded, not silently resolved. Headway and speed are estimates.", "http://cprr.org/Museum/SP_1869-1944/", "https://en.wikipedia.org/wiki/Coast_Line_(California)", "https://en.wikipedia.org/wiki/San_Luis_Obispo_station", "https://mchsmuseum.com/local-history/american-era-settlement/railroads-of-the-central-coast-an-overview/"]}, {"start": 1901, "end": 1937, "headway_min": 180, "note": "Through Coast Line era. Regular San Francisco - Los Angeles passenger service began March 31 1901 once ballasting of the new Surf - Santa Barbara line was finished. Named trains over this corridor included the Shore Line Limited (March 1 1906 - September 15 1931), the Coast Line Limited and the Lark overnight train. headway_min is an estimate.", "sources": ["Segment-level: May 4 1894 arrival from Wikipedia's San Luis Obispo station article; May 5 1894 from the Monterey County Historical Society overview - conflict recorded, not silently resolved. Headway and speed are estimates.", "http://cprr.org/Museum/SP_1869-1944/", "https://en.wikipedia.org/wiki/Coast_Line_(California)", "https://en.wikipedia.org/wiki/San_Luis_Obispo_station", "https://mchsmuseum.com/local-history/american-era-settlement/railroads-of-the-central-coast-an-overview/", "https://en.wikipedia.org/wiki/Shore_Line_Limited"]}, {"start": 1937, "end": 1971, "headway_min": 180, "note": "Streamliner era. The Coast Daylight began March 21 1937 and ran with the Lark and Coast Line locals until Southern Pacific handed intercity passenger service to Amtrak on May 1 1971 - the drawn end year. The named trains themselves are drawn separately in southern_pacific_coast_daylight.geojson and amtrak.geojson. headway_min is an estimate.", "sources": ["Segment-level: May 4 1894 arrival from Wikipedia's San Luis Obispo station article; May 5 1894 from the Monterey County Historical Society overview - conflict recorded, not silently resolved. Headway and speed are estimates.", "http://cprr.org/Museum/SP_1869-1944/", "https://en.wikipedia.org/wiki/Coast_Line_(California)", "https://en.wikipedia.org/wiki/San_Luis_Obispo_station", "https://mchsmuseum.com/local-history/american-era-settlement/railroads-of-the-central-coast-an-overview/", "https://en.wikipedia.org/wiki/Coast_Daylight"]}]}, "geometry": {"type": "LineString", "coordinates": [[-120.61099, 35.38908], [-120.61837, 35.38519], [-120.62854, 35.38279], [-120.62956, 35.38237], [-120.63044, 35.38134], [-120.63106, 35.37909], [-120.63269, 35.3774], [-120.63332, 35.37505], [-120.63451, 35.37434], [-120.63919, 35.37242], [-120.6401, 35.37131], [-120.6405, 35.3681], [-120.63843, 35.36579], [-120.63771, 35.36461], [-120.63698, 35.35914], [-120.63515, 35.35176], [-120.63366, 35.34042], [-120.63391, 35.33965], [-120.63696, 35.33725], [-120.6371, 35.33666], [-120.63662, 35.33434], [-120.63595, 35.33341], [-120.63334, 35.33224], [-120.63234, 35.33028], [-120.63036, 35.32846], [-120.62918, 35.32642], [-120.62718, 35.3251], [-120.62668, 35.32354], [-120.62569, 35.32202], [-120.62569, 35.32145], [-120.62611, 35.32083], [-120.62699, 35.32044], [-120.62789, 35.32051], [-120.63175, 35.32184], [-120.63695, 35.32654], [-120.64412, 35.33126], [-120.64869, 35.33305], [-120.65175, 35.3331], [-120.65383, 35.33393], [-120.65471, 35.33478], [-120.65513, 35.33601], [-120.65503, 35.33667], [-120.65403, 35.33862], [-120.65401, 35.33953], [-120.65507, 35.34091], [-120.65619, 35.34142], [-120.65698, 35.34139], [-120.65779, 35.34106], [-120.659, 35.3391], [-120.66115, 35.33816], [-120.66162, 35.33749], [-120.66198, 35.33615], [-120.66461, 35.33389], [-120.66609, 35.33383], [-120.66703, 35.33437], [-120.6679, 35.33525], [-120.669, 35.33553], [-120.67146, 35.33464], [-120.67239, 35.33472], [-120.67365, 35.33517], [-120.67447, 35.33515], [-120.67705, 35.3337], [-120.67776, 35.33272], [-120.67852, 35.32542], [-120.67941, 35.32429], [-120.68074, 35.32351], [-120.68196, 35.32352], [-120.68325, 35.32425], [-120.68822, 35.32914], [-120.68983, 35.33025], [-120.69141, 35.33039], [-120.69222, 35.32994], [-120.69262, 35.32936], [-120.69268, 35.3286], [-120.69222, 35.32783], [-120.69146, 35.32741], [-120.68992, 35.32725], [-120.68911, 35.32692], [-120.68861, 35.32636], [-120.68826, 35.32513], [-120.68779, 35.32454], [-120.68483, 35.32356], [-120.68233, 35.32205], [-120.67958, 35.31854], [-120.67885, 35.31571], [-120.67796, 35.31448], [-120.67423, 35.31148], [-120.67048, 35.30981], [-120.66894, 35.30851], [-120.66818, 35.30696], [-120.66573, 35.2976], [-120.66513, 35.29612], [-120.65591, 35.28553], [-120.65314, 35.28273], [-120.65275, 35.28163], [-120.65307, 35.27999]]}}, {"type": "Feature", "properties": {"company": "Southern Pacific Railroad", "line": "Southern Pacific: San Luis Obispo \u2013 Guadalupe", "id": "sp-coast-slo-guadalupe", "color": "#C1272D", "mode": "intercity_rail", "avg_speed_kmh": 55, "speed_source": "Estimate. 19th-century Coast Division locals averaged well under 40 mph including stops; no timetable was consulted for this figure.", "geometry_quality": "Traced from the OSM UP Santa Barbara Subdivision relation (4525173); 24.2 mi traced against a documented 25 mi, with no straight-line legs.", "segments": [{"start": 1895, "end": 1901, "headway_min": 240, "note": "The 25-mile push south from San Luis Obispo to Guadalupe was finished in 1895, paralleling the Pacific Coast Railway's narrow gauge down the Arroyo Grande and Santa Maria valleys. Stub-end era. Until the Surf - Santa Barbara gap closed there was no through Coast Line train; service was San Francisco - railhead locals and mixed trains, with the far end connecting to Pacific Coast Steamship sailings. headway_min is an estimate - no 19th-century timetable was consulted.", "sources": ["Segment-level: 1895 completion and the 25-mile figure from the Monterey County Historical Society overview and Wikipedia's Coast Line article; headway and speed are estimates.", "http://cprr.org/Museum/SP_1869-1944/", "https://en.wikipedia.org/wiki/Coast_Line_(California)", "https://mchsmuseum.com/local-history/american-era-settlement/railroads-of-the-central-coast-an-overview/"]}, {"start": 1901, "end": 1937, "headway_min": 180, "note": "Through Coast Line era. Regular San Francisco - Los Angeles passenger service began March 31 1901 once ballasting of the new Surf - Santa Barbara line was finished. Named trains over this corridor included the Shore Line Limited (March 1 1906 - September 15 1931), the Coast Line Limited and the Lark overnight train. headway_min is an estimate.", "sources": ["Segment-level: 1895 completion and the 25-mile figure from the Monterey County Historical Society overview and Wikipedia's Coast Line article; headway and speed are estimates.", "http://cprr.org/Museum/SP_1869-1944/", "https://en.wikipedia.org/wiki/Coast_Line_(California)", "https://mchsmuseum.com/local-history/american-era-settlement/railroads-of-the-central-coast-an-overview/", "https://en.wikipedia.org/wiki/Shore_Line_Limited"]}, {"start": 1937, "end": 1971, "headway_min": 180, "note": "Streamliner era. The Coast Daylight began March 21 1937 and ran with the Lark and Coast Line locals until Southern Pacific handed intercity passenger service to Amtrak on May 1 1971 - the drawn end year. The named trains themselves are drawn separately in southern_pacific_coast_daylight.geojson and amtrak.geojson. headway_min is an estimate.", "sources": ["Segment-level: 1895 completion and the 25-mile figure from the Monterey County Historical Society overview and Wikipedia's Coast Line article; headway and speed are estimates.", "http://cprr.org/Museum/SP_1869-1944/", "https://en.wikipedia.org/wiki/Coast_Line_(California)", "https://mchsmuseum.com/local-history/american-era-settlement/railroads-of-the-central-coast-an-overview/", "https://en.wikipedia.org/wiki/Coast_Daylight"]}]}, "geometry": {"type": "LineString", "coordinates": [[-120.65307, 35.27999], [-120.65378, 35.27756], [-120.65542, 35.27485], [-120.65555, 35.27378], [-120.65518, 35.2728], [-120.65176, 35.26783], [-120.64728, 35.26465], [-120.63415, 35.2485], [-120.63247, 35.24695], [-120.62115, 35.23819], [-120.61988, 35.23671], [-120.61914, 35.23495], [-120.61922, 35.23262], [-120.62035, 35.23003], [-120.62084, 35.228], [-120.62029, 35.22136], [-120.61763, 35.21405], [-120.61556, 35.20216], [-120.61485, 35.20061], [-120.61071, 35.19452], [-120.61031, 35.1925], [-120.61178, 35.18709], [-120.61283, 35.18618], [-120.61562, 35.18505], [-120.61692, 35.1835], [-120.61774, 35.1795], [-120.62366, 35.16857], [-120.62546, 35.16679], [-120.6323, 35.16313], [-120.63316, 35.1622], [-120.63299, 35.161], [-120.63174, 35.15973], [-120.63121, 35.15885], [-120.63087, 35.15484], [-120.63112, 35.15329], [-120.63289, 35.1509], [-120.63327, 35.14942], [-120.63136, 35.12635], [-120.62316, 35.10831], [-120.6221, 35.10639], [-120.62043, 35.10429], [-120.61841, 35.10244], [-120.59492, 35.08546], [-120.59322, 35.08345], [-120.5923, 35.08174], [-120.59167, 35.07922], [-120.59185, 35.07725], [-120.59276, 35.07596], [-120.59506, 35.07436], [-120.59564, 35.0732], [-120.59625, 35.0709], [-120.5979, 35.0689], [-120.59826, 35.06791], [-120.59384, 35.03571], [-120.59238, 35.03162], [-120.56739, 34.99105], [-120.56648, 34.98904], [-120.56574, 34.98556], [-120.56602, 34.98178], [-120.56833, 34.97385], [-120.57026, 34.97051]]}}, {"type": "Feature", "properties": {"company": "Southern Pacific Railroad", "line": "Southern Pacific: Guadalupe \u2013 Surf", "id": "sp-coast-guadalupe-surf", "color": "#C1272D", "mode": "intercity_rail", "avg_speed_kmh": 55, "speed_source": "Estimate. 19th-century Coast Division locals averaged well under 40 mph including stops; no timetable was consulted for this figure.", "geometry_quality": "Traced from the OSM UP Santa Barbara Subdivision relation (4525173); 26.8 mi traced. 2.5 mi of that is straight-line, in three bridges of about 0.9, 0.8 and 0.8 mi where the OSM relation breaks - just south of Guadalupe, near Betteravia west of Santa Maria, and near Casmalia. They are the only approximated legs in this layer.", "segments": [{"start": 1896, "end": 1901, "headway_min": 240, "note": "Track reached Surf, on the beach at the mouth of the Santa Ynez River, in 1896; the river bridge was finished early in 1897 and Surf went into the timetable. For five years Surf was the end of the line, and San Luis Obispo an intermediate stop on a stub from San Francisco. Stub-end era. Until the Surf - Santa Barbara gap closed there was no through Coast Line train; service was San Francisco - railhead locals and mixed trains, with the far end connecting to Pacific Coast Steamship sailings. headway_min is an estimate - no 19th-century timetable was consulted.", "sources": ["Segment-level: 1896 Surf railhead from Wikipedia's Coast Line article; the early-1897 Santa Ynez River bridge and timetable stop from the Monterey County Historical Society overview. Headway and speed are estimates.", "http://cprr.org/Museum/SP_1869-1944/", "https://en.wikipedia.org/wiki/Coast_Line_(California)", "https://mchsmuseum.com/local-history/american-era-settlement/railroads-of-the-central-coast-an-overview/"]}, {"start": 1901, "end": 1937, "headway_min": 180, "note": "Through Coast Line era. Regular San Francisco - Los Angeles passenger service began March 31 1901 once ballasting of the new Surf - Santa Barbara line was finished. Named trains over this corridor included the Shore Line Limited (March 1 1906 - September 15 1931), the Coast Line Limited and the Lark overnight train. headway_min is an estimate.", "sources": ["Segment-level: 1896 Surf railhead from Wikipedia's Coast Line article; the early-1897 Santa Ynez River bridge and timetable stop from the Monterey County Historical Society overview. Headway and speed are estimates.", "http://cprr.org/Museum/SP_1869-1944/", "https://en.wikipedia.org/wiki/Coast_Line_(California)", "https://mchsmuseum.com/local-history/american-era-settlement/railroads-of-the-central-coast-an-overview/", "https://en.wikipedia.org/wiki/Shore_Line_Limited"]}, {"start": 1937, "end": 1971, "headway_min": 180, "note": "Streamliner era. The Coast Daylight began March 21 1937 and ran with the Lark and Coast Line locals until Southern Pacific handed intercity passenger service to Amtrak on May 1 1971 - the drawn end year. The named trains themselves are drawn separately in southern_pacific_coast_daylight.geojson and amtrak.geojson. headway_min is an estimate.", "sources": ["Segment-level: 1896 Surf railhead from Wikipedia's Coast Line article; the early-1897 Santa Ynez River bridge and timetable stop from the Monterey County Historical Society overview. Headway and speed are estimates.", "http://cprr.org/Museum/SP_1869-1944/", "https://en.wikipedia.org/wiki/Coast_Line_(California)", "https://mchsmuseum.com/local-history/american-era-settlement/railroads-of-the-central-coast-an-overview/", "https://en.wikipedia.org/wiki/Coast_Daylight"]}]}, "geometry": {"type": "LineString", "coordinates": [[-120.57026, 34.97051], [-120.57138, 34.96875], [-120.57363, 34.95628], [-120.57387, 34.94934], [-120.57374, 34.94358], [-120.57258, 34.93967], [-120.56888, 34.93377], [-120.56731, 34.93199], [-120.56376, 34.92939], [-120.56259, 34.92764], [-120.56225, 34.92621], [-120.56228, 34.92462], [-120.56368, 34.91988], [-120.56321, 34.9181], [-120.56243, 34.91719], [-120.53874, 34.89719], [-120.53166, 34.89204], [-120.51687, 34.88305], [-120.51588, 34.8821], [-120.51509, 34.88079], [-120.514, 34.87597], [-120.51428, 34.87512], [-120.51657, 34.87133], [-120.52128, 34.8688], [-120.52204, 34.86809], [-120.52256, 34.86705], [-120.52234, 34.86436], [-120.52328, 34.86157], [-120.52328, 34.86081], [-120.52277, 34.85971], [-120.52032, 34.85734], [-120.51994, 34.85654], [-120.51992, 34.85569], [-120.52198, 34.8515], [-120.52207, 34.84983], [-120.5217, 34.84858], [-120.524, 34.83772], [-120.53115, 34.83653], [-120.53306, 34.83598], [-120.53735, 34.83317], [-120.54275, 34.83131], [-120.54588, 34.82884], [-120.54898, 34.82782], [-120.55108, 34.82756], [-120.55307, 34.82795], [-120.56029, 34.83044], [-120.56579, 34.83366], [-120.57775, 34.83844], [-120.57946, 34.83861], [-120.58442, 34.83797], [-120.5884, 34.83816], [-120.59022, 34.83747], [-120.59096, 34.83657], [-120.5966, 34.81437], [-120.59747, 34.81193], [-120.59846, 34.81013], [-120.61043, 34.79286], [-120.61316, 34.7732], [-120.61315, 34.77223], [-120.61281, 34.77137], [-120.61068, 34.76888], [-120.60966, 34.76699], [-120.60844, 34.76228], [-120.60833, 34.7606], [-120.60878, 34.75906], [-120.61477, 34.74714], [-120.61495, 34.74535], [-120.6143, 34.74377], [-120.61186, 34.73979], [-120.60772, 34.73672], [-120.60642, 34.73492], [-120.60472, 34.73], [-120.60372, 34.72266], [-120.60296, 34.7214], [-120.60015, 34.7189], [-120.59959, 34.71781], [-120.59602, 34.70024], [-120.59641, 34.69796], [-120.60438, 34.68461], [-120.60516, 34.68273], [-120.60607, 34.67939]]}}, {"type": "Feature", "properties": {"company": "Southern Pacific Railroad", "line": "Southern Pacific: Surf \u2013 Santa Barbara", "id": "sp-coast-surf-santabarbara", "color": "#C1272D", "mode": "intercity_rail", "avg_speed_kmh": 55, "speed_source": "Estimate. 19th-century Coast Division locals averaged well under 40 mph including stops; no timetable was consulted for this figure.", "geometry_quality": "Traced from the OSM UP Santa Barbara Subdivision relation (4525173); 67.7 mi traced, no straight-line legs. Sources describe the closed gap as 'about 80 miles' against the 67.7 mi actually traced Surf - Santa Barbara; the 80-mile figure may count from a different railhead. Conflict recorded, not resolved.", "segments": [{"start": 1901, "end": 1937, "headway_min": 180, "note": "The last gap. The final spike went in December 28 1900 and regular through passenger service between San Francisco and Los Angeles began March 31 1901, after ballasting was finished. Through Coast Line era. Regular San Francisco - Los Angeles passenger service began March 31 1901 once ballasting of the new Surf - Santa Barbara line was finished. Named trains over this corridor included the Shore Line Limited (March 1 1906 - September 15 1931), the Coast Line Limited and the Lark overnight train. headway_min is an estimate.", "sources": ["Segment-level: December 28 1900 last spike and March 31 1901 first through passenger service from Wikipedia's Coast Line article; headway and speed are estimates.", "http://cprr.org/Museum/SP_1869-1944/", "https://en.wikipedia.org/wiki/Coast_Line_(California)", "https://en.wikipedia.org/wiki/Shore_Line_Limited"]}, {"start": 1937, "end": 1971, "headway_min": 180, "note": "Streamliner era. The Coast Daylight began March 21 1937 and ran with the Lark and Coast Line locals until Southern Pacific handed intercity passenger service to Amtrak on May 1 1971 - the drawn end year. The named trains themselves are drawn separately in southern_pacific_coast_daylight.geojson and amtrak.geojson. headway_min is an estimate.", "sources": ["Segment-level: December 28 1900 last spike and March 31 1901 first through passenger service from Wikipedia's Coast Line article; headway and speed are estimates.", "http://cprr.org/Museum/SP_1869-1944/", "https://en.wikipedia.org/wiki/Coast_Line_(California)", "https://en.wikipedia.org/wiki/Coast_Daylight"]}]}, "geometry": {"type": "LineString", "coordinates": [[-120.60607, 34.67939], [-120.60622, 34.67725], [-120.60463, 34.66915], [-120.60493, 34.66718], [-120.6059, 34.66569], [-120.61333, 34.65916], [-120.61417, 34.65809], [-120.61457, 34.65673], [-120.61478, 34.65186], [-120.61545, 34.64987], [-120.62292, 34.63833], [-120.62538, 34.63201], [-120.62986, 34.62427], [-120.63126, 34.62139], [-120.63758, 34.60326], [-120.638, 34.6008], [-120.63798, 34.59325], [-120.63866, 34.59007], [-120.63924, 34.58877], [-120.64166, 34.58594], [-120.64238, 34.58466], [-120.6423, 34.58302], [-120.63993, 34.57872], [-120.63969, 34.57603], [-120.6391, 34.57414], [-120.6354, 34.56944], [-120.63348, 34.56536], [-120.63118, 34.56322], [-120.62791, 34.56176], [-120.61355, 34.55988], [-120.61206, 34.55981], [-120.60723, 34.56025], [-120.59786, 34.55971], [-120.58793, 34.56111], [-120.58554, 34.56092], [-120.58341, 34.56042], [-120.58082, 34.55933], [-120.55351, 34.54413], [-120.55125, 34.54315], [-120.53792, 34.5391], [-120.52362, 34.53177], [-120.51977, 34.52871], [-120.51391, 34.5269], [-120.51236, 34.52568], [-120.50045, 34.5144], [-120.4994, 34.51239], [-120.49911, 34.51098], [-120.49945, 34.50782], [-120.49908, 34.50615], [-120.49303, 34.49536], [-120.48953, 34.49156], [-120.48779, 34.48806], [-120.48576, 34.48626], [-120.48043, 34.48309], [-120.47736, 34.4799], [-120.45972, 34.45592], [-120.45789, 34.45451], [-120.45243, 34.45162], [-120.45008, 34.45148], [-120.43669, 34.45287], [-120.4203, 34.45336], [-120.41492, 34.454], [-120.40455, 34.45624], [-120.40202, 34.4566], [-120.3869, 34.456], [-120.38082, 34.45739], [-120.37673, 34.45758], [-120.35525, 34.4596], [-120.35238, 34.45958], [-120.34586, 34.45906], [-120.34414, 34.45915], [-120.33272, 34.46341], [-120.32185, 34.46373], [-120.32023, 34.46396], [-120.30521, 34.47051], [-120.30339, 34.47091], [-120.29536, 34.47191], [-120.29244, 34.47168], [-120.27948, 34.46817], [-120.27759, 34.46783], [-120.27627, 34.46808], [-120.27408, 34.46904], [-120.27295, 34.46921], [-120.26904, 34.46911], [-120.25892, 34.46819], [-120.25384, 34.46834], [-120.24111, 34.46922], [-120.22952, 34.47137], [-120.16883, 34.47115], [-120.1669, 34.4713], [-120.15228, 34.47391], [-120.14508, 34.47402], [-120.13994, 34.47384], [-120.13475, 34.47356], [-120.12733, 34.4723], [-120.11931, 34.4717], [-120.10548, 34.46547], [-120.101, 34.4643], [-120.09764, 34.46263], [-120.09026, 34.46097], [-120.08843, 34.46093], [-120.08377, 34.46135], [-120.07579, 34.46081], [-120.07417, 34.46158], [-120.07201, 34.46414], [-120.07107, 34.46461], [-120.06993, 34.46482], [-120.06851, 34.46457], [-120.06438, 34.46266], [-120.05824, 34.46179], [-120.03786, 34.46402], [-120.01567, 34.46208], [-120.00553, 34.4608], [-120.00187, 34.45956], [-119.96842, 34.44361], [-119.96583, 34.44258], [-119.95094, 34.43864], [-119.92123, 34.43568], [-119.91923, 34.43515], [-119.91076, 34.43206], [-119.90881, 34.43166], [-119.88036, 34.43196], [-119.87495, 34.43274], [-119.86186, 34.43566], [-119.85831, 34.43627], [-119.81261, 34.44083], [-119.77915, 34.44182], [-119.77598, 34.44165], [-119.75528, 34.43754], [-119.75185, 34.43607], [-119.74712, 34.43243], [-119.74288, 34.42991], [-119.74028, 34.42878], [-119.73671, 34.42783], [-119.72528, 34.42627], [-119.72171, 34.42527], [-119.71807, 34.42342], [-119.70286, 34.41235], [-119.70172, 34.41174], [-119.70062, 34.41152], [-119.69946, 34.41158], [-119.69297, 34.41339]]}}]}