{
 "type": "FeatureCollection",
 "metadata": {
  "note": "The Toledo, Peoria and Western - Effner (Indiana line) - Peoria - Keokuk, with the Hamilton - Warsaw and La Harpe - Lomax lines - drawn from the research report research/branches/toledo_peoria_and_western_railway.txt (companion site repo, 2026-10-08) and converted on 2026-10-08. Before this layer the map drew no TP&W route. Only the report's drawable spans are drawn. The Peoria and Oquawka Eastern Extension, Logansport, Peoria and Burlington, Toledo, Peoria and Warsaw, TP&W Railroad (1880) and TP&W Railway (1887; restyled Railroad 1926-27) are successive names of one road and share one colour and one company string, as the Monon layer does for its names; the 1860-1875 features say 'TP&Warsaw era' in their labels. Nothing is drawn for the Wabash, St. Louis and Pacific lease (May 1880 - c.1884/85): no passenger timetable dated in those years has been found, so its Rule 4 Wabash-coloured split has no drawable year; the same holds for 1876-1886 generally. PRR (from 1893), CB&Q, McNear (1926-27), Santa Fe (1955) and PRR-Santa Fe joint (1960) stock control never changed who ran the trains and are not splits. The 1980-81 Amtrak Prairie Marksman over TP&W rails East Peoria - Chenoa is a separate Amtrak-coloured feature. Colour #C8008C is new to the dataset; its nearest existing colour is #B5179E (CIELAB dE 14.8).",
  "sources": [
   "research/branches/toledo_peoria_and_western_railway.txt (companion site repo, 2026-10-08)",
   "Official Guide of the Railways, Feb 1952, TP&W page (printed p.255; archive.org the-official-guide-of-the-railways-images, leaf 252 image) - https://archive.org/download/the-official-guide-of-the-railways-images/page/n252.jpg",
   "https://www.branchline.uk/jfpdf/illinoisrrs2.pdf (John Fowler, Illinois passenger stations, lines 224/225, with timetable-year letters)",
   "https://www.branchline.uk/jfpdf/indianarrs.pdf (Fowler, Indiana line 65: Effner)",
   "https://www.american-rails.com/tpw.html",
   "https://www.trains.com/ctr/railroads/fallen-flags/toledo-peoria-and-western-railway-remembered/",
   "https://sites.google.com/view/tpwrailroad/home",
   "https://en.wikipedia.org/wiki/Toledo,_Peoria_and_Western_Railway",
   "https://www.trains-and-railroads.com/toledo-peoria-and-western-railway",
   "https://en.wikipedia.org/wiki/Peoria_Union_Station (depot site coordinates)",
   "https://en.wikipedia.org/wiki/Keokuk_Union_Depot (depot site coordinates; TP&W a founding tenant, 1891)"
  ],
  "geometry_method": "OpenStreetMap via Overpass (mail.ru mirror, cached degree tiles) with opstrace.py: ways tagged old_railway_operator=TP&W (or joint (TP&W/Wabash)) costed 1x, untagged rail 1.25x, trails 3x, any other named operator 12x; OpenHistoricalMap ways fetched for Peoria, Warsaw and La Harpe - Lomax but none ended up in the drawn line. Waypoints are Nominatim geocodes (type-checked; Effner, Washington, Hamilton and Keokuk hand-pinned) snapped by a layered dynamic program, each leg confined to a corridor round its chord. Douglas-Peucker 8 m, then trim_reversals.",
  "not_yet_sourced": [
   "OPEN ENDS - last CONFIRMED year, not a known end: Effner - Peoria Yard and Peoria - Keokuk mixed trains 1951 (Feb 1952 Guide still printed them; tpwrailroad says ended 1951); Hamilton - Warsaw 1951; all predecessor-era features 1875 (no dated timetable 1876-1886).",
   "ANCHORS - single confirmed years: Illinois River crossing Peoria Yard - Peoria Union Depot 1887; La Harpe - Lomax 1875.",
   "When through trains stopped crossing the Illinois River to Peoria Union Depot (sometime 1887-1942).",
   "The exact year regular (non-mixed) passenger trains ended: 1925-1927, sources conflict; it only moves the segment split and the headway.",
   "Every pre-1942 headway, and every speed except the 1942-51 mixed-train figures.",
   "The Wabash lease era (May 1880 - c.1884/85) and the hand-back date: no passenger timetable found.",
   "Effner opening: 1857/1859 (trains-and-railroads.com) vs 1860 (american-rails.com, Wikipedia); 1860 drawn.",
   "Site of the TP&W Illinois River bridge at Peoria (destroyed 12 Feb 1970) and of the pre-1882 Peoria and pre-1891 Keokuk stations.",
   "Whose track Peoria - Hollis used before the Peoria and Pekin Union was formed (1880), and which present-day track corresponds to the P&PU (to c.1928) and CB&Q / Peoria Railway Terminal (after) routes.",
   "Whether the Wabash Keokuk branch reached Keokuk over TP&W track from Elvaston (OSM tags part of it 'joint (TP&W/Wabash)')."
  ],
  "branches_deliberately_omitted": [
   "Wabash, St. Louis and Pacific lease era 1880-c.1885, whole system: drawable NONE (no confirmed passenger year).",
   "Logansport - Effner through running over the Pennsylvania system: not TP&W track, operator and years not established (belongs in a PRR report). TP&W's own Effner - Logansport line dates only from 1976 and is freight-only.",
   "Lomax - Burlington over CB&Q trackage rights in 1875: CB&Q geometry; left off.",
   "Caboose riders on TP&W freights after 1951 'into the 1970s': not a scheduled passenger service and undated - not drawn.",
   "Alton (C&A) Dwight - Washington - Peoria trains over TP&W rails Washington - Peoria: an Alton matter, not drawn here."
  ],
  "freight_only_excluded": [
   "La Harpe - Disco - Lomax after 1875: 'Freight Service only' in the TP&W table (Sept 1942, printed Feb 1952) and Disco daggered in the index.",
   "All TP&W track after 1951 (Santa Fe 1983, re-formed TP&W 1989, Genesee and Wyoming; Keokuk Junction Railway west of Mapleton).",
   "The Peoria and Pekin Union bridge route at Peoria used from 1970: freight only."
  ]
 },
 "features": [
  {
   "type": "Feature",
   "properties": {
    "company": "Toledo, Peoria and Western",
    "line": "Toledo, Peoria and Western: Effner – Peoria Yard",
    "id": "tpw-effner-peoria-yard",
    "color": "#C8008C",
    "mode": "intercity_rail",
    "avg_speed_kmh": 34,
    "speed_source": "measured for the 1942-51 mixed trains only: Effner - Peoria Yard 108.0 mi in 5 h 05 min (No. 25) and 5 h 10 min (No. 24) = 34 km/h, Feb 1952 Official Guide table dated Sept 1942 (as read by the research report research/branches/toledo_peoria_and_western_railway.txt (companion site repo, 2026-10-08); not re-read in the tracing pass). The pre-1927 passenger trains were surely faster; their speed is NOT sourced.",
    "geometry_source": "OpenStreetMap via Overpass (mail.ru mirror, cached degree tiles) with opstrace.py: ways tagged old_railway_operator=TP&W (or joint (TP&W/Wabash)) costed 1x, untagged rail 1.25x, trails 3x, any other named operator 12x; OpenHistoricalMap ways fetched for Peoria, Warsaw and La Harpe - Lomax but none ended up in the drawn line. Waypoints are Nominatim geocodes (type-checked; Effner, Washington, Hamilton and Keokuk hand-pinned) snapped by a layered dynamic program, each leg confined to a corridor round its chord. Douglas-Peucker 8 m, then trim_reversals.",
    "geometry_quality": "107.4 mi drawn Effner (Indiana state line) - Peoria Yard (East Peoria) against 108.0 mi in the 1952 Guide and Fowler. Traced end to end on OSM: 106.3 mi on ways tagged old_railway_operator=TP&W (today's Toledo, Peoria and Western Railway, operator TPW) and 1.4 mi on untagged rail in the same corridor. No straight-line leg. Every station waypoint (Sheldon, Watseka, Gilman, Chatsworth, Forrest, Fairbury, Chenoa, Meadows, Gridley, El Paso, Secor, Eureka, Washington, Farmdale) lies within 0.4 km of the line. The line ends at the TP&W yard in East Peoria (about 40.670, -89.542). LATER ALIGNMENT: this draws the present-day TP&W track for all years; line relocations since 1887, if any, are not researched.",
    "segments": [
     {
      "start": 1887,
      "end": 1926,
      "headway_min": 480,
      "note": "Toledo, Peoria and Western Railway (formed 28 Mar 1887 from the foreclosed TP&W Railroad) regular passenger trains, Effner (PRR connection) - Watseka - Gilman - Chatsworth - Fairbury - Chenoa - El Paso - Eureka - Washington - Peoria. The 1887 start is exact by company date; its trains are documented that summer (the Peoria - Niagara Falls excursion wrecked at Chatsworth on 10 Aug 1887, 80+ killed). In this era trains ran through to Peoria Union Depot across the TP&W's own Illinois River bridge, but only 1887 is confirmed for that crossing (see tpw-illinois-river-crossing), so this feature stops at Peoria Yard. Ridership fell from 1,067,416 (1911) to 260,747 (1925); by 1926 only one train each way. The 1926/1927 boundary with the mixed-train era is secondary-sourced and conflicts (Trains: mixed before the 1926 foreclosure; tpwrailroad site: 1927) - treat it as approximate. Headway is an estimate and is NOT sourced.",
      "sources": [
       "Segment-level: 1887 start from the company date and the 10 Aug 1887 Chatsworth wreck; decline figures and the 1926/1927 end of regular trains from american-rails.com, Trains Magazine and the tpwrailroad site, which conflict; all as gathered by research/branches/toledo_peoria_and_western_railway.txt (companion site repo, 2026-10-08). Headway NOT SOURCED.",
       "https://www.american-rails.com/tpw.html",
       "https://www.trains.com/ctr/railroads/fallen-flags/toledo-peoria-and-western-railway-remembered/",
       "https://sites.google.com/view/tpwrailroad/home",
       "https://www.branchline.uk/jfpdf/illinoisrrs2.pdf (John Fowler, Illinois passenger stations, lines 224/225, with timetable-year letters)"
      ]
     },
     {
      "start": 1927,
      "end": 1951,
      "headway_min": 1440,
      "note": "Mixed trains Nos. 24/25, one each way daily, carrying passengers and freight (counts as passenger service under Rule 1). The Feb 1952 Official Guide prints them with times in a table dated September 1942: No. 25 lv Effner 8.25 PM, arr Peoria Yard 1.30 AM; No. 24 lv Peoria Yard 8.00 AM, arr Effner 1.10 PM. East-end trains terminated at Peoria Yard, not Peoria. The tpwrailroad site says mixed service was discontinued in 1951; the Guide still printed it in Feb 1952. 1951 is the last CONFIRMED year. This end year is the last CONFIRMED year, not a known end - no source dates when service actually stopped. Do not extend without evidence. Caboose riders on freights into the 1970s are not drawn (no timetable; not a scheduled passenger service). Headway is from the 1942-51 table; 1927-41 frequency is assumed the same and NOT sourced.",
      "sources": [
       "Segment-level: Feb 1952 Official Guide p.255, mixed trains 24/25 with times (as read by the research report research/branches/toledo_peoria_and_western_railway.txt (companion site repo, 2026-10-08); not re-read in the tracing pass); 1951 end from the tpwrailroad site (secondary). The 1927 start is approximate (see the previous segment).",
       "Official Guide of the Railways, Feb 1952, TP&W page (printed p.255; archive.org the-official-guide-of-the-railways-images, leaf 252 image) - https://archive.org/download/the-official-guide-of-the-railways-images/page/n252.jpg",
       "https://sites.google.com/view/tpwrailroad/home",
       "https://www.branchline.uk/jfpdf/illinoisrrs2.pdf (John Fowler, Illinois passenger stations, lines 224/225, with timetable-year letters)"
      ]
     }
    ]
   },
   "geometry": {
    "type": "LineString",
    "coordinates": [
     [
      -87.526023,
      40.770198
     ],
     [
      -87.635507,
      40.773073
     ],
     [
      -87.728721,
      40.77591
     ],
     [
      -87.750976,
      40.775185
     ],
     [
      -87.752458,
      40.774877
     ],
     [
      -87.757608,
      40.773217
     ],
     [
      -87.761972,
      40.772602
     ],
     [
      -87.824971,
      40.77121
     ],
     [
      -87.90103,
      40.769311
     ],
     [
      -88.069727,
      40.764548
     ],
     [
      -88.326274,
      40.751593
     ],
     [
      -88.412314,
      40.749097
     ],
     [
      -88.48185,
      40.746955
     ],
     [
      -88.499468,
      40.746305
     ],
     [
      -88.510276,
      40.746357
     ],
     [
      -88.512573,
      40.746252
     ],
     [
      -88.514012,
      40.746459
     ],
     [
      -88.516324,
      40.746503
     ],
     [
      -88.588549,
      40.747698
     ],
     [
      -88.802471,
      40.743476
     ],
     [
      -88.929148,
      40.740681
     ],
     [
      -89.088446,
      40.735981
     ],
     [
      -89.091069,
      40.736238
     ],
     [
      -89.093424,
      40.737004
     ],
     [
      -89.102548,
      40.742081
     ],
     [
      -89.104459,
      40.742896
     ],
     [
      -89.105983,
      40.743324
     ],
     [
      -89.10734,
      40.743538
     ],
     [
      -89.111505,
      40.743758
     ],
     [
      -89.112772,
      40.74373
     ],
     [
      -89.268531,
      40.724097
     ],
     [
      -89.271082,
      40.723885
     ],
     [
      -89.27293,
      40.723949
     ],
     [
      -89.283376,
      40.725479
     ],
     [
      -89.285774,
      40.72554
     ],
     [
      -89.288533,
      40.725344
     ],
     [
      -89.400281,
      40.708359
     ],
     [
      -89.402549,
      40.707833
     ],
     [
      -89.404584,
      40.707171
     ],
     [
      -89.408132,
      40.705511
     ],
     [
      -89.434389,
      40.688516
     ],
     [
      -89.435542,
      40.687896
     ],
     [
      -89.437119,
      40.687286
     ],
     [
      -89.439967,
      40.686767
     ],
     [
      -89.459861,
      40.685104
     ],
     [
      -89.46138,
      40.685158
     ],
     [
      -89.462841,
      40.685417
     ],
     [
      -89.465885,
      40.68658
     ],
     [
      -89.467423,
      40.686911
     ],
     [
      -89.469474,
      40.686844
     ],
     [
      -89.471238,
      40.68632
     ],
     [
      -89.472691,
      40.68541
     ],
     [
      -89.473937,
      40.684063
     ],
     [
      -89.482338,
      40.669885
     ],
     [
      -89.483472,
      40.668724
     ],
     [
      -89.484745,
      40.667816
     ],
     [
      -89.486258,
      40.667062
     ],
     [
      -89.487918,
      40.66652
     ],
     [
      -89.489445,
      40.666234
     ],
     [
      -89.490833,
      40.666131
     ],
     [
      -89.493355,
      40.666314
     ],
     [
      -89.495167,
      40.666758
     ],
     [
      -89.499547,
      40.668381
     ],
     [
      -89.501249,
      40.668751
     ],
     [
      -89.502592,
      40.668882
     ],
     [
      -89.504433,
      40.668848
     ],
     [
      -89.514251,
      40.667876
     ],
     [
      -89.516441,
      40.667964
     ],
     [
      -89.518618,
      40.668427
     ],
     [
      -89.526885,
      40.671072
     ],
     [
      -89.528543,
      40.671427
     ],
     [
      -89.530435,
      40.671631
     ],
     [
      -89.53222,
      40.67164
     ],
     [
      -89.533905,
      40.671487
     ],
     [
      -89.541619,
      40.670256
     ]
    ]
   }
  },
  {
   "type": "Feature",
   "properties": {
    "company": "Toledo, Peoria and Western",
    "line": "Toledo, Peoria and Western: Peoria Yard – Peoria Union Depot",
    "id": "tpw-illinois-river-crossing",
    "color": "#C8008C",
    "mode": "intercity_rail",
    "avg_speed_kmh": 34,
    "speed_source": "estimate, NOT sourced; copied from the east-end mixed-train figure only so the feature carries a value (Rule 3)",
    "geometry_source": "OpenStreetMap via Overpass (mail.ru mirror, cached degree tiles) with opstrace.py: ways tagged old_railway_operator=TP&W (or joint (TP&W/Wabash)) costed 1x, untagged rail 1.25x, trails 3x, any other named operator 12x; OpenHistoricalMap ways fetched for Peoria, Warsaw and La Harpe - Lomax but none ended up in the drawn line. Waypoints are Nominatim geocodes (type-checked; Effner, Washington, Hamilton and Keokuk hand-pinned) snapped by a layered dynamic program, each leg confined to a corridor round its chord. Douglas-Peucker 8 m, then trim_reversals.",
    "geometry_quality": "3.2 mi drawn Peoria Yard - Peoria Union Depot against 3.1 mi documented (Peoria Yard MP 108.0 - Peoria MP 111.1). Traced 1.0 mi on OSM: 0.7 mi on TP&W-tagged track west from the yard to where it ends at 40.6670, -89.5611, and the rest on untagged rail. APPROXIMATED: one straight-line leg of 2.1 mi from 40.6670, -89.5611 (East Peoria) to the Peoria Union Depot site at 40.6845, -89.5942 (Wikipedia coordinates for the 1882 station on Depot Street between State and Oak Streets, demolished). The TP&W's own Illinois River bridge (the 1857 Peoria and Oquawka crossing; destroyed by a barge tow 12 Feb 1970) is NOT in OSM or OpenHistoricalMap and its exact site was not located, so the straight line stands in for it - it does not show where the bridge was. The present-day route over the Peoria and Pekin Union bridge (a 1970-onward FREIGHT detour) is deliberately NOT drawn.",
    "segments": [
     {
      "start": 1887,
      "end": 1887,
      "headway_min": 480,
      "note": "ANCHOR: the single confirmed year in which a TP&W Railway passenger train crossed the Illinois River between East Peoria and Peoria Union Depot - the 10 Aug 1887 Peoria - Niagara Falls excursion departed Peoria eastbound through Eureka and Chenoa. Through trains Effner - Peoria - Keokuk almost certainly crossed here every year until some date before Sept 1942, when the Guide shows east trains ending at Peoria Yard and west trains starting at Peoria; when the cut-back happened is not established (plausibly with the 1928 East Peoria yard or the 1926-27 cut to mixed trains - a guess). Service certainly ran wider both ways, but no other year is confirmed; do not widen this anchor without a dated timetable. Headway is an estimate and is NOT sourced.",
      "sources": [
       "Segment-level: the 1887 Chatsworth excursion narrative (tpwrailroad site) and Fowler's Peoria Union Depot entry, as gathered by research/branches/toledo_peoria_and_western_railway.txt (companion site repo, 2026-10-08). Headway NOT SOURCED.",
       "https://sites.google.com/view/tpwrailroad/home",
       "https://www.branchline.uk/jfpdf/illinoisrrs2.pdf (John Fowler, Illinois passenger stations, lines 224/225, with timetable-year letters)",
       "https://en.wikipedia.org/wiki/Peoria_Union_Station"
      ]
     }
    ]
   },
   "geometry": {
    "type": "LineString",
    "coordinates": [
     [
      -89.541619,
      40.670256
     ],
     [
      -89.557542,
      40.667405
     ],
     [
      -89.559913,
      40.667172
     ],
     [
      -89.5611,
      40.667
     ],
     [
      -89.5942,
      40.6845
     ]
    ]
   }
  },
  {
   "type": "Feature",
   "properties": {
    "company": "Toledo, Peoria and Western",
    "line": "Toledo, Peoria and Western: Peoria – Keokuk",
    "id": "tpw-peoria-keokuk",
    "color": "#C8008C",
    "mode": "intercity_rail",
    "avg_speed_kmh": 47,
    "speed_source": "measured for the 1942-51 mixed trains only: Peoria - Keokuk 112.8 mi in 3 h 50 min (No. 123) = 47 km/h; La Harpe - Peoria 84.4 mi in 3 h 00 (No. 122) = 45 km/h - Feb 1952 Official Guide (as read by the research report research/branches/toledo_peoria_and_western_railway.txt (companion site repo, 2026-10-08); not re-read in the tracing pass). Pre-1927 speed NOT sourced.",
    "geometry_source": "OpenStreetMap via Overpass (mail.ru mirror, cached degree tiles) with opstrace.py: ways tagged old_railway_operator=TP&W (or joint (TP&W/Wabash)) costed 1x, untagged rail 1.25x, trails 3x, any other named operator 12x; OpenHistoricalMap ways fetched for Peoria, Warsaw and La Harpe - Lomax but none ended up in the drawn line. Waypoints are Nominatim geocodes (type-checked; Effner, Washington, Hamilton and Keokuk hand-pinned) snapped by a layered dynamic program, each leg confined to a corridor round its chord. Douglas-Peucker 8 m, then trim_reversals.",
    "geometry_quality": "112.5 mi drawn Peoria Union Depot - Keokuk Union Depot against 112.8 mi documented (Peoria MP 111.1 - Keokuk MP 223.9, 1952 Guide and Fowler agree). No straight-line leg, apart from a 0.2 mi connector from the Union Depot site (40.6845, -89.5942) to the first traced vertex. FOREIGN TRACK: Peoria - Hollis (7.5 mi drawn, 7.5 mi documented) is TP&W trackage rights and is drawn on present-day untagged terminal track - southwest along the Peoria riverfront beside the BNSF Peoria Subdivision to about 40.659, -89.636, then south past the Iowa Junction area to Hollis (40.597, -89.670). Historically the TP&W ran over the Peoria and Pekin Union Peoria - Iowa Jct - Hollis until c.1928, then over the CB&Q to Iowa Junction and the Peoria Railway Terminal to Hollis (Fowler IL 224 note); OSM does not tag which present-day track was whose, so this drawing does not distinguish the two routes and may follow neither exactly. Hollis - Keokuk (105.0 mi drawn vs 105.3) is on ways tagged old_railway_operator=TP&W (Keokuk Junction Railway today, part of it disused west of La Harpe), plus about 1.6 mi of untagged rail at the Keokuk end. Elvaston - Hamilton - Keokuk includes ways tagged 'joint (TP&W/Wabash)' - the Wabash Keokuk branch drawn in wabash_railroad.geojson shares this end. The Mississippi crossing is the present Keokuk Municipal (Keokuk and Hamilton) bridge, a 1916 replacement on the 1871 site - a LATER STRUCTURE than the 1887-1915 years. Ends at Keokuk Union Depot (40.3906, -91.3817, Wikipedia; opened 1891, TP&W a founding tenant); 1887-1890 trains used an earlier Keokuk station not located. Every waypoint (Hollis, Mapleton, Glasford, Canton, Cuba, Smithfield, Marietta, Bushnell, Blandinsville, La Harpe, Ferris, Elvaston) within 0.8 km of the line; Hamilton station 1.0 km.",
    "segments": [
     {
      "start": 1887,
      "end": 1926,
      "headway_min": 480,
      "note": "Toledo, Peoria and Western Railway regular passenger trains, Peoria (Union Depot) - Hollis - Mapleton - Glasford - Canton - Cuba - Bushnell - Blandinsville - La Harpe - Ferris - Elvaston - Hamilton - Keokuk, over P&PU (later CB&Q / Peoria Railway Terminal) trackage rights Peoria - Hollis and the Keokuk and Hamilton bridge into Iowa. 1887 start exact by company date. Fowler marks Leaman in the 1893 Guide, confirming the main line that year. Regular trains ended c.1926-27 (sources conflict, see tpw-effner-peoria-yard). Headway is an estimate and is NOT sourced.",
      "sources": [
       "Segment-level: 1887 company date and the c.1926-27 end of regular trains (american-rails.com, Trains, tpwrailroad - conflicting); Fowler IL 224 (Leaman 1893G); as gathered by research/branches/toledo_peoria_and_western_railway.txt (companion site repo, 2026-10-08). Headway NOT SOURCED.",
       "https://www.american-rails.com/tpw.html",
       "https://www.trains.com/ctr/railroads/fallen-flags/toledo-peoria-and-western-railway-remembered/",
       "https://sites.google.com/view/tpwrailroad/home",
       "https://www.branchline.uk/jfpdf/illinoisrrs2.pdf (John Fowler, Illinois passenger stations, lines 224/225, with timetable-year letters)"
      ]
     },
     {
      "start": 1927,
      "end": 1951,
      "headway_min": 1440,
      "note": "Mixed trains: westbound No. 123 lv Peoria 9.40 PM daily, La Harpe 12.30, arr Keokuk 1.30 AM; eastbound in two pieces, No. 120 Keokuk 7.05 - La Harpe 8.20 and No. 122 La Harpe 6.30 AM - Peoria 9.30 AM (Feb 1952 Official Guide, table dated Sept 1942). West-end trains started at Peoria (Union Depot), not Peoria Yard. The tpwrailroad site says mixed service ended in 1951; the Guide still printed it in Feb 1952. This end year is the last CONFIRMED year, not a known end - no source dates when service actually stopped. Do not extend without evidence. Headway is from the 1942-51 table; 1927-41 frequency is assumed the same and NOT sourced.",
      "sources": [
       "Segment-level: Feb 1952 Official Guide p.255, mixed trains 120/122/123 with times (as read by the research report research/branches/toledo_peoria_and_western_railway.txt (companion site repo, 2026-10-08); not re-read in the tracing pass); 1951 end from the tpwrailroad site (secondary).",
       "Official Guide of the Railways, Feb 1952, TP&W page (printed p.255; archive.org the-official-guide-of-the-railways-images, leaf 252 image) - https://archive.org/download/the-official-guide-of-the-railways-images/page/n252.jpg",
       "https://sites.google.com/view/tpwrailroad/home",
       "https://www.branchline.uk/jfpdf/illinoisrrs2.pdf (John Fowler, Illinois passenger stations, lines 224/225, with timetable-year letters)"
      ]
     }
    ]
   },
   "geometry": {
    "type": "LineString",
    "coordinates": [
     [
      -89.5942,
      40.6845
     ],
     [
      -89.59613,
      40.682454
     ],
     [
      -89.59732,
      40.681419
     ],
     [
      -89.608699,
      40.672844
     ],
     [
      -89.618838,
      40.66499
     ],
     [
      -89.620614,
      40.664314
     ],
     [
      -89.628321,
      40.662954
     ],
     [
      -89.629882,
      40.662445
     ],
     [
      -89.635533,
      40.658939
     ],
     [
      -89.637744,
      40.658056
     ],
     [
      -89.640705,
      40.656111
     ],
     [
      -89.642478,
      40.654577
     ],
     [
      -89.644261,
      40.652531
     ],
     [
      -89.645077,
      40.651292
     ],
     [
      -89.645833,
      40.649768
     ],
     [
      -89.659107,
      40.611681
     ],
     [
      -89.659922,
      40.610028
     ],
     [
      -89.660905,
      40.608508
     ],
     [
      -89.668943,
      40.59885
     ],
     [
      -89.672119,
      40.59463
     ],
     [
      -89.674323,
      40.592386
     ],
     [
      -89.679959,
      40.587799
     ],
     [
      -89.682515,
      40.586412
     ],
     [
      -89.69631,
      40.577401
     ],
     [
      -89.698978,
      40.576031
     ],
     [
      -89.700283,
      40.575532
     ],
     [
      -89.730058,
      40.566335
     ],
     [
      -89.731556,
      40.565998
     ],
     [
      -89.736902,
      40.565276
     ],
     [
      -89.738682,
      40.565446
     ],
     [
      -89.740171,
      40.56606
     ],
     [
      -89.741303,
      40.566965
     ],
     [
      -89.743086,
      40.569459
     ],
     [
      -89.747802,
      40.57287
     ],
     [
      -89.750456,
      40.575449
     ],
     [
      -89.752049,
      40.576248
     ],
     [
      -89.753636,
      40.576535
     ],
     [
      -89.754646,
      40.576523
     ],
     [
      -89.755584,
      40.576362
     ],
     [
      -89.761453,
      40.574358
     ],
     [
      -89.762657,
      40.574105
     ],
     [
      -89.768137,
      40.573912
     ],
     [
      -89.770934,
      40.574216
     ],
     [
      -89.772455,
      40.574228
     ],
     [
      -89.776252,
      40.573521
     ],
     [
      -89.779742,
      40.573932
     ],
     [
      -89.783886,
      40.573931
     ],
     [
      -89.789567,
      40.574798
     ],
     [
      -89.791756,
      40.574683
     ],
     [
      -89.809483,
      40.572038
     ],
     [
      -89.813777,
      40.571345
     ],
     [
      -89.815114,
      40.570944
     ],
     [
      -89.822458,
      40.567623
     ],
     [
      -89.827257,
      40.565226
     ],
     [
      -89.829122,
      40.564862
     ],
     [
      -89.830392,
      40.56492
     ],
     [
      -89.831399,
      40.565163
     ],
     [
      -89.840539,
      40.568342
     ],
     [
      -89.846515,
      40.56898
     ],
     [
      -89.850233,
      40.569572
     ],
     [
      -89.851869,
      40.569554
     ],
     [
      -89.85768,
      40.568587
     ],
     [
      -89.87693,
      40.566545
     ],
     [
      -89.885252,
      40.565037
     ],
     [
      -89.895133,
      40.564621
     ],
     [
      -89.897432,
      40.564243
     ],
     [
      -89.899716,
      40.563499
     ],
     [
      -89.900948,
      40.562924
     ],
     [
      -89.90685,
      40.559165
     ],
     [
      -89.908029,
      40.558558
     ],
     [
      -89.914212,
      40.556303
     ],
     [
      -89.915453,
      40.555943
     ],
     [
      -89.917427,
      40.555571
     ],
     [
      -89.922085,
      40.55518
     ],
     [
      -89.92434,
      40.554792
     ],
     [
      -89.943551,
      40.548676
     ],
     [
      -89.946408,
      40.548048
     ],
     [
      -89.94891,
      40.547772
     ],
     [
      -89.954813,
      40.54762
     ],
     [
      -89.956465,
      40.547738
     ],
     [
      -89.957956,
      40.548
     ],
     [
      -89.959504,
      40.548425
     ],
     [
      -89.960903,
      40.54897
     ],
     [
      -89.965445,
      40.551482
     ],
     [
      -89.968211,
      40.552653
     ],
     [
      -89.970241,
      40.553212
     ],
     [
      -89.973893,
      40.553666
     ],
     [
      -90.017612,
      40.553377
     ],
     [
      -90.018722,
      40.553199
     ],
     [
      -90.019391,
      40.552952
     ],
     [
      -90.020874,
      40.55174
     ],
     [
      -90.021435,
      40.551409
     ],
     [
      -90.022369,
      40.551117
     ],
     [
      -90.027484,
      40.550963
     ],
     [
      -90.034421,
      40.550933
     ],
     [
      -90.036023,
      40.550762
     ],
     [
      -90.047979,
      40.548451
     ],
     [
      -90.051245,
      40.547466
     ],
     [
      -90.074239,
      40.53776
     ],
     [
      -90.096977,
      40.527662
     ],
     [
      -90.123477,
      40.519119
     ],
     [
      -90.137246,
      40.514905
     ],
     [
      -90.15867,
      40.507785
     ],
     [
      -90.20031,
      40.4944
     ],
     [
      -90.203631,
      40.492978
     ],
     [
      -90.216036,
      40.48568
     ],
     [
      -90.218161,
      40.484679
     ],
     [
      -90.245962,
      40.47501
     ],
     [
      -90.249398,
      40.474046
     ],
     [
      -90.253216,
      40.473528
     ],
     [
      -90.275029,
      40.472984
     ],
     [
      -90.297634,
      40.473621
     ],
     [
      -90.299839,
      40.47386
     ],
     [
      -90.302773,
      40.474693
     ],
     [
      -90.304697,
      40.475622
     ],
     [
      -90.306238,
      40.476749
     ],
     [
      -90.307927,
      40.478324
     ],
     [
      -90.30891,
      40.478934
     ],
     [
      -90.3097,
      40.479208
     ],
     [
      -90.310767,
      40.479415
     ],
     [
      -90.311967,
      40.479429
     ],
     [
      -90.31506,
      40.478983
     ],
     [
      -90.318385,
      40.479262
     ],
     [
      -90.320247,
      40.479687
     ],
     [
      -90.32285,
      40.480851
     ],
     [
      -90.325321,
      40.481631
     ],
     [
      -90.32692,
      40.482304
     ],
     [
      -90.329982,
      40.484955
     ],
     [
      -90.330621,
      40.48534
     ],
     [
      -90.332762,
      40.486072
     ],
     [
      -90.335339,
      40.486687
     ],
     [
      -90.336764,
      40.486744
     ],
     [
      -90.33848,
      40.486528
     ],
     [
      -90.344823,
      40.485296
     ],
     [
      -90.346028,
      40.485367
     ],
     [
      -90.347562,
      40.485812
     ],
     [
      -90.34879,
      40.48653
     ],
     [
      -90.350119,
      40.487632
     ],
     [
      -90.351375,
      40.488351
     ],
     [
      -90.353864,
      40.489224
     ],
     [
      -90.35517,
      40.48941
     ],
     [
      -90.356495,
      40.489349
     ],
     [
      -90.360536,
      40.488809
     ],
     [
      -90.363707,
      40.488752
     ],
     [
      -90.365298,
      40.488393
     ],
     [
      -90.36729,
      40.487554
     ],
     [
      -90.368584,
      40.486742
     ],
     [
      -90.369921,
      40.485292
     ],
     [
      -90.370332,
      40.484491
     ],
     [
      -90.371051,
      40.481929
     ],
     [
      -90.371319,
      40.481321
     ],
     [
      -90.372066,
      40.480398
     ],
     [
      -90.373208,
      40.479727
     ],
     [
      -90.374449,
      40.479308
     ],
     [
      -90.37573,
      40.479153
     ],
     [
      -90.376358,
      40.479186
     ],
     [
      -90.377601,
      40.479478
     ],
     [
      -90.378127,
      40.479734
     ],
     [
      -90.38039,
      40.481536
     ],
     [
      -90.384159,
      40.485926
     ],
     [
      -90.384785,
      40.487208
     ],
     [
      -90.385424,
      40.490665
     ],
     [
      -90.386037,
      40.491686
     ],
     [
      -90.387108,
      40.492536
     ],
     [
      -90.388339,
      40.493014
     ],
     [
      -90.390017,
      40.493385
     ],
     [
      -90.391332,
      40.493539
     ],
     [
      -90.397212,
      40.493667
     ],
     [
      -90.404819,
      40.492219
     ],
     [
      -90.405795,
      40.492213
     ],
     [
      -90.408547,
      40.4926
     ],
     [
      -90.409747,
      40.492511
     ],
     [
      -90.410794,
      40.492233
     ],
     [
      -90.411909,
      40.491719
     ],
     [
      -90.414653,
      40.489623
     ],
     [
      -90.415457,
      40.489189
     ],
     [
      -90.41661,
      40.488721
     ],
     [
      -90.41812,
      40.48846
     ],
     [
      -90.41938,
      40.488544
     ],
     [
      -90.420028,
      40.488712
     ],
     [
      -90.425006,
      40.491445
     ],
     [
      -90.42779,
      40.492726
     ],
     [
      -90.429039,
      40.493093
     ],
     [
      -90.430205,
      40.493199
     ],
     [
      -90.44851,
      40.490956
     ],
     [
      -90.461744,
      40.487952
     ],
     [
      -90.464942,
      40.48745
     ],
     [
      -90.467208,
      40.487378
     ],
     [
      -90.474591,
      40.487624
     ],
     [
      -90.477341,
      40.488125
     ],
     [
      -90.479468,
      40.488992
     ],
     [
      -90.497076,
      40.499592
     ],
     [
      -90.499404,
      40.501311
     ],
     [
      -90.500296,
      40.502134
     ],
     [
      -90.502152,
      40.504337
     ],
     [
      -90.503374,
      40.506423
     ],
     [
      -90.504009,
      40.507995
     ],
     [
      -90.504487,
      40.509877
     ],
     [
      -90.504686,
      40.51172
     ],
     [
      -90.504405,
      40.541077
     ],
     [
      -90.504522,
      40.542167
     ],
     [
      -90.504964,
      40.543518
     ],
     [
      -90.505737,
      40.544809
     ],
     [
      -90.506839,
      40.546031
     ],
     [
      -90.508528,
      40.547254
     ],
     [
      -90.510199,
      40.548052
     ],
     [
      -90.518706,
      40.551777
     ],
     [
      -90.520697,
      40.552411
     ],
     [
      -90.522305,
      40.552734
     ],
     [
      -90.525396,
      40.552958
     ],
     [
      -90.562043,
      40.553528
     ],
     [
      -90.57616,
      40.551969
     ],
     [
      -90.578873,
      40.551893
     ],
     [
      -90.581556,
      40.55207
     ],
     [
      -90.60525,
      40.555236
     ],
     [
      -90.607673,
      40.555424
     ],
     [
      -90.634481,
      40.556063
     ],
     [
      -90.667621,
      40.556614
     ],
     [
      -90.689815,
      40.557115
     ],
     [
      -90.692466,
      40.557066
     ],
     [
      -90.696886,
      40.556702
     ],
     [
      -90.699715,
      40.556709
     ],
     [
      -90.702559,
      40.55689
     ],
     [
      -90.719981,
      40.558716
     ],
     [
      -90.773923,
      40.559635
     ],
     [
      -90.819388,
      40.561677
     ],
     [
      -90.821532,
      40.561614
     ],
     [
      -90.823962,
      40.561298
     ],
     [
      -90.850978,
      40.556969
     ],
     [
      -90.85355,
      40.556834
     ],
     [
      -90.864117,
      40.556953
     ],
     [
      -90.866241,
      40.557361
     ],
     [
      -90.867761,
      40.557944
     ],
     [
      -90.868788,
      40.558506
     ],
     [
      -90.870256,
      40.559592
     ],
     [
      -90.873442,
      40.562756
     ],
     [
      -90.875272,
      40.563731
     ],
     [
      -90.877399,
      40.564188
     ],
     [
      -90.891901,
      40.564853
     ],
     [
      -90.893842,
      40.565094
     ],
     [
      -90.895985,
      40.56555
     ],
     [
      -90.899169,
      40.566622
     ],
     [
      -90.907515,
      40.570568
     ],
     [
      -90.917097,
      40.573324
     ],
     [
      -90.927843,
      40.577988
     ],
     [
      -90.929327,
      40.578531
     ],
     [
      -90.931716,
      40.579167
     ],
     [
      -90.934449,
      40.579612
     ],
     [
      -90.938198,
      40.579762
     ],
     [
      -90.96831,
      40.578651
     ],
     [
      -90.968372,
      40.578593
     ],
     [
      -90.969176,
      40.578457
     ],
     [
      -90.970378,
      40.577973
     ],
     [
      -90.971054,
      40.577481
     ],
     [
      -90.971637,
      40.576766
     ],
     [
      -90.971904,
      40.576195
     ],
     [
      -90.973083,
      40.570945
     ],
     [
      -90.973326,
      40.570382
     ],
     [
      -90.9774,
      40.564357
     ],
     [
      -90.988667,
      40.55129
     ],
     [
      -90.990348,
      40.549472
     ],
     [
      -90.992692,
      40.547342
     ],
     [
      -90.994039,
      40.546269
     ],
     [
      -91.009134,
      40.535667
     ],
     [
      -91.013075,
      40.533026
     ],
     [
      -91.014728,
      40.532066
     ],
     [
      -91.018442,
      40.530247
     ],
     [
      -91.036953,
      40.521999
     ],
     [
      -91.043851,
      40.519928
     ],
     [
      -91.046596,
      40.51825
     ],
     [
      -91.048139,
      40.516711
     ],
     [
      -91.049168,
      40.515471
     ],
     [
      -91.049747,
      40.514208
     ],
     [
      -91.050103,
      40.512105
     ],
     [
      -91.050869,
      40.510218
     ],
     [
      -91.051214,
      40.508053
     ],
     [
      -91.051585,
      40.507288
     ],
     [
      -91.052548,
      40.50594
     ],
     [
      -91.053793,
      40.504946
     ],
     [
      -91.054478,
      40.504562
     ],
     [
      -91.055939,
      40.504047
     ],
     [
      -91.057128,
      40.503859
     ],
     [
      -91.057961,
      40.503858
     ],
     [
      -91.06452,
      40.504888
     ],
     [
      -91.068962,
      40.505228
     ],
     [
      -91.070794,
      40.50523
     ],
     [
      -91.072743,
      40.504878
     ],
     [
      -91.077136,
      40.503338
     ],
     [
      -91.078281,
      40.503076
     ],
     [
      -91.080091,
      40.502876
     ],
     [
      -91.09925,
      40.503703
     ],
     [
      -91.101882,
      40.503632
     ],
     [
      -91.10516,
      40.503178
     ],
     [
      -91.107549,
      40.502582
     ],
     [
      -91.110245,
      40.501583
     ],
     [
      -91.111681,
      40.500867
     ],
     [
      -91.207597,
      40.447003
     ],
     [
      -91.209359,
      40.445508
     ],
     [
      -91.242229,
      40.40334
     ],
     [
      -91.243021,
      40.40239
     ],
     [
      -91.244719,
      40.400877
     ],
     [
      -91.246367,
      40.399859
     ],
     [
      -91.248773,
      40.398812
     ],
     [
      -91.260792,
      40.394248
     ],
     [
      -91.265201,
      40.392267
     ],
     [
      -91.285678,
      40.380808
     ],
     [
      -91.289013,
      40.379144
     ],
     [
      -91.292124,
      40.377909
     ],
     [
      -91.295427,
      40.376884
     ],
     [
      -91.299904,
      40.375886
     ],
     [
      -91.302532,
      40.3755
     ],
     [
      -91.305094,
      40.375265
     ],
     [
      -91.309023,
      40.375117
     ],
     [
      -91.319272,
      40.375361
     ],
     [
      -91.320222,
      40.375571
     ],
     [
      -91.321825,
      40.376203
     ],
     [
      -91.322973,
      40.376872
     ],
     [
      -91.323914,
      40.377783
     ],
     [
      -91.324978,
      40.379381
     ],
     [
      -91.325643,
      40.380041
     ],
     [
      -91.326665,
      40.380735
     ],
     [
      -91.327429,
      40.381093
     ],
     [
      -91.330917,
      40.382278
     ],
     [
      -91.341151,
      40.38698
     ],
     [
      -91.342131,
      40.387338
     ],
     [
      -91.343052,
      40.387524
     ],
     [
      -91.344551,
      40.387538
     ],
     [
      -91.347405,
      40.386821
     ],
     [
      -91.348875,
      40.386687
     ],
     [
      -91.350541,
      40.386954
     ],
     [
      -91.352606,
      40.38798
     ],
     [
      -91.354019,
      40.388364
     ],
     [
      -91.355711,
      40.38833
     ],
     [
      -91.358129,
      40.387844
     ],
     [
      -91.359953,
      40.387848
     ],
     [
      -91.363118,
      40.388522
     ],
     [
      -91.377495,
      40.392089
     ],
     [
      -91.378518,
      40.391965
     ],
     [
      -91.381667,
      40.390371
     ],
     [
      -91.381721,
      40.390436
     ]
    ]
   }
  },
  {
   "type": "Feature",
   "properties": {
    "company": "Toledo, Peoria and Western",
    "line": "Toledo, Peoria and Western: Hamilton – Warsaw",
    "id": "tpw-hamilton-warsaw",
    "color": "#C8008C",
    "mode": "intercity_rail",
    "avg_speed_kmh": 32,
    "speed_source": "measured for the 1942-51 mixed only: 5.0 mi in 15 min = 32 km/h, Feb 1952 Official Guide (as read by the research report research/branches/toledo_peoria_and_western_railway.txt (companion site repo, 2026-10-08); not re-read in the tracing pass). Earlier speed NOT sourced.",
    "geometry_source": "OpenStreetMap via Overpass (mail.ru mirror, cached degree tiles) with opstrace.py: ways tagged old_railway_operator=TP&W (or joint (TP&W/Wabash)) costed 1x, untagged rail 1.25x, trails 3x, any other named operator 12x; OpenHistoricalMap ways fetched for Peoria, Warsaw and La Harpe - Lomax but none ended up in the drawn line. Waypoints are Nominatim geocodes (type-checked; Effner, Washington, Hamilton and Keokuk hand-pinned) snapped by a layered dynamic program, each leg confined to a corridor round its chord. Douglas-Peucker 8 m, then trim_reversals.",
    "geometry_quality": "5.4 mi drawn from the main line at Hamilton (40.3875, -91.3446) to Warsaw (40.3646, -91.4381) against 5.0 mi (1952 Guide) / 4.8 mi (Fowler MP 222.6 - 227.4). Traced on OSM, 4.5 mi of it on a lifted grade mapped as railway=abandoned, old_railway_operator=TP&W, the rest on untagged rail at the Hamilton end. No straight-line leg. Starts at the junction about 0.7 mi south of the centre of Hamilton rather than at the station.",
    "segments": [
     {
      "start": 1887,
      "end": 1951,
      "headway_min": 3360,
      "note": "OPEN END. Hamilton - Warsaw, the original western terminus of the Peoria - Warsaw line (Warsaw - Carthage came with the Mississippi and Wabash, bought 1865). The Feb 1952 Official Guide prints a 'HAMILTON AND WARSAW' sub-table: mixed Nos. 101/102, Monday, Wednesday and Friday, lv Hamilton 4.00 PM arr Warsaw 4.15 PM, back 4.30 - 4.45 PM, 'will not run holidays'; Warsaw indexed without the freight-only dagger. No secondary source gives an end. This end year is the last CONFIRMED year, not a known end - no source dates when service actually stopped. Do not extend without evidence. Headway 3360 min = three round trips a week, from the 1942-51 table only; the pre-1942 frequency is NOT sourced.",
      "sources": [
       "Segment-level: Feb 1952 Official Guide p.255 Hamilton-Warsaw sub-table (as read by the research report research/branches/toledo_peoria_and_western_railway.txt (companion site repo, 2026-10-08); not re-read in the tracing pass); Fowler IL 224 (Warsaw, Engine House). 1887 start = TP&W Railway company date.",
       "Official Guide of the Railways, Feb 1952, TP&W page (printed p.255; archive.org the-official-guide-of-the-railways-images, leaf 252 image) - https://archive.org/download/the-official-guide-of-the-railways-images/page/n252.jpg",
       "https://www.branchline.uk/jfpdf/illinoisrrs2.pdf (John Fowler, Illinois passenger stations, lines 224/225, with timetable-year letters)"
      ]
     }
    ]
   },
   "geometry": {
    "type": "LineString",
    "coordinates": [
     [
      -91.344551,
      40.387538
     ],
     [
      -91.34769,
      40.386768
     ],
     [
      -91.349169,
      40.386697
     ],
     [
      -91.350714,
      40.387012
     ],
     [
      -91.352606,
      40.38798
     ],
     [
      -91.353836,
      40.388339
     ],
     [
      -91.355711,
      40.38833
     ],
     [
      -91.356773,
      40.38807
     ],
     [
      -91.357874,
      40.387489
     ],
     [
      -91.35989,
      40.385684
     ],
     [
      -91.364926,
      40.382011
     ],
     [
      -91.366457,
      40.381045
     ],
     [
      -91.369205,
      40.379672
     ],
     [
      -91.374912,
      40.377333
     ],
     [
      -91.37649,
      40.376391
     ],
     [
      -91.379434,
      40.375376
     ],
     [
      -91.385227,
      40.374193
     ],
     [
      -91.396913,
      40.372342
     ],
     [
      -91.413131,
      40.370993
     ],
     [
      -91.418155,
      40.369881
     ],
     [
      -91.427544,
      40.368082
     ],
     [
      -91.428891,
      40.367655
     ],
     [
      -91.432539,
      40.366104
     ],
     [
      -91.436974,
      40.36509
     ],
     [
      -91.438142,
      40.364569
     ]
    ]
   }
  },
  {
   "type": "Feature",
   "properties": {
    "company": "Toledo, Peoria and Western",
    "line": "Toledo, Peoria and Western: Effner – Peoria (TP&Warsaw era)",
    "id": "tpw-pred-effner-peoria",
    "color": "#C8008C",
    "mode": "intercity_rail",
    "avg_speed_kmh": 35,
    "speed_source": "estimate, NOT sourced (Rule 3)",
    "geometry_source": "OpenStreetMap via Overpass (mail.ru mirror, cached degree tiles) with opstrace.py: ways tagged old_railway_operator=TP&W (or joint (TP&W/Wabash)) costed 1x, untagged rail 1.25x, trails 3x, any other named operator 12x; OpenHistoricalMap ways fetched for Peoria, Warsaw and La Harpe - Lomax but none ended up in the drawn line. Waypoints are Nominatim geocodes (type-checked; Effner, Washington, Hamilton and Keokuk hand-pinned) snapped by a layered dynamic program, each leg confined to a corridor round its chord. Douglas-Peucker 8 m, then trim_reversals.",
    "geometry_quality": "110.6 mi drawn Effner - Peoria Union Depot site against 111.1 mi documented (Effner MP 0 - Peoria MP 111.1): the tpw-effner-peoria-yard trace (107.4 mi, all OSM TP&W-tagged or untagged rail, no straight leg) plus the tpw-illinois-river-crossing geometry (3.2 mi, including an APPROXIMATED 2.1 mi straight line across the Illinois River from 40.6670, -89.5611 to 40.6845, -89.5942 because the TP&W bridge site is not mapped). LATER ALIGNMENT: draws today's TP&W track and ends at the 1882 Peoria Union Depot site; before 1882 trains used an earlier Peoria depot (Fowler: 'CBQ 2nd') whose site was not located.",
    "segments": [
     {
      "start": 1860,
      "end": 1875,
      "headway_min": 720,
      "note": "Peoria and Oquawka (Eastern Extension) 1860-61, Logansport, Peoria and Burlington 1861-64, Toledo, Peoria and Warsaw from 14 May 1864 (receivership 20 Jan 1875) - successive names of the road that became the Toledo, Peoria and Western, drawn in its one colour. Effner - Peoria opened for regular service 11 Jan 1860 (american-rails.com). CONFLICT: trains-and-railroads.com says Gilman was reached in 1857 and Effner in 1859; Wikipedia says 1860 - 1860 taken. Fowler shows the 1863 Appleton's Guide at Middleport and the 1875 Official Guide at nearly every station. No dated timetable has been found for 1876-1879, and the Wabash, St. Louis and Pacific lease era (May 1880 - c.1884/85) has no confirmed passenger year, so nothing is drawn 1876-1886. This end year is the last CONFIRMED year, not a known end - no source dates when service actually stopped. Do not extend without evidence. Headway is an estimate and is NOT sourced.",
      "sources": [
       "Segment-level: 1860 opening (american-rails.com; conflicting 1857/1859 in trains-and-railroads.com), 1863 Appleton's and 1875 Official Guide letters in Fowler IL 224, as gathered by research/branches/toledo_peoria_and_western_railway.txt (companion site repo, 2026-10-08). Headway NOT SOURCED.",
       "https://www.american-rails.com/tpw.html",
       "https://www.branchline.uk/jfpdf/illinoisrrs2.pdf (John Fowler, Illinois passenger stations, lines 224/225, with timetable-year letters)",
       "https://en.wikipedia.org/wiki/Toledo,_Peoria_and_Western_Railway",
       "https://www.trains-and-railroads.com/toledo-peoria-and-western-railway"
      ]
     }
    ]
   },
   "geometry": {
    "type": "LineString",
    "coordinates": [
     [
      -87.526023,
      40.770198
     ],
     [
      -87.635507,
      40.773073
     ],
     [
      -87.728721,
      40.77591
     ],
     [
      -87.750976,
      40.775185
     ],
     [
      -87.752458,
      40.774877
     ],
     [
      -87.757608,
      40.773217
     ],
     [
      -87.761972,
      40.772602
     ],
     [
      -87.824971,
      40.77121
     ],
     [
      -87.90103,
      40.769311
     ],
     [
      -88.069727,
      40.764548
     ],
     [
      -88.326274,
      40.751593
     ],
     [
      -88.412314,
      40.749097
     ],
     [
      -88.48185,
      40.746955
     ],
     [
      -88.499468,
      40.746305
     ],
     [
      -88.510276,
      40.746357
     ],
     [
      -88.512573,
      40.746252
     ],
     [
      -88.514012,
      40.746459
     ],
     [
      -88.516324,
      40.746503
     ],
     [
      -88.588549,
      40.747698
     ],
     [
      -88.802471,
      40.743476
     ],
     [
      -88.929148,
      40.740681
     ],
     [
      -89.088446,
      40.735981
     ],
     [
      -89.091069,
      40.736238
     ],
     [
      -89.093424,
      40.737004
     ],
     [
      -89.102548,
      40.742081
     ],
     [
      -89.104459,
      40.742896
     ],
     [
      -89.105983,
      40.743324
     ],
     [
      -89.10734,
      40.743538
     ],
     [
      -89.111505,
      40.743758
     ],
     [
      -89.112772,
      40.74373
     ],
     [
      -89.268531,
      40.724097
     ],
     [
      -89.271082,
      40.723885
     ],
     [
      -89.27293,
      40.723949
     ],
     [
      -89.283376,
      40.725479
     ],
     [
      -89.285774,
      40.72554
     ],
     [
      -89.288533,
      40.725344
     ],
     [
      -89.400281,
      40.708359
     ],
     [
      -89.402549,
      40.707833
     ],
     [
      -89.404584,
      40.707171
     ],
     [
      -89.408132,
      40.705511
     ],
     [
      -89.434389,
      40.688516
     ],
     [
      -89.435542,
      40.687896
     ],
     [
      -89.437119,
      40.687286
     ],
     [
      -89.439967,
      40.686767
     ],
     [
      -89.459861,
      40.685104
     ],
     [
      -89.46138,
      40.685158
     ],
     [
      -89.462841,
      40.685417
     ],
     [
      -89.465885,
      40.68658
     ],
     [
      -89.467423,
      40.686911
     ],
     [
      -89.469474,
      40.686844
     ],
     [
      -89.471238,
      40.68632
     ],
     [
      -89.472691,
      40.68541
     ],
     [
      -89.473937,
      40.684063
     ],
     [
      -89.482338,
      40.669885
     ],
     [
      -89.483472,
      40.668724
     ],
     [
      -89.484745,
      40.667816
     ],
     [
      -89.486258,
      40.667062
     ],
     [
      -89.487918,
      40.66652
     ],
     [
      -89.489445,
      40.666234
     ],
     [
      -89.490833,
      40.666131
     ],
     [
      -89.493355,
      40.666314
     ],
     [
      -89.495167,
      40.666758
     ],
     [
      -89.499547,
      40.668381
     ],
     [
      -89.501249,
      40.668751
     ],
     [
      -89.502592,
      40.668882
     ],
     [
      -89.504433,
      40.668848
     ],
     [
      -89.514251,
      40.667876
     ],
     [
      -89.516441,
      40.667964
     ],
     [
      -89.518618,
      40.668427
     ],
     [
      -89.526885,
      40.671072
     ],
     [
      -89.528543,
      40.671427
     ],
     [
      -89.530435,
      40.671631
     ],
     [
      -89.53222,
      40.67164
     ],
     [
      -89.533905,
      40.671487
     ],
     [
      -89.541619,
      40.670256
     ],
     [
      -89.557542,
      40.667405
     ],
     [
      -89.559913,
      40.667172
     ],
     [
      -89.5611,
      40.667
     ],
     [
      -89.5942,
      40.6845
     ]
    ]
   }
  },
  {
   "type": "Feature",
   "properties": {
    "company": "Toledo, Peoria and Western",
    "line": "Toledo, Peoria and Western: Peoria – Warsaw (TP&Warsaw era)",
    "id": "tpw-pred-peoria-warsaw",
    "color": "#C8008C",
    "mode": "intercity_rail",
    "avg_speed_kmh": 35,
    "speed_source": "estimate, NOT sourced (Rule 3)",
    "geometry_source": "OpenStreetMap via Overpass (mail.ru mirror, cached degree tiles) with opstrace.py: ways tagged old_railway_operator=TP&W (or joint (TP&W/Wabash)) costed 1x, untagged rail 1.25x, trails 3x, any other named operator 12x; OpenHistoricalMap ways fetched for Peoria, Warsaw and La Harpe - Lomax but none ended up in the drawn line. Waypoints are Nominatim geocodes (type-checked; Effner, Washington, Hamilton and Keokuk hand-pinned) snapped by a layered dynamic program, each leg confined to a corridor round its chord. Douglas-Peucker 8 m, then trim_reversals.",
    "geometry_quality": "115.8 mi drawn Peoria Union Depot site - Hamilton - Warsaw against about 116.3 mi documented (Peoria MP 111.1 - Warsaw MP 227.4, Fowler). Same geometry as tpw-peoria-keokuk to the Hamilton junction (110.4 mi) plus tpw-hamilton-warsaw (5.4 mi); no straight-line leg apart from the 0.2 mi Union Depot connector. FOREIGN TRACK / UNKNOWN OWNER: Peoria - Hollis (7.5 mi) is drawn on present-day untagged terminal track; whose track the 1868-1875 trains used there (the Peoria and Pekin Union was only formed in 1880) is NOT established. LATER ALIGNMENT: draws today's track and the 1882 Peoria Union Depot site, not the pre-1882 Peoria depot.",
    "segments": [
     {
      "start": 1868,
      "end": 1875,
      "headway_min": 720,
      "note": "Peoria and Oquawka (Eastern Extension) 1860-61, Logansport, Peoria and Burlington 1861-64, Toledo, Peoria and Warsaw from 14 May 1864 (receivership 20 Jan 1875) - successive names of the road that became the Toledo, Peoria and Western, drawn in its one colour. Peoria - La Harpe - Hamilton - Warsaw was completed 14 Oct 1868, built from both ends (american-rails.com); parts opened earlier - Fowler cites the 1867 Appleton's Guide at Marshfield and Weston and 1868-70 Guides at Brenton, Clarksville, Glascoe and Milan - so 1868 is a conservative start, not an exact one. 1875 Official Guide letters (Fowler) are the last confirmed year; no dated timetable 1876-1886. This end year is the last CONFIRMED year, not a known end - no source dates when service actually stopped. Do not extend without evidence. Headway is an estimate and is NOT sourced.",
      "sources": [
       "Segment-level: 14 Oct 1868 completion (american-rails.com) and Fowler IL 224 letters (1867 Appleton's, 1868-70 Guides, 1875 Official Guide), as gathered by research/branches/toledo_peoria_and_western_railway.txt (companion site repo, 2026-10-08). Headway NOT SOURCED.",
       "https://www.american-rails.com/tpw.html",
       "https://www.branchline.uk/jfpdf/illinoisrrs2.pdf (John Fowler, Illinois passenger stations, lines 224/225, with timetable-year letters)",
       "https://en.wikipedia.org/wiki/Toledo,_Peoria_and_Western_Railway"
      ]
     }
    ]
   },
   "geometry": {
    "type": "LineString",
    "coordinates": [
     [
      -89.5942,
      40.6845
     ],
     [
      -89.59613,
      40.682454
     ],
     [
      -89.59732,
      40.681419
     ],
     [
      -89.608699,
      40.672844
     ],
     [
      -89.618838,
      40.66499
     ],
     [
      -89.620614,
      40.664314
     ],
     [
      -89.628321,
      40.662954
     ],
     [
      -89.629882,
      40.662445
     ],
     [
      -89.635533,
      40.658939
     ],
     [
      -89.637744,
      40.658056
     ],
     [
      -89.640705,
      40.656111
     ],
     [
      -89.642478,
      40.654577
     ],
     [
      -89.644261,
      40.652531
     ],
     [
      -89.645077,
      40.651292
     ],
     [
      -89.645833,
      40.649768
     ],
     [
      -89.659107,
      40.611681
     ],
     [
      -89.659922,
      40.610028
     ],
     [
      -89.660905,
      40.608508
     ],
     [
      -89.668943,
      40.59885
     ],
     [
      -89.672119,
      40.59463
     ],
     [
      -89.674323,
      40.592386
     ],
     [
      -89.679959,
      40.587799
     ],
     [
      -89.682515,
      40.586412
     ],
     [
      -89.69631,
      40.577401
     ],
     [
      -89.698978,
      40.576031
     ],
     [
      -89.700283,
      40.575532
     ],
     [
      -89.730058,
      40.566335
     ],
     [
      -89.731556,
      40.565998
     ],
     [
      -89.736902,
      40.565276
     ],
     [
      -89.738682,
      40.565446
     ],
     [
      -89.740171,
      40.56606
     ],
     [
      -89.741303,
      40.566965
     ],
     [
      -89.743086,
      40.569459
     ],
     [
      -89.747802,
      40.57287
     ],
     [
      -89.750456,
      40.575449
     ],
     [
      -89.752049,
      40.576248
     ],
     [
      -89.753636,
      40.576535
     ],
     [
      -89.754646,
      40.576523
     ],
     [
      -89.755584,
      40.576362
     ],
     [
      -89.761453,
      40.574358
     ],
     [
      -89.762657,
      40.574105
     ],
     [
      -89.768137,
      40.573912
     ],
     [
      -89.770934,
      40.574216
     ],
     [
      -89.772455,
      40.574228
     ],
     [
      -89.776252,
      40.573521
     ],
     [
      -89.779742,
      40.573932
     ],
     [
      -89.783886,
      40.573931
     ],
     [
      -89.789567,
      40.574798
     ],
     [
      -89.791756,
      40.574683
     ],
     [
      -89.809483,
      40.572038
     ],
     [
      -89.813777,
      40.571345
     ],
     [
      -89.815114,
      40.570944
     ],
     [
      -89.822458,
      40.567623
     ],
     [
      -89.827257,
      40.565226
     ],
     [
      -89.829122,
      40.564862
     ],
     [
      -89.830392,
      40.56492
     ],
     [
      -89.831399,
      40.565163
     ],
     [
      -89.840539,
      40.568342
     ],
     [
      -89.846515,
      40.56898
     ],
     [
      -89.850233,
      40.569572
     ],
     [
      -89.851869,
      40.569554
     ],
     [
      -89.85768,
      40.568587
     ],
     [
      -89.87693,
      40.566545
     ],
     [
      -89.885252,
      40.565037
     ],
     [
      -89.895133,
      40.564621
     ],
     [
      -89.897432,
      40.564243
     ],
     [
      -89.899716,
      40.563499
     ],
     [
      -89.900948,
      40.562924
     ],
     [
      -89.90685,
      40.559165
     ],
     [
      -89.908029,
      40.558558
     ],
     [
      -89.914212,
      40.556303
     ],
     [
      -89.915453,
      40.555943
     ],
     [
      -89.917427,
      40.555571
     ],
     [
      -89.922085,
      40.55518
     ],
     [
      -89.92434,
      40.554792
     ],
     [
      -89.943551,
      40.548676
     ],
     [
      -89.946408,
      40.548048
     ],
     [
      -89.94891,
      40.547772
     ],
     [
      -89.954813,
      40.54762
     ],
     [
      -89.956465,
      40.547738
     ],
     [
      -89.957956,
      40.548
     ],
     [
      -89.959504,
      40.548425
     ],
     [
      -89.960903,
      40.54897
     ],
     [
      -89.965445,
      40.551482
     ],
     [
      -89.968211,
      40.552653
     ],
     [
      -89.970241,
      40.553212
     ],
     [
      -89.973893,
      40.553666
     ],
     [
      -90.017612,
      40.553377
     ],
     [
      -90.018722,
      40.553199
     ],
     [
      -90.019391,
      40.552952
     ],
     [
      -90.020874,
      40.55174
     ],
     [
      -90.021435,
      40.551409
     ],
     [
      -90.022369,
      40.551117
     ],
     [
      -90.027484,
      40.550963
     ],
     [
      -90.034421,
      40.550933
     ],
     [
      -90.036023,
      40.550762
     ],
     [
      -90.047979,
      40.548451
     ],
     [
      -90.051245,
      40.547466
     ],
     [
      -90.074239,
      40.53776
     ],
     [
      -90.096977,
      40.527662
     ],
     [
      -90.123477,
      40.519119
     ],
     [
      -90.137246,
      40.514905
     ],
     [
      -90.15867,
      40.507785
     ],
     [
      -90.20031,
      40.4944
     ],
     [
      -90.203631,
      40.492978
     ],
     [
      -90.216036,
      40.48568
     ],
     [
      -90.218161,
      40.484679
     ],
     [
      -90.245962,
      40.47501
     ],
     [
      -90.249398,
      40.474046
     ],
     [
      -90.253216,
      40.473528
     ],
     [
      -90.275029,
      40.472984
     ],
     [
      -90.297634,
      40.473621
     ],
     [
      -90.299839,
      40.47386
     ],
     [
      -90.302773,
      40.474693
     ],
     [
      -90.304697,
      40.475622
     ],
     [
      -90.306238,
      40.476749
     ],
     [
      -90.307927,
      40.478324
     ],
     [
      -90.30891,
      40.478934
     ],
     [
      -90.3097,
      40.479208
     ],
     [
      -90.310767,
      40.479415
     ],
     [
      -90.311967,
      40.479429
     ],
     [
      -90.31506,
      40.478983
     ],
     [
      -90.318385,
      40.479262
     ],
     [
      -90.320247,
      40.479687
     ],
     [
      -90.32285,
      40.480851
     ],
     [
      -90.325321,
      40.481631
     ],
     [
      -90.32692,
      40.482304
     ],
     [
      -90.329982,
      40.484955
     ],
     [
      -90.330621,
      40.48534
     ],
     [
      -90.332762,
      40.486072
     ],
     [
      -90.335339,
      40.486687
     ],
     [
      -90.336764,
      40.486744
     ],
     [
      -90.33848,
      40.486528
     ],
     [
      -90.344823,
      40.485296
     ],
     [
      -90.346028,
      40.485367
     ],
     [
      -90.347562,
      40.485812
     ],
     [
      -90.34879,
      40.48653
     ],
     [
      -90.350119,
      40.487632
     ],
     [
      -90.351375,
      40.488351
     ],
     [
      -90.353864,
      40.489224
     ],
     [
      -90.35517,
      40.48941
     ],
     [
      -90.356495,
      40.489349
     ],
     [
      -90.360536,
      40.488809
     ],
     [
      -90.363707,
      40.488752
     ],
     [
      -90.365298,
      40.488393
     ],
     [
      -90.36729,
      40.487554
     ],
     [
      -90.368584,
      40.486742
     ],
     [
      -90.369921,
      40.485292
     ],
     [
      -90.370332,
      40.484491
     ],
     [
      -90.371051,
      40.481929
     ],
     [
      -90.371319,
      40.481321
     ],
     [
      -90.372066,
      40.480398
     ],
     [
      -90.373208,
      40.479727
     ],
     [
      -90.374449,
      40.479308
     ],
     [
      -90.37573,
      40.479153
     ],
     [
      -90.376358,
      40.479186
     ],
     [
      -90.377601,
      40.479478
     ],
     [
      -90.378127,
      40.479734
     ],
     [
      -90.38039,
      40.481536
     ],
     [
      -90.384159,
      40.485926
     ],
     [
      -90.384785,
      40.487208
     ],
     [
      -90.385424,
      40.490665
     ],
     [
      -90.386037,
      40.491686
     ],
     [
      -90.387108,
      40.492536
     ],
     [
      -90.388339,
      40.493014
     ],
     [
      -90.390017,
      40.493385
     ],
     [
      -90.391332,
      40.493539
     ],
     [
      -90.397212,
      40.493667
     ],
     [
      -90.404819,
      40.492219
     ],
     [
      -90.405795,
      40.492213
     ],
     [
      -90.408547,
      40.4926
     ],
     [
      -90.409747,
      40.492511
     ],
     [
      -90.410794,
      40.492233
     ],
     [
      -90.411909,
      40.491719
     ],
     [
      -90.414653,
      40.489623
     ],
     [
      -90.415457,
      40.489189
     ],
     [
      -90.41661,
      40.488721
     ],
     [
      -90.41812,
      40.48846
     ],
     [
      -90.41938,
      40.488544
     ],
     [
      -90.420028,
      40.488712
     ],
     [
      -90.425006,
      40.491445
     ],
     [
      -90.42779,
      40.492726
     ],
     [
      -90.429039,
      40.493093
     ],
     [
      -90.430205,
      40.493199
     ],
     [
      -90.44851,
      40.490956
     ],
     [
      -90.461744,
      40.487952
     ],
     [
      -90.464942,
      40.48745
     ],
     [
      -90.467208,
      40.487378
     ],
     [
      -90.474591,
      40.487624
     ],
     [
      -90.477341,
      40.488125
     ],
     [
      -90.479468,
      40.488992
     ],
     [
      -90.497076,
      40.499592
     ],
     [
      -90.499404,
      40.501311
     ],
     [
      -90.500296,
      40.502134
     ],
     [
      -90.502152,
      40.504337
     ],
     [
      -90.503374,
      40.506423
     ],
     [
      -90.504009,
      40.507995
     ],
     [
      -90.504487,
      40.509877
     ],
     [
      -90.504686,
      40.51172
     ],
     [
      -90.504405,
      40.541077
     ],
     [
      -90.504522,
      40.542167
     ],
     [
      -90.504964,
      40.543518
     ],
     [
      -90.505737,
      40.544809
     ],
     [
      -90.506839,
      40.546031
     ],
     [
      -90.508528,
      40.547254
     ],
     [
      -90.510199,
      40.548052
     ],
     [
      -90.518706,
      40.551777
     ],
     [
      -90.520697,
      40.552411
     ],
     [
      -90.522305,
      40.552734
     ],
     [
      -90.525396,
      40.552958
     ],
     [
      -90.562043,
      40.553528
     ],
     [
      -90.57616,
      40.551969
     ],
     [
      -90.578873,
      40.551893
     ],
     [
      -90.581556,
      40.55207
     ],
     [
      -90.60525,
      40.555236
     ],
     [
      -90.607673,
      40.555424
     ],
     [
      -90.634481,
      40.556063
     ],
     [
      -90.667621,
      40.556614
     ],
     [
      -90.689815,
      40.557115
     ],
     [
      -90.692466,
      40.557066
     ],
     [
      -90.696886,
      40.556702
     ],
     [
      -90.699715,
      40.556709
     ],
     [
      -90.702559,
      40.55689
     ],
     [
      -90.719981,
      40.558716
     ],
     [
      -90.773923,
      40.559635
     ],
     [
      -90.819388,
      40.561677
     ],
     [
      -90.821532,
      40.561614
     ],
     [
      -90.823962,
      40.561298
     ],
     [
      -90.850978,
      40.556969
     ],
     [
      -90.85355,
      40.556834
     ],
     [
      -90.864117,
      40.556953
     ],
     [
      -90.866241,
      40.557361
     ],
     [
      -90.867761,
      40.557944
     ],
     [
      -90.868788,
      40.558506
     ],
     [
      -90.870256,
      40.559592
     ],
     [
      -90.873442,
      40.562756
     ],
     [
      -90.875272,
      40.563731
     ],
     [
      -90.877399,
      40.564188
     ],
     [
      -90.891901,
      40.564853
     ],
     [
      -90.893842,
      40.565094
     ],
     [
      -90.895985,
      40.56555
     ],
     [
      -90.899169,
      40.566622
     ],
     [
      -90.907515,
      40.570568
     ],
     [
      -90.917097,
      40.573324
     ],
     [
      -90.927843,
      40.577988
     ],
     [
      -90.929327,
      40.578531
     ],
     [
      -90.931716,
      40.579167
     ],
     [
      -90.934449,
      40.579612
     ],
     [
      -90.938198,
      40.579762
     ],
     [
      -90.96831,
      40.578651
     ],
     [
      -90.968372,
      40.578593
     ],
     [
      -90.969176,
      40.578457
     ],
     [
      -90.970378,
      40.577973
     ],
     [
      -90.971054,
      40.577481
     ],
     [
      -90.971637,
      40.576766
     ],
     [
      -90.971904,
      40.576195
     ],
     [
      -90.973083,
      40.570945
     ],
     [
      -90.973326,
      40.570382
     ],
     [
      -90.9774,
      40.564357
     ],
     [
      -90.988667,
      40.55129
     ],
     [
      -90.990348,
      40.549472
     ],
     [
      -90.992692,
      40.547342
     ],
     [
      -90.994039,
      40.546269
     ],
     [
      -91.009134,
      40.535667
     ],
     [
      -91.013075,
      40.533026
     ],
     [
      -91.014728,
      40.532066
     ],
     [
      -91.018442,
      40.530247
     ],
     [
      -91.036953,
      40.521999
     ],
     [
      -91.043851,
      40.519928
     ],
     [
      -91.046596,
      40.51825
     ],
     [
      -91.048139,
      40.516711
     ],
     [
      -91.049168,
      40.515471
     ],
     [
      -91.049747,
      40.514208
     ],
     [
      -91.050103,
      40.512105
     ],
     [
      -91.050869,
      40.510218
     ],
     [
      -91.051214,
      40.508053
     ],
     [
      -91.051585,
      40.507288
     ],
     [
      -91.052548,
      40.50594
     ],
     [
      -91.053793,
      40.504946
     ],
     [
      -91.054478,
      40.504562
     ],
     [
      -91.055939,
      40.504047
     ],
     [
      -91.057128,
      40.503859
     ],
     [
      -91.057961,
      40.503858
     ],
     [
      -91.06452,
      40.504888
     ],
     [
      -91.068962,
      40.505228
     ],
     [
      -91.070794,
      40.50523
     ],
     [
      -91.072743,
      40.504878
     ],
     [
      -91.077136,
      40.503338
     ],
     [
      -91.078281,
      40.503076
     ],
     [
      -91.080091,
      40.502876
     ],
     [
      -91.09925,
      40.503703
     ],
     [
      -91.101882,
      40.503632
     ],
     [
      -91.10516,
      40.503178
     ],
     [
      -91.107549,
      40.502582
     ],
     [
      -91.110245,
      40.501583
     ],
     [
      -91.111681,
      40.500867
     ],
     [
      -91.207597,
      40.447003
     ],
     [
      -91.209359,
      40.445508
     ],
     [
      -91.242229,
      40.40334
     ],
     [
      -91.243021,
      40.40239
     ],
     [
      -91.244719,
      40.400877
     ],
     [
      -91.246367,
      40.399859
     ],
     [
      -91.248773,
      40.398812
     ],
     [
      -91.260792,
      40.394248
     ],
     [
      -91.265201,
      40.392267
     ],
     [
      -91.285678,
      40.380808
     ],
     [
      -91.289013,
      40.379144
     ],
     [
      -91.292124,
      40.377909
     ],
     [
      -91.295427,
      40.376884
     ],
     [
      -91.299904,
      40.375886
     ],
     [
      -91.302532,
      40.3755
     ],
     [
      -91.305094,
      40.375265
     ],
     [
      -91.309023,
      40.375117
     ],
     [
      -91.319272,
      40.375361
     ],
     [
      -91.320222,
      40.375571
     ],
     [
      -91.321825,
      40.376203
     ],
     [
      -91.322973,
      40.376872
     ],
     [
      -91.323914,
      40.377783
     ],
     [
      -91.324978,
      40.379381
     ],
     [
      -91.325643,
      40.380041
     ],
     [
      -91.326665,
      40.380735
     ],
     [
      -91.327429,
      40.381093
     ],
     [
      -91.330917,
      40.382278
     ],
     [
      -91.341151,
      40.38698
     ],
     [
      -91.342131,
      40.387338
     ],
     [
      -91.343052,
      40.387524
     ],
     [
      -91.344551,
      40.387538
     ],
     [
      -91.34769,
      40.386768
     ],
     [
      -91.349169,
      40.386697
     ],
     [
      -91.350714,
      40.387012
     ],
     [
      -91.352606,
      40.38798
     ],
     [
      -91.353836,
      40.388339
     ],
     [
      -91.355711,
      40.38833
     ],
     [
      -91.356773,
      40.38807
     ],
     [
      -91.357874,
      40.387489
     ],
     [
      -91.35989,
      40.385684
     ],
     [
      -91.364926,
      40.382011
     ],
     [
      -91.366457,
      40.381045
     ],
     [
      -91.369205,
      40.379672
     ],
     [
      -91.374912,
      40.377333
     ],
     [
      -91.37649,
      40.376391
     ],
     [
      -91.379434,
      40.375376
     ],
     [
      -91.385227,
      40.374193
     ],
     [
      -91.396913,
      40.372342
     ],
     [
      -91.413131,
      40.370993
     ],
     [
      -91.418155,
      40.369881
     ],
     [
      -91.427544,
      40.368082
     ],
     [
      -91.428891,
      40.367655
     ],
     [
      -91.432539,
      40.366104
     ],
     [
      -91.436974,
      40.36509
     ],
     [
      -91.438142,
      40.364569
     ]
    ]
   }
  },
  {
   "type": "Feature",
   "properties": {
    "company": "Toledo, Peoria and Western",
    "line": "Toledo, Peoria and Western: Hamilton – Keokuk (TP&Warsaw era)",
    "id": "tpw-pred-hamilton-keokuk",
    "color": "#C8008C",
    "mode": "intercity_rail",
    "avg_speed_kmh": 35,
    "speed_source": "estimate, NOT sourced (Rule 3)",
    "geometry_source": "OpenStreetMap via Overpass (mail.ru mirror, cached degree tiles) with opstrace.py: ways tagged old_railway_operator=TP&W (or joint (TP&W/Wabash)) costed 1x, untagged rail 1.25x, trails 3x, any other named operator 12x; OpenHistoricalMap ways fetched for Peoria, Warsaw and La Harpe - Lomax but none ended up in the drawn line. Waypoints are Nominatim geocodes (type-checked; Effner, Washington, Hamilton and Keokuk hand-pinned) snapped by a layered dynamic program, each leg confined to a corridor round its chord. Douglas-Peucker 8 m, then trim_reversals.",
    "geometry_quality": "2.1 mi drawn from the Hamilton junction (40.3875, -91.3446) to Keokuk Union Depot against 1.3 mi documented (Hamilton MP 222.6 - Keokuk MP 223.9); the difference is that the drawing starts at the junction about 0.7 mi south of the centre of Hamilton. Traced on OSM (TP&W-tagged, 'joint (TP&W/Wabash)' and untagged rail); no straight-line leg. LATER ALIGNMENT/STRUCTURE: draws the 1916 replacement Keokuk and Hamilton bridge on the 1871 site, and ends at the Keokuk Union Depot opened in 1891 (Wikipedia coordinates); the 1871-1875 Keokuk station was not located.",
    "segments": [
     {
      "start": 1871,
      "end": 1875,
      "headway_min": 720,
      "note": "Peoria and Oquawka (Eastern Extension) 1860-61, Logansport, Peoria and Burlington 1861-64, Toledo, Peoria and Warsaw from 14 May 1864 (receivership 20 Jan 1875) - successive names of the road that became the Toledo, Peoria and Western, drawn in its one colour. The Keokuk and Hamilton bridge (2,190 ft, 378 ft draw) opened 15 Jun 1871 after work begun Apr 1869, giving the Toledo, Peoria and Warsaw its Keokuk terminus. Fowler shows 1868-70 Guide letters at East Keokuk and 1875 Official Guide letters on the line; 1875 is the last confirmed year. This end year is the last CONFIRMED year, not a known end - no source dates when service actually stopped. Do not extend without evidence. Headway is an estimate and is NOT sourced.",
      "sources": [
       "Segment-level: 15 Jun 1871 bridge opening (american-rails.com) and Fowler's 1875 letters, as gathered by research/branches/toledo_peoria_and_western_railway.txt (companion site repo, 2026-10-08). Headway NOT SOURCED.",
       "https://www.american-rails.com/tpw.html",
       "https://www.branchline.uk/jfpdf/illinoisrrs2.pdf (John Fowler, Illinois passenger stations, lines 224/225, with timetable-year letters)"
      ]
     }
    ]
   },
   "geometry": {
    "type": "LineString",
    "coordinates": [
     [
      -91.344551,
      40.387538
     ],
     [
      -91.347405,
      40.386821
     ],
     [
      -91.348875,
      40.386687
     ],
     [
      -91.350541,
      40.386954
     ],
     [
      -91.352606,
      40.38798
     ],
     [
      -91.354019,
      40.388364
     ],
     [
      -91.355711,
      40.38833
     ],
     [
      -91.358129,
      40.387844
     ],
     [
      -91.359953,
      40.387848
     ],
     [
      -91.363118,
      40.388522
     ],
     [
      -91.377495,
      40.392089
     ],
     [
      -91.378518,
      40.391965
     ],
     [
      -91.381667,
      40.390371
     ],
     [
      -91.381721,
      40.390436
     ]
    ]
   }
  },
  {
   "type": "Feature",
   "properties": {
    "company": "Toledo, Peoria and Western",
    "line": "Toledo, Peoria and Western: La Harpe – Lomax (TP&Warsaw era)",
    "id": "tpw-pred-la-harpe-lomax",
    "color": "#C8008C",
    "mode": "intercity_rail",
    "avg_speed_kmh": 35,
    "speed_source": "estimate, NOT sourced (Rule 3)",
    "geometry_source": "OpenStreetMap via Overpass (mail.ru mirror, cached degree tiles) with opstrace.py: ways tagged old_railway_operator=TP&W (or joint (TP&W/Wabash)) costed 1x, untagged rail 1.25x, trails 3x, any other named operator 12x; OpenHistoricalMap ways fetched for Peoria, Warsaw and La Harpe - Lomax but none ended up in the drawn line. Waypoints are Nominatim geocodes (type-checked; Effner, Washington, Hamilton and Keokuk hand-pinned) snapped by a layered dynamic program, each leg confined to a corridor round its chord. Douglas-Peucker 8 m, then trim_reversals.",
    "geometry_quality": "9.2 mi drawn La Harpe - Disco - Lomax against 10.5 mi documented (La Harpe MP 195.5 - Lomax MP 206.0, 1952 Guide). Traced on OSM ways tagged old_railway_operator=TP&W (Keokuk Junction Railway today); no straight-line leg. The drawing ends where the TP&W meets the BNSF (ex-CB&Q) line at 40.6803, -91.0565, about 0.9 mi east of Lomax station (waypoint 1.4 km off), and starts at the junction 150 m from the main line west of La Harpe - which accounts for most of the 1.3 mi shortfall. NOT DRAWN: the 1875 trains continued 9 mi from Lomax to Burlington, Iowa over CB&Q trackage rights; that leg is CB&Q geometry and is left off.",
    "segments": [
     {
      "start": 1875,
      "end": 1875,
      "headway_min": 720,
      "note": "ANCHOR. Peoria and Oquawka (Eastern Extension) 1860-61, Logansport, Peoria and Burlington 1861-64, Toledo, Peoria and Warsaw from 14 May 1864 (receivership 20 Jan 1875) - successive names of the road that became the Toledo, Peoria and Western, drawn in its one colour. La Harpe - Disco - Lomax was completed 26 Nov 1871 to give a second CB&Q interchange and an entry to Burlington. The only confirmed passenger year is 1875: Fowler's 1875 Official Guide letter at Disco, Iowa and Burlington. Service certainly ran wider both ways, but no other year is confirmed; passenger use at opening is not established. By the table dated Sept 1942 (printed Feb 1952) the line was 'Freight Service only' and Disco carries the freight-only dagger in the index, so NO TP&W Railway-era (1887+) year is drawn - Rule 1. McNear dropped the Burlington trackage rights c.1927-28 (american-rails.com), a plausible but unproven passenger end. Do not widen this anchor without a dated timetable. Headway is an estimate and is NOT sourced.",
      "sources": [
       "Segment-level: Fowler IL 225 1875 Official Guide letters at Disco, Iowa and Burlington; 26 Nov 1871 completion (american-rails.com); 1952 Guide 'Freight Service only' for the 1887+ era (as read by the research report research/branches/toledo_peoria_and_western_railway.txt (companion site repo, 2026-10-08); not re-read in the tracing pass). Headway NOT SOURCED.",
       "https://www.branchline.uk/jfpdf/illinoisrrs2.pdf (John Fowler, Illinois passenger stations, lines 224/225, with timetable-year letters)",
       "https://www.american-rails.com/tpw.html",
       "Official Guide of the Railways, Feb 1952, TP&W page (printed p.255; archive.org the-official-guide-of-the-railways-images, leaf 252 image) - https://archive.org/download/the-official-guide-of-the-railways-images/page/n252.jpg"
      ]
     }
    ]
   },
   "geometry": {
    "type": "LineString",
    "coordinates": [
     [
      -90.97229,
      40.578444
     ],
     [
      -90.974392,
      40.578497
     ],
     [
      -90.979934,
      40.579465
     ],
     [
      -90.982171,
      40.580235
     ],
     [
      -90.983293,
      40.580848
     ],
     [
      -90.984435,
      40.581682
     ],
     [
      -90.986003,
      40.583412
     ],
     [
      -90.989965,
      40.590296
     ],
     [
      -90.991407,
      40.59175
     ],
     [
      -90.992246,
      40.592345
     ],
     [
      -90.995985,
      40.594189
     ],
     [
      -90.997219,
      40.594952
     ],
     [
      -91.000367,
      40.597032
     ],
     [
      -91.001816,
      40.598349
     ],
     [
      -91.019773,
      40.618839
     ],
     [
      -91.027356,
      40.627913
     ],
     [
      -91.03943,
      40.64164
     ],
     [
      -91.040271,
      40.642902
     ],
     [
      -91.040644,
      40.644097
     ],
     [
      -91.040524,
      40.647325
     ],
     [
      -91.04078,
      40.648591
     ],
     [
      -91.04119,
      40.649442
     ],
     [
      -91.041886,
      40.650306
     ],
     [
      -91.046525,
      40.654377
     ],
     [
      -91.048014,
      40.655384
     ],
     [
      -91.049243,
      40.655828
     ],
     [
      -91.050382,
      40.656036
     ],
     [
      -91.051569,
      40.656062
     ],
     [
      -91.053924,
      40.65585
     ],
     [
      -91.055564,
      40.656054
     ],
     [
      -91.056438,
      40.656319
     ],
     [
      -91.057545,
      40.656864
     ],
     [
      -91.05886,
      40.658011
     ],
     [
      -91.059456,
      40.659032
     ],
     [
      -91.059743,
      40.660274
     ],
     [
      -91.059649,
      40.661122
     ],
     [
      -91.05928,
      40.662101
     ],
     [
      -91.05842,
      40.663168
     ],
     [
      -91.053163,
      40.667876
     ],
     [
      -91.052117,
      40.669447
     ],
     [
      -91.051806,
      40.670661
     ],
     [
      -91.051863,
      40.671809
     ],
     [
      -91.052196,
      40.672767
     ],
     [
      -91.056543,
      40.680348
     ]
    ]
   }
  },
  {
   "type": "Feature",
   "properties": {
    "company": "Amtrak",
    "line": "Amtrak: Prairie Marksman (East Peoria – Chenoa)",
    "id": "amtrak-prairie-marksman-tpw",
    "color": "#1c4e80",
    "mode": "intercity_rail",
    "avg_speed_kmh": 60,
    "speed_source": "estimate, NOT sourced (Rule 3); no Prairie Marksman timetable was read",
    "geometry_source": "OpenStreetMap via Overpass (mail.ru mirror, cached degree tiles) with opstrace.py: ways tagged old_railway_operator=TP&W (or joint (TP&W/Wabash)) costed 1x, untagged rail 1.25x, trails 3x, any other named operator 12x; OpenHistoricalMap ways fetched for Peoria, Warsaw and La Harpe - Lomax but none ended up in the drawn line. Waypoints are Nominatim geocodes (type-checked; Effner, Washington, Hamilton and Keokuk hand-pinned) snapped by a layered dynamic program, each leg confined to a corridor round its chord. Douglas-Peucker 8 m, then trim_reversals.",
    "geometry_quality": "44.8 mi drawn East Peoria (TP&W yard, 40.6703, -89.5416) - Chenoa (40.7451, -88.7205, where the TP&W crosses the ex-Alton / ICG St. Louis line) against 44 mi (tpwrailroad site) / 45.4 mi (Fowler MP 62.8 - 108.2). Cut from the tpw-effner-peoria-yard trace: OSM ways tagged old_railway_operator=TP&W, i.e. TP&W track; no straight-line leg. The exact site of Amtrak's small East Peoria depot within the yard was not located; the line ends at the yard. NOT DRAWN HERE: the train's Chenoa - Chicago leg over the Illinois Central Gulf.",
    "segments": [
     {
      "start": 1980,
      "end": 1981,
      "headway_min": 1440,
      "note": "Amtrak's state-supported Prairie Marksman, Chicago - East Peoria, ran over the TP&W East Peoria - Farmdale - Washington - Eureka - El Paso - Gridley - Meadows - Chenoa from 10 Aug 1980 to 4 Oct 1981: one round trip, a morning departure from a small metal depot in the East Peoria yard and an evening return. It followed the Rock Island's end of Peoria - Chicago service at the start of 1979. Amtrak ran the train, so it carries Amtrak's colour (Rule 4), on TP&W rails. Headway from the one daily round trip (Trains).",
      "sources": [
       "Segment-level: 10 Aug 1980 - 4 Oct 1981 and the one round trip from Trains Magazine; 'October 1981' from the tpwrailroad site; Fowler 'East Peoria (AMTK) 1980'; as gathered by research/branches/toledo_peoria_and_western_railway.txt (companion site repo, 2026-10-08).",
       "https://www.trains.com/ctr/railroads/fallen-flags/toledo-peoria-and-western-railway-remembered/",
       "https://sites.google.com/view/tpwrailroad/home",
       "https://www.branchline.uk/jfpdf/illinoisrrs2.pdf (John Fowler, Illinois passenger stations, lines 224/225, with timetable-year letters)"
      ]
     }
    ]
   },
   "geometry": {
    "type": "LineString",
    "coordinates": [
     [
      -89.541619,
      40.670256
     ],
     [
      -89.533905,
      40.671487
     ],
     [
      -89.53222,
      40.67164
     ],
     [
      -89.530435,
      40.671631
     ],
     [
      -89.528543,
      40.671427
     ],
     [
      -89.526885,
      40.671072
     ],
     [
      -89.518618,
      40.668427
     ],
     [
      -89.516441,
      40.667964
     ],
     [
      -89.514251,
      40.667876
     ],
     [
      -89.504433,
      40.668848
     ],
     [
      -89.502592,
      40.668882
     ],
     [
      -89.501249,
      40.668751
     ],
     [
      -89.499547,
      40.668381
     ],
     [
      -89.495167,
      40.666758
     ],
     [
      -89.493355,
      40.666314
     ],
     [
      -89.490833,
      40.666131
     ],
     [
      -89.489445,
      40.666234
     ],
     [
      -89.487918,
      40.66652
     ],
     [
      -89.486258,
      40.667062
     ],
     [
      -89.484745,
      40.667816
     ],
     [
      -89.483472,
      40.668724
     ],
     [
      -89.482338,
      40.669885
     ],
     [
      -89.473937,
      40.684063
     ],
     [
      -89.472691,
      40.68541
     ],
     [
      -89.471238,
      40.68632
     ],
     [
      -89.469474,
      40.686844
     ],
     [
      -89.467423,
      40.686911
     ],
     [
      -89.465885,
      40.68658
     ],
     [
      -89.462841,
      40.685417
     ],
     [
      -89.46138,
      40.685158
     ],
     [
      -89.459861,
      40.685104
     ],
     [
      -89.439967,
      40.686767
     ],
     [
      -89.437119,
      40.687286
     ],
     [
      -89.435542,
      40.687896
     ],
     [
      -89.434389,
      40.688516
     ],
     [
      -89.408132,
      40.705511
     ],
     [
      -89.404584,
      40.707171
     ],
     [
      -89.402549,
      40.707833
     ],
     [
      -89.400281,
      40.708359
     ],
     [
      -89.288533,
      40.725344
     ],
     [
      -89.285774,
      40.72554
     ],
     [
      -89.283376,
      40.725479
     ],
     [
      -89.27293,
      40.723949
     ],
     [
      -89.271082,
      40.723885
     ],
     [
      -89.268531,
      40.724097
     ],
     [
      -89.112772,
      40.74373
     ],
     [
      -89.111505,
      40.743758
     ],
     [
      -89.10734,
      40.743538
     ],
     [
      -89.105983,
      40.743324
     ],
     [
      -89.104459,
      40.742896
     ],
     [
      -89.102548,
      40.742081
     ],
     [
      -89.093424,
      40.737004
     ],
     [
      -89.091069,
      40.736238
     ],
     [
      -89.088446,
      40.735981
     ],
     [
      -88.929148,
      40.740681
     ],
     [
      -88.802471,
      40.743476
     ],
     [
      -88.720468,
      40.745094
     ]
    ]
   }
  }
 ]
}